ID,ID = VENDOR#,LOCATION CODE,TYPE,NAME,ADDRESS1,CITY,STATE,POSTAL_CODE,EMAIL,PHONE,CONTACT
1,1,1,Corporate Office,COST PLUS CORPORATE OFFICE,200 4TH STREET,OAKLAND,CA,94607,domesticlogistics@cpwm.com,(510) 893-7300,operator
12,12,12,Store,12 FAYETTEVILLE,2712 Freedom Parkway Drive,Fayetteville,NC,28314,6012.store@cpwm.com,(910) 717-3078,Jeffrey Church
14,14,14,Store,14 SANTA CRUZ,450 RIVER ST BLDG C,SANTA CRUZ,CA,95060,6014.store@cpwm.com,(831) 466-9188,Lua Skeel
15,15,15,Store,15 SACRAMENTO,1821 HOWE AVENUE SACRAMENTO,SACRAMENTO,CA,95825,6015.store@cpwm.com,(916) 929-0220,Gecsabel Bardales 
17,17,17,Store,17 ALMADEN,1084 BLOSSOM HILL RD,SAN JOSE,CA,95123,6017.store@cpwm.com,(408) 267-6666,Jeff Schmidt
19,19,19,Store,19 OAKLAND,101 CLAY ST,OAKLAND,CA,94607,6019.store@cpwm.com,(510) 834-4440,Michael Zuber
20,20,20,Store,20 MARIN,2040 REDWOOD HWY,GREENBRAE,CA,94904,6020.store@cpwm.com,(415) 924-7743,Ron Gibson
23,23,23,Store,23 SANTA ROSA,2685 SANTA ROSA AVE,SANTA ROSA,CA,95401,6023.store@cpwm.com,(707) 526-0600,Chuck O'Daniel
25,25,25,Store,25 MOUNTAIN VIEW,1910 W EL CAMINO REAL,MOUNTAIN VIEW,CA,94040,6025.store@cpwm.com,(650) 961-6066,Lorraine Budy
26,26,26,Store,26 CITRUS HEIGHTS,6191 SUNRISE BLVD,CITRUS HEIGHTS,CA,95610,6026.store@cpwm.com,(916) 725-6757,Armando Zuniga
29,29,29,Store,29 CHANDLER,860 N 54th Street,Chandler,AZ,85226,6029.store@cpwm.com,(480) 758-6505,Michael Hall - Dual SM 
30,30,30,Store,30 TORRANCE,22929 HAWTHORNE BLVD,TORRANCE,CA,90505,6030.store@cpwm.com,(310) 378-8331,Suzanne Steinbacher 
32,32,32,Store,32 OLYMPIA,2401 4th Avenue West,Olympia,WA,98502,6032.store@cpwm.com,(360) 890-3820,Nicole Lam
33,33,33,Store,33 South Coast,1313 W Sunflower Avenue,Santa Ana,CA,92704,6033.store@cpwm.com,(714) 957-6553,Anthony Thomas
34,34,34,Store,34 LAKEWOOD,5041 LAKEWOOD BLVD,LAKEWOOD,CA,90712,6034.store@cpwm.com,(562) 602-0031,Michelle Capizzi
35,35,35,Store,35 PASADENA,3655 E COLORADO BLVD,PASADENA,CA,91107,6035.store@cpwm.com,(626) 304-9111,Jeremy Wright
37,37,37,Store,37 SAN DIMAS,638 W ARROW HWY,SAN DIMAS,CA,91773,6037.store@cpwm.com,(909) 592-2924,Greg Gonzales
38,38,38,Store,38 BELLEVUE,15600 N.E. 8th Street Suite Q-1,Bellevue,WA,98008,6038.store@cpwm.com,(4250 201-3405,Stanley Bejgrowicz 
40,40,40,Store,40 GROSSMONT,5500 GROSSMONT CENTER DR STE 233,LA MESA,CA,91942,6040.store@cpwm.com,(619) 466-2991,Rick Saldivar
42,42,42,Store,42 BUCKHEAD,3495 Buckhead Loop NE Suite 100A,Buckhead,GA,30326,6042.store@cpwm.com,(470) 447-5788,Kelly Williams
43,43,43,Store,43 BREA,109 W IMPERIAL HWY,BREA,CA,92821,6043.store@cpwm.com,(714) 255-9195,Rochelle Elam
44,44,44,Store,44 LA JOLLA,8657 VILLA LA JOLLA DR STE 117,LA JOLLA,CA,92037,6044.store@cpwm.com,(858) 455-8210,Robert Burton
46,46,46,Store,46 WEST LA,10860 SANTA MONICA BLVD,LOS ANGELES,CA,90025,6046.store@cpwm.com,(310) 441-5115,Andrew Hochman (AM)
47,47,47,Store,47 SAN LUIS OBISPO,325 MADONNA RD,SAN LUIS OBISPO,CA,93405,6047.store@cpwm.com,(805) 542-9211,Lynda Rodriguez
49,49,49,Store,49 NORTH SCOTTSDALE,16223 N SCOTTSDALE RD,SCOTTSDALE,AZ,85254,6049.store@cpwm.com,(480) 905-0218,Wayne Goldman - Dual SM
51,51,51,Store,51 Albuquerque,3301 Menaul NE,Albuquerque,NM,87107,6051.store@cpwm.com,(505) 881-9300,OPEN
52,52,52,Store,52 SW DENVER,8601 W CROSS DR,DENVER,CO,80123,6052.store@cpwm.com,(303) 933-9515,Jim Leiesgang
53,53,53,Store,53 BURBANK,201 E Magnolia Blvd Suite 122,Burbank,CA,91502,6053.store@cpwm.com,(747) 241-5030,Anissa Williams
54,54,54,Store,54 GREENSBORO,4526 W Wendover Ave Suite 102,Greensboro,NC,27409,6054.store@cpwm.com,(336) 609-5353,Michele Mankey
55,55,55,Store,55 CAMELBACK,1750 E CAMELBACK RD,PHOENIX,AZ,85016,6055.store@cpwm.com,(602) 263-7744,Sheldon Baldwin
56,56,56,Store,6056 Manchester,179B Hale Rd.,Manchester,CT,6042,6056.store@cpwm.com,(860) 327-0566,Michael Passwaters
58,58,58,Store,58 LUBBOCK,2626 W Loop 289,Lubbock,TX,79407,6058.store@cpwm.com,(806) 507-3372,Arthur Escobedo
59,59,59,Store,59 BRENTWOOD,24 BRENTWOOD PROMENADE CT,BRENTWOOD,MO,63144,6059.store@cpwm.com,(314) 918-7800,Ashley Seidel
60,60,60,Store,60 Tigard,10108 SW Washington Sq Road,Tigard,OR,97223,6060.store@cpwm.com,(503) 968-2060,Euclide Nunez
69,69,69,Store,69 WEST LAS VEGAS,2151 N RAINBOW BLVD,LAS VEGAS,NV,89108,6069.store@cpwm.com,(702) 638-8844,Patti Hazan
71,71,71,Store,71 LYNNWOOD,18205 ALDERWOOD MALL PKWY STE S,LYNNWOOD,WA,98037,6071.store@cpwm.com,(425) 774-8892,Vernal Henderson
72,72,72,Store,72 SEATTLE,2103 WESTERN AVE,SEATTLE,WA,98121,6072.store@cpwm.com,(206) 443-1055,Quentin Graham
73,73,73,Store,73 TUKWILA,17680 SOUTHCENTER PKWY,TUKWILA,WA,98188,6073.store@cpwm.com,(206) 575-0646,Jessica Espicuerta
74,74,74,Store,74 Austin,9333 Research Blvd,Austin,TX,78759,6074.store@cpwm.com,(512) 502-9974,Ashley Boyer
75,75,75,Store,75 Oakbrook,2155 West 22nd Street,Oak Brook,IL,60523,6075.store@cpwm.com,(630) 573-9826,Sean Kunz
76,76,76,Store,76 Lincoln Park,1623 North Sheffield Avenue,Chicago,IL,60614,6076.store@cpwm.com,(312) 587-8037,Anthony Schneider
77,77,77,Store,77 THOUSAND OAKS,160 PROMENADE WAY SUITE #1,WESTLAKE VILLAGE,CA,91362,6077.store@cpwm.com,(805) 370-0160,Dylan Paice
78,78,78,Store,78 WOODLAND PARK,1730 US Route 46,Woodland Park,NJ,7424,6078.store@cpwm.com,(973) 435-9026,Dushko Tashev
81,81,81,Store,81 OCEANSIDE,2140 VISTA WAY,OCEANSIDE,CA,92054,6081.store@cpwm.com,(760) 439-1990,Armando Fabian
82,82,82,Store,82 CEDAR PARK,5001 183A Toll Road Suite H100,Cedar Park,TX,78613,6082.store@cpwm.com,(512) 690-2568,Kelsey Montoya
85,85,85,Store,85 Ann Arbor,2900 South State Street,Ann Arbor,MI,48104,6085.store@cpwm.com,(734) 327-1900,Thomas Batzmarowsky
86,86,86,Store,86 CHULA VISTA,1640 Millenia Ave,Chula Vista,CA,91915,6086.store@cpwm.com,(619) 210-1141,Staci Armstrong
88,88,88,Store,88 VALENCIA,25676 THE OLD RD,STEVENSON RANCH,CA,91381,6088.store@cpwm.com,(661) 253-2049,Jaime Marmolejo
90,90,90,Store,90 TULSA,5356 E Skelly Drive,Tulsa,OK,74135,6090.store@cpwm.com,(918) 879-0060,Alesha Wiggs
92,92,92,Store,92 CARMEL,2200 E 116TH ST,CARMEL,IN,46032,6092.store@cpwm.com,(317) 706-0400,Tim Glenzy
93,93,93,Store,93 WESLEY CHAPEL,5851 Wesley Grove Blvd,Wesley Chapel,FL,33544,6093.store@cpwm.com,(813) 371-2433,Dora Mealy
94,94,94,Store,94 CONCORD,2075 Diamond Boulevard Suite 145,Concord,CA,94520,6094.store@cpwm.com,(925) 826-0582,Corrine Dixon
97,97,97,Store,97 MOBILE,3250 Airport Blvd Suite 110,Mobile,AL,36606,6097.store@cpwm.com,(251) 439-6585,Yannicke Lee
100,100,100,Store,100 Sunset Valley,5601 Brodie Lane,Austin,TX,78745,6100.store@cpwm.com,(512) 899-2929,Desiree Varney
101,101,101,Store,101 THE WOODLANDS,1620 LAKE WOODLANDS DR,THE WOODLANDS,TX,77380,6101.store@cpwm.com,(281) 419-8300,Terri Ramirez
102,102,102,Store,102 Old Towne,5500 Greenville Ave,Dallas,TX,75206,6102.store@cpwm.com,(214) 378-5370,Michael Jones
104,104,104,Store,104 N Plano,8700 Preston Rd,Plano,TX,75024,6104.store@cpwm.com,(972) 377-6638,Amanda Perez
105,105,105,Store,105 RENO,4987 S VIRGINIA ST,RENO,NV,89502,6105.store@cpwm.com,(775) 826-5300,Sarah Salvo
106,106,106,Store,106 SALEM  ,290 South Broadway Unit 3B,Salem,NH,3079,6106.store@cpwm.com,(603) 824-3668,Miranda Johnson (AM)
107,107,107,Store,107 PORTAGE,6601 S WESTNEDGE AVE STE B,PORTAGE,MI,49002,6107.store@cpwm.com,(269) 329-1631,Angela Bell
108,108,108,Store,108 TUTTLE,5720 BRITTON PKWY,DUBLIN,OH,43016,6108.store@cpwm.com,(614) 717-9400,Christopher Messerly
110,110,110,Store,110 NORTH CANTON,5527 DRESSLER RD NW,NORTH CANTON,OH,44720,6110.store@cpwm.com,(330) 305- 0990,Holly L. Hemminger - Dual SM
112,112,112,Store,112 LANSING,427 MALL CT,LANSING,MI,48912,6112.store@cpwm.com,(517) 337-1100,Kate Nelson
113,113,113,Store,113 POLARIS,1331 POLARIS PKWY,COLUMBUS,OH,43240,6113.store@cpwm.com,(614) 431 -7007,Brett Hampton
114,114,114,Store,114 MONTROSE,4020 MEDINA RD STE 120,AKRON,OH,44313,6114.store@cpwm.com,(330) 670-1124,Holly L. Hemminger - Dual SM
116,116,116,Store,116 PEORIA,7419 W BELL RD,PEORIA,AZ,85382,6116.store@cpwm.com,(623) 486-1300,Michael Hall - Dual SM 
117,117,117,Store,117 WESTLAKE,307 MAIN STREET,Westlake,OH,44145,6117.store@cpwm.com,(440) 414-0075,Mary Michaud
119,119,119,Store,119 SPOKANE,6125 N DIVISION ST,SPOKANE,WA,99207,6119.store@cpwm.com,(509) 484-8640,Suzanne York
120,120,120,Store,120 CHESTERFIELD,238 THF BLVD,CHESTERFIELD,MO,63005,6120.store@cpwm.com,(636) 728-0011,Bobbi Whittaker
123,123,123,Store,123 LENNOX,1655 OLENTANGY RIVER RD,COLUMBUS,OH,43212,6123.store@cpwm.com,(614) 297-5925,Kaitlin Malobabic
124,124,124,Store,124 EASTON,3770 EASTON MARKET,COLUMBUS,OH,43219,6124.store@cpwm.com,(614) 471 -5042,Katie Watkins
126,126,126,Store,126 PERIMETER,4733 A. ASHFORD DUNWOODY RD.,DUNWOODY,GA,30338,6126.store@cpwm.com,(678) 731 -0014,Brandie Woolf
127,127,127,Store,127 CARY,2410 WALNUT STREET,CARY,NC,27511,6127.store@cpwm.com,(919) 851 -6104,Shelley Reed
129,129,129,Store,129 CAROLINA PAVILION,9557 SOUTH BLVD,CHARLOTTE,NC,28273,6129.store@cpwm.com,(704) 554-1692,Stephanie Baltzell
131,131,131,Store,131 TEMECULA,40456 WINCHESTER RD,TEMECULA,CA,92591,6131.store@cpwm.com,(951) 296-5860,Victor Diaz
132,132,132,Store,132 FAIRFAX,12993 FAIR LAKES PARKWAY,FAIRFAX,VA,22033,6132.store@cpwm.com,(703) 502-9777,Benjaman Beauge
133,133,133,Store,133 CLACKAMAS,8626 SE SUNNYSIDE RD,CLACKAMAS,OR,97015,6133.store@cpwm.com,(503) 652-9200,Ettie Miller
135,135,135,Store,135 Ft Worth,4701 West Freeway,Ft. Worth,TX,76107,6135.store@cpwm.com,(817) 737-8370,Kimberly Harbula
137,137,137,Store,137 TUCSON EAST,5975 E BROADWAY SUITE 1,TUCSON,AZ,85711,6137.store@cpwm.com,(520) 571 -1460,Sandra Caine
140,140,140,Store,140 ST. CHARLES,3555 E MAIN ST,SAINT CHARLES,IL,60174,6140.store@cpwm.com,(630) 587-1011,Amy Noverio
141,141,141,Store,141 GRESHAM,989 NW 12TH ST,GRESHAM,OR,97030,6141.store@cpwm.com,(503) 669-9727,OPEN
144,144,144,Store,144 FALLS CHURCH,3532 S JEFFERSON ST,FALLS CHURCH,VA,22041,6144.store@cpwm.com,(703) 933-2100,James Nelson
147,147,147,Store,147 EVANSTON,1725 MAPLE AVE,EVANSTON,IL,60201,6147.store@cpwm.com,(847) 424-1022,Madison Schmelig
148,148,148,Store,148 SANTA BARBARA,610 STATE ST,SANTA BARBARA,CA,93103,6148.store@cpwm.com,(805) 899-8311,Lincoln Krautkraemer
150,150,150,Store,150 REDDING,1080 HILLTOP DR,REDDING,CA,96003,6150.store@cpwm.com,(530) 221-2080,Scott Lawson
152,152,152,Store,152 Tacoma,4036 Tacoma Mall Blvd,Tacoma,WA,98409,6152.store@cpwm.com,(253) 475-3500,James Garcia 
153,153,153,Store,153 KINGSTOWNE,5954 KINGSTOWNE TOWNE CTR,ALEXANDRIA,VA,22315,6153.store@cpwm.com,(703) 922-9500,Matthew Nemeth
154,154,154,Store,154 STERLING,45575 DULLES EASTERN PLZ STE 171,DULLES,VA,20166,6154.store@cpwm.com,(703) 421 -8323,Robert Wilson
156,156,156,Store,156 KILDEER,20505 NORTH RAND ROAD SUITE 240,KILDEER,IL,60047,6156.store@cpwm.com,(847) 726-1664,Michael Cuttone
157,157,157,Store,157 WOODINVILLE,13990 NE 178TH PL,WOODINVILLE,WA,98072,6157.store@cpwm.com,(425) 424-3214,Lesa Purvis
158,158,158,Store,158 OXNARD,221 ESPLANADE DRIVE,OXNARD,CA,93030,6158.store@cpwm.com,(805) 278-3999,Ciarra Bartholomay
159,159,159,Store,159 MATTHEWS,10530 NORTHEAST PKWY STE L,MATTHEWS,NC,28105,6159.store@cpwm.com,(704) 849-2004,Richard Robinson
161,161,161,Store,161 FRESNO,7662 N BLACKSTONE AVE STE A,FRESNO,CA,93720,6161.store@cpwm.com,(559) 432-4100,Jon Bohigian
163,163,163,Store,163 ROUND ROCK,200 SUNDANCE PKWY STE 200,ROUND ROCK,TX,78681,6163.store@cpwm.com,(512) 733-2727,James Sims
164,164,164,Store,164 SHERMAN OAKS,15201 VENTURA BLVD,SHERMAN OAKS,CA,91403,6164.store@cpwm.com,(818) 205-9620,OPEN
165,165,165,Store,165 KENNESAW,840 ERNEST W. BARRETT PARKWAY NW SUITE 200,KENNESAW,GA,30144,6165.store@cpwm.com,(770) 794-4777,Ayesa Ramsey
166,166,166,Store,166 APPLETON,680 N CASALOMA DR,GRAND CHUTE,WI,54913,6166.store@cpwm.com,(920) 997-9790,Steve Kattestad
167,167,167,Store,167 EUGENE,1011 VALLEY RIVER WAY STE 101,EUGENE,OR,97401,6167.store@cpwm.com,(541) 683-5702,Bethany Proctor
171,171,171,Store,171 BAKERSFIELD,9240 ROSEDALE HWY,BAKERSFIELD,CA,93312,6171.store@cpwm.com,(661) 587-1620,Richard Klein
172,172,172,Store,172 THORNTON,911 E 120TH AVE,THORNTON,CO,80233,6172.store@cpwm.com,(303) 254-4036,Emily Smith
174,174,174,Store,174 FARMERS MARKET,6333 WEST 3RD STREET SPACE E-10,LOS ANGELES,CA,90036,6174.store@cpwm.com,(323) 935-5530,Rebecca Hull-Ruiz
175,175,175,Store,175 BIRMINGHAM,4608 HIGHWAY 280,BIRMINGHAM,AL,35242,6175.store@cpwm.com,(205) 981 -3390,Caroline Hoeppner
176,176,176,Store,176 ENGLEWOOD,9559 E COUNTY LINE RD,ENGLEWOOD,CO,80112,6176.store@cpwm.com,(303) 662-1221,Kristina Carpenter
177,177,177,Store,177 BUFORD,1600 MALL OF GEORGIA BLVD STE 1300,BUFORD,GA,30519,6177.store@cpwm.com,(770) 614-5447,Demetria Henry
178,178,178,Store,178 FOLSOM,2797 E BIDWELL ST,FOLSOM,CA,95630,6178.store@cpwm.com,(916) 817-2500,Jennelle Brown
179,179,179,Store,179 DES MOINES,4100 UNIVERSITY AVE STE 210,WEST DES MOINES,IA,50266,6179.store@cpwm.com,(515) 267-8666,Julie Lienemann
184,184,184,Store,184 TURTLE CREEK,3888 OAK LAWN AVE STE 111,DALLAS,TX,75219,6184.store@cpwm.com,(214) 521-1028,Charli Campbell
185,185,185,Store,185 NEWPORT NEWS,12129 JEFFERSON AVE,NEWPORT NEWS,VA,23602,6185.store@cpwm.com,(757) 885-6580,Lori Tribble
186,186,186,Store,186 SANFORD,2251 WP BALL BLVD,SANFORD,FL,32771,6186.store@cpwm.com,(407) 302-0263,Chris Flom (AM)
188,188,188,Store,188 RICHMOND,11198 W BROAD ST,GLEN ALLEN,VA,23060,6188.store@cpwm.com,(804) 364-7000,Pamela Jackowski
189,189,189,Store,189 GLENDALE,223 N GLENDALE AVE,GLENDALE,CA,91206,6189.store@cpwm.com, (818) 241 2112,Brent Goodroad
191,191,191,Store,191 HARVEY,1617 WESTBANK EXPY,HARVEY,LA,70058,6191.store@cpwm.com,(504) 227-2244,Lakisha Cross
192,192,192,Store,192 Stevens Creek,5164 Stevens Creek Blvd,San Jose,CA,95129,6192.store@cpwm.com,(408) 490-2305,Debby Rankin - Dual SM
193,193,193,Store,193 ELMWOOD,1134 S CLEARVIEW PKWY,HARAHAN,LA,70123,6193.store@cpwm.com,(504) 736-0571,Michelle Duff
194,194,194,Store,194 WEST HARTFORD,1431 New Britian Ave,West Hartford,CT,6110,6194.store@cpwm.com,(860) 256-0740,Leslie Rock
195,195,195,Store,195 WESTPORT,535 WESTPORT RD,KANSAS CITY,MO,64111,6195.store@cpwm.com,(816) 931 -3590,Shelly Sante
197,197,197,Store,197 REDMOND,7214 170TH AVE NE SPC A-1,REDMOND,WA,98052,6197.store@cpwm.com,(425) 883-8863,Louise Frias
198,198,198,Store,198 MOORESVILLE,590 RIVER HWY STE K,MOORESVILLE,NC,28117,6198.store@cpwm.com,(704) 658- 1730,Kelly Petersen
199,199,199,Store,199 TRACY,2530 NAGLEE RD,TRACY,CA,95304,6199.store@cpwm.com,(209) 830-6076,Kelly Alvarez
200,200,200,Store,200 MARSH LANDING,950 MARSH LANDING PARKWAY UNIT #205,JACKSONVILLE BEACH,FL,32250,6200.store@cpwm.com,(904) 543-1133,James Clute 
201,201,201,Store,201 COLORADO SPRINGS,2985 NEW CENTER PT,COLORADO SPRINGS,CO,80922,6201.store@cpwm.com,(719) 637-3537,Jennifer Thompson
202,202,202,Store,202 CHICO,2101 DR MARTIN LUTHER KING JR. PARKWAY SUITE 30,CHICO,CA,95928,6202.store@cpwm.com,(530) 893-9858,Kacy Conant
203,203,203,Store,203 BILLINGS,2815 KING AVE W,BILLINGS,MT,59102,6203.store@cpwm.com,(406) 651-4340,Angel Morse
205,205,205,Store,205 FLOWER MOUND,6101 LONG PRAIRIE RD STE 300,FLOWER MOUND,TX,75028,6205.store@cpwm.com,(972) 539-3355,Laura Villarreal
206,206,206,Store,206 BOULDER,1685 28TH ST,BOULDER,CO,80302,6206.store@cpwm.com,(303) 938-0757,Jake Darner
207,207,207,Store,207 SOUTHPOINTE,6807 FAYETTEVILLE RD STE 114,DURHAM,NC,27713,6207.store@cpwm.com,(919) 405-2112,Jason Mccreary
209,209,209,Store,209 STATELINE,1111 W 136TH ST,KANSAS CITY,MO,64114,6209.store@cpwm.com,(816) 943-6423,William Curnes
210,210,210,Store,210 CLEARWATER,23674 US Hwy 19 N,Clearwater,FL,33765,6210.store@cpwm.com,(727) 431-0176,Henry Midura
211,211,211,Store,211 SEASIDE,1999 FREMONT BLVD,SEASIDE,CA,93955,6211.store@cpwm.com,(831) 393-2078,Virginia Petrone
215,215,215,Store,215 INDEPENDENCE,19900 E JACKSON DR,INDEPENDENCE,MO,64057,6215.store@cpwm.com,(816) 795-6700,James Eaton
216,216,216,Store,216 CHARLESTON,946 ORLEANS ROAD SUITE E-2,CHARLESTON,SC,29407,6216.store@cpwm.com,(843) 852-2700,Jay Cook 
218,218,218,Store,218 WATAUGA,7616 DENTON HWY STE 516,WATAUGA,TX,76148,6218.store@cpwm.com,(817) 581-8046,Jenny Horn (AM)
220,220,220,Store,220 CARSON CITY,911 TOPSY LN STE 106,CARSON CITY,NV,89705,6220.store@cpwm.com,(775)  267-3077,Amanda McGill
222,222,222,Store,222 HOOVER,4381 CREEKSIDE AVE,HOOVER,AL,35244,6222.store@cpwm.com,(205) 402 7374,Jessica Monfort
223,223,223,Store,223 MCALLEN,500 N. Jackson Road Unit D-1,Pharr,TX,78577,6223.store@cpwm.com,(956) 403-3003,Joe Gonzalez
226,226,226,Store,226 CRYSTAL LAKE,6000 NORTHWEST HIGHWAY,CRYSTAL LAKE,IL,60014,6226.store@cpwm.com,(815) 455-3994,Heather Haak
227,227,227,Store,227 MODESTO,3801 PELANDALE AVE STE F7,MODESTO,CA,95356,6227.store@cpwm.com,(209) 545-4411 ,Jessica Rust
228,228,228,Store,228 ARLINGTON,ARLINGTON HIGHLANDS AT I-20  E286   239 CURTIS MATHES WAY + E308,ARLINGTON,TX,76018,6228.store@cpwm.com,(817) 375-5199,Song Cho
233,233,233,Store,233 PENSACOLA,5420 N 9TH AVE,PENSACOLA,FL,32504,6233.store@cpwm.com,(850) 475 0655,Kabir Maluk
236,236,236,Store,236 WILMINGTON,820 INSPIRATION DR,WILMINGTON,NC,28405,6236.store@cpwm.com,(910) 509-9969,Shane Garton
239,239,239,Store,239 REDLANDS,27440 W LUGONIA AVE,REDLANDS,CA,92374,6239.store@cpwm.com,(909) 798-9064,Susan Doelle
240,240,240,Store,240 NAPA,3934 BEL AIRE PLZ,NAPA,CA,94558,6240.store@cpwm.com,(707) 255-9755,Sheri Wright
244,244,244,Store,244 FT MYERS,13741 S. TAMIAMI TRAIL UNTI 3,FORT MYERS,FL,33912,6244.store@cpwm.com,(239) 226-9711,Darryl Rivera
245,245,245,Store,245 LAWRENCE,3106 IOWA ST STE 200,LAWRENCE,KS,66046,6245.store@cpwm.com,(785) 331 2312,Cindy Sargent
246,246,246,Store,246 WOODHILL,6090 GARNERS FERRY RD STE B,COLUMBIA,SC,29209,6246.store@cpwm.com,(803) 776-6995,Ashton Gist
247,247,247,Store,247 SUMMERVILLE,460 AZALEA SQUARE BLVD,SUMMERVILLE,SC,29483,6247.store@cpwm.com,(843) 875-0042,Steve Palangi
249,249,249,Store,249 RALEIGH,5900 POYNER ANCHOR LN STE 121,RALEIGH,NC,27616,6249.store@cpwm.com,(919) 954-4833,Stephanie Gaadt
253,253,253,Store,253 HUMBLE ,20416 Highway 59 N Suite A,Humble,TX,77338,6253.store@cpwm.com,(281) 706-8937,OPEN
254,254,254,Store,254 BOZEMAN,2226 TSCHACHE ST,BOZEMAN,MT,59718,6254.store@cpwm.com,(406) 556-0900,Melody Vlasie
255,255,255,Store,255 ST. MATTHEWS,4600 SHELBYVILLE RD STE 607,SAINT MATTHEWS,KY,40207,6255.store@cpwm.com,(502) 891-0066,Eric Dettmann
257,257,257,Store,257 EL PASO,1327 GEORGE DIETER DR STE C,EL PASO,TX,79936,6257.store@cpwm.com,(915) 633 6512,Patrick Gurule
258,258,258,Store,258 BAYBROOK,1001 W BAY AREA BLVD STE C,WEBSTER,TX,77598,6258.store@cpwm.com,(281) 316-1069 ,Kim Ross (AM)
260,260,260,Store,260 WEST ALBUQUERQUE,3601 OLD AIRPORT RD NW STE B,ALBUQUERQUE,NM,87114,6260.store@cpwm.com,(505) 899-7902,Elizabeth Martin
262,262,262,Store,262 CHARLOTTESVILLE,1615A EMMET ST N,CHARLOTTESVILLE,VA,22903,6262.store@cpwm.com,(434) 295-6232,Sandra Morris
264,264,264,Store,264 SPANISH FORT,10200 EASTERN SHORE BLVD. STE 160 STATE HWY 181,SPANISH FORT,AL,36527,6264.store@cpwm.com,(251) 626-9927,Thao Pham
265,265,265,Store,265 ASHEVILLE,9 MCKENNA RD,ARDEN,NC,28704,6265.store@cpwm.com,(828) 654-0119,Melony Winters
266,266,266,Store,266 HILTON HEAD,30 MALPHRUS RD. SUITE G,BLUFFTON,SC,29910,6266.store@cpwm.com,(843) 836-1970,John Richardson
268,268,268,Store,268 BEND,63455 N HIGHWAY 97 STE 16,BEND,OR,97701,6268.store@cpwm.com,(541) 317-9920,Aimee Moulton
269,269,269,Store,269 PARK CITY,6400 N HWY 224 SUITE C,PARK CITY,UT,84098,6269.store@cpwm.com,(435) 940-9480,Megan Sei
270,270,270,Store,270 HUNTINGTON BEACH,7777 EDINGER AVE STE 136,HUNTINGTON BEACH,CA,92647,6270.store@cpwm.com,(714) 903-2454,Aaron Cortines
271,271,271,Store,271 HAPPY VALLEY,2501 W HAPPY VALLEY RD STE 22,PHOENIX,AZ,85027,6271.store@cpwm.com,(623) 879-9900,Wayne Goldman - Dual SM
274,274,274,Store,274 GILBERT,4988 S POWER RD,MESA,AZ,85212,6274.store@cpwm.com,(480) 840-3232,Kevin McKeehan
275,275,275,Store,275 BROOKFIELD,625 MAIN ST,BROOKFIELD,WI,53005,6275.store@cpwm.com,(262) 786-4672,Cynthia Sayles-Albers
276,276,276,Store,276 BEE CAVE,12700 SHOPS PKWY STE 200,BEE CAVE,TX,78738,6276.store@cpwm.com,(512) 263-9505,Stephanie Torres
277,277,277,Store,277 4 S COMMONS,10455 RESERVE DR STE 150,SAN DIEGO,CA,92127,6277.store@cpwm.com,(858) 613-0231,Rima Flores
278,278,278,Store,278 SHREVEPORT,7071 YOUREE DR,SHREVEPORT,LA,71105,6278.store@cpwm.com,(318) 798-6385,Philip Lundy
283,283,283,Store,283 NAPERVILLE,276 S Route 59,Naperville,IL,60540,6283.store@cpwm.com,(331) 702-6577,Richard Marcordes
285,285,285,Store,285 GREENVILLE,"1125 WOODRUFF ROAD BLDG. H, SUITE 500",GREENVILLE,SC,29607,6285.store@cpwm.com,(864) 234-8816,Doris Austin
286,286,286,Store,286 FORT UNION,6960 SOUTH PARK CENTRE DRIVE,SALT LAKE CITY,UT,84121,6286.store@cpwm.com,(801) 453-1647,Benni Warren
288,288,288,Store,288 TALLAHASSEE,1480 APALACHEE PKWY,TALLAHASSEE,FL,32301,6288.store@cpwm.com,(850) 656-9977,Alex Bell
289,289,289,Store,289 SAN JOSE MARKETPLACE,555 COLEMAN AVE,SAN JOSE,CA,95110,6289.store@cpwm.com,(408) 299-0254,Debby Rankin - Dual SM
290,290,290,Store,290 SOUTHLANDS,23901 E. ORCHARD ROAD SUITE G,AURORA,CO,80016,6290.store@cpwm.com,(720) 876-2100,Kevin Ryerson
292,292,292,Store,292 LEXINGTON,2321 Sir Barton Way #1060,Lexington,KY,40509,6292.store@cpwm.com,(859) 788-5023,Aaron Powell
295,295,295,Store,295 PALM SPRINGS,2465 E PALM CANYON DR BLDG 4,PALM SPRINGS,CA,92264,6295.store@cpwm.com,(760) 325-6275,Brooke Bowman - Dual SM
296,296,296,Store,296 STAFFORD,12710 Fountain Lake Circle,Stafford,TX,77477,6296.store@cpwm.com,(346) 279-3109,Cole Murphy
297,297,297,Store,297 SIOUX FALLS,2804 S LOUISE AVE,SIOUX FALLS,SD,57106,6297.store@cpwm.com,(605) 323-1500,Rebekah Vagenius
300,300,300,Store,300 NASHVILLE WEST,6728 CHARLOTTE PIKE,NASHVILLE,TN,37209,6300.store@cpwm.com,(615) 356-0160,Susanne Vandegrift
303,303,303,Store,303 OKLAHOMA CITY,520 Ed Noble Parkway,Norman,OK,73072,6303.store@cpwm.com,(405) 253-2881,Tiffanie Garrett
304,304,304,Store,304 HAWTHORNE,14401 Hindry Ave,Hawthorne,CA,90250,6304.store@cpwm.com,(424) 426-4263,Luis Cortez
307,307,307,Store,307 Viera,2221 Town Center Ave,Melbourne,FL,32940,6307.store@cpwm.com,(321) 504-7223,Lisa Kelly
313,313,313,Store,313 SPARKS,185 LOS ALTOS PKWY,SPARKS,NV,89436,6313.store@cpwm.com,(775) 354-2213,Nicholas Mora
314,314,314,Store,314 KNOXVILLE,11241 PARKSIDE DR,KNOXVILLE,TN,37934,6314.store@cpwm.com,(865) 966-9600,Daphne House
315,315,315,Store,315 MIDDLETON,1700 DEMING WAY STE 110,MIDDLETON,WI,53562,6315.store@cpwm.com,(608) 829-1020,Heather Lazar
316,316,316,Store,316 PARK NORTH,742 NW LOOP 410 STE. 123,SAN ANTONIO,TX,78216,6316.store@cpwm.com,(210) 525-0535,Rob Sabine (AM)
317,317,317,Store,317 VANCOUVER,16801 SE MILL PLAIN BLVD,VANCOUVER,WA,98684,6317.store@cpwm.com,(360) 883-3100,Jen McCracken
319,319,319,Store,319 SALEM-KEIZER,6160 ULALI DR NE,KEIZER,OR,97303,6319.store@cpwm.com,(503) 304-4607,Katie Tsutsui
320,320,320,Store,320 CHATTANOOGA,2200 HAMILTON PLACE BLVD. SUITE #6,CHATTANOOGA,TN,37421,6320.store@cpwm.com,(423) 553-7526,Dara McIntyre
321,321,321,Store,321 FREDERICKSBURG,9759 JEFFERSON DAVIS HWY,FREDERICKSBURG,VA,22407,6321.store@cpwm.com,(540) 710-7430,Jennifer Smith
322,322,322,Store,322 OPELIKA,2546 ENTERPRISE DR,OPELIKA,AL,36801,6322.store@cpwm.com,(334) 737-1525,Kevin Fuller
324,324,324,Store,324 SAN ANTONIO THE RIM,17414 LA CANTERA PARKWAY SUITE 127,SAN ANTONIO,TX,78257,6324.store@cpwm.com,(210) 641-6052,Tiffany Vaughn
326,326,326,Store,326 MURFREESBORO,2615 MEDICAL CENTER PKWY STE 2400,MURFREESBORO,TN,37129,6326.store@cpwm.com,(615) 898-1393,Charles Norris
327,327,327,Store,327 DAYTONA BEACH,2400 W INTERNATIONAL SPEEDWAY BLVD STE 300,DAYTONA BEACH,FL,32114,6327.store@cpwm.com,(386) 258-7817,Cathleen Turner
328,328,328,Store,328 AMARILLO,3350 S SONCY RD STE 154,AMARILLO,TX,79121,6328.store@cpwm.com,(806) 358-4055,Paula Baca
329,329,329,Store,329 NORTH NAPLES,2415 TARPON BAY BLVD. UNIT #3,NAPLES,FL,34119,6329.store@cpwm.com,(239) 566-1239,Teresa Carlson
330,330,330,Store,330 MYRTLE BEACH,1144 SEABOARD ST,MYRTLE BEACH,SC,29577,6330.store@cpwm.com,(843) 448-6064,Tim Young (AM)
331,331,331,Store,331 BLUE DIAMOND,3890 BLUE DIAMOND RD STE C,LAS VEGAS,NV,89139,6331.store@cpwm.com,(702) 269-4465,Carlos Cain
332,332,332,Store,332 SILVERDALE,10315 SILVERDALE WAY NW STE L02,SILVERDALE,WA,98383,6332.store@cpwm.com,(360) 307-8930,Danielle Valdez
334,334,334,Store,334 LA QUINTA,78983 HIGHWAY 111,LA QUINTA,CA,92253,6334.store@cpwm.com,(760) 777-7267,Brooke Bowman - Dual SM
335,335,335,Store,335 FLAGSTAFF,5005 E. MARKETPLACE DRIVE SUITE 102,FLAGSTAFF,AZ,86004,6335.store@cpwm.com,(928) 526-1058,Steve Armstrong
338,338,338,Store,338 TEMPE,1800 E RIO SALADO PKWY STE 150,TEMPE,AZ,85281,6338.store@cpwm.com,(480) 921-0500,Ruben Soto
343,343,343,Store,343 MERIDIAN,1200 N Eagle Road Suite 330,Meridian,ID,83642,6343.store@cpwm.com,(208) 884-3222,Sarah Recob
345,345,345,Store,345 WINTER GARDEN,3227 DANIELS RD,WINTER GARDEN,FL,34787,6345.store@cpwm.com,(407) 877-6504,Tim Homan (AM)
348,348,348,Store,348 LEXINGTON,5135 SUNSET BLVD STE T,LEXINGTON,SC,29072,6348.store@cpwm.com,(803) 356-2406,Dorothy Dekle
354,354,354,Store,354 DENVER WEST,14387 WEST COLFAX AVE,LAKEWOOD,CO,80401,6354.store@cpwm.com,(303) 278-1981,Stephanie Hazelton
356,356,356,Store,356 FORT COLLINS,4357 CORBETT DR,FORT COLLINS,CO,80525,6356.store@cpwm.com,(970) 266-8051,Melanie St. Germain
357,357,357,Store,357 ORACLE,4380 N ORACLE RD STE 100,TUCSON,AZ,85705,6357.store@cpwm.com,(520) 887-3839,Adam Mendoza
358,358,358,Store,358 KATY,6625 FRY ROAD,KATY,TX,77494,6358.store@cpwm.com,(281) 391-1700,Tommy Tackett
359,359,359,Store,359 GRAND RAPIDS,3641 28TH ST. SE,GRAND RAPIDS,MI,49512,6359.store@cpwm.com,(616) 942-7799,George Tijerina
360,360,360,Store,360 BLOOMINGTON,4250 W 78TH ST,BLOOMINGTON,MN,55435,6360.store@cpwm.com,(952) 831-1914,Carolyn Catir (AM)
362,362,362,Store,362 RENTON,721 N LANDING WAY STE A,RENTON,WA,98057,6362.store@cpwm.com,(425) 277-7580,Daniel Trefethen
363,363,363,Store,363 ROCKVILLE PIKE,12266 ROCKVILLE PIKE STE P,ROCKVILLE,MD,20852,6363.store@cpwm.com,(301) 816-2480,Michelle Leidy
365,365,365,Store,365 SKYLINE,770 S COLORADO BLVD,GLENDALE,CO,80246,6365.store@cpwm.com,(303) 758-0530,Andrew Cardoso
366,366,366,Store,366 BELGATE,8150 IKEA BLVD SUITE 20,CHARLOTTE,NC,28262,6366.store@cpwm.com,(704) 598-2097,Madison Gardner
367,367,367,Store,367 COTSWOLD,330 S SHARON AMITY RD,CHARLOTTE,NC,28211,6367.store@cpwm.com,(704) 442-5353,Billy Parker 
368,368,368,Store,368 Vacaville,1611-B East monte Vista Ave,Vacaville,CA,95688,6368.store@cpwm.com,(707) 452-0552,Peter Cristobal
369,369,369,Store,369 San Mateo,3000 Bridgepoint Pkwy,Foster City,CA,94404,6369.store@cpwm.com,(650) 372-9074,Stacey Hoover
370,370,370,Store,370 Willowbrook,17355 State Highway 249 Ste 1H,Houston,TX,77064,6370.store@cpwm.com,(281) 955-5746 ,Yolande Bauri
371,371,371,Store,371 Roseville,1120 Galleria Blvd,Roseville,CA,95678,6371.store@cpwm.com,(916) 784-7113,Pamela Poffenberger
372,372,372,Store,372 Baton Rouge,10565 S Mall Drive,Baton Rouge,LA,70809,6372.store@cpwm.com,(225) 296-4213,Ashley Eller (AM)
373,373,373,Store,373 Williamsburg,5225 Settlers Market Blvd,Williamsburg,VA,23188,6373.store@cpwm.com,(757) 229-1461,John Galatro
374,374,374,Store,374 Maple Grove,12209 Elm Creek Blvd N,Maple Grove,MN,55369,6374.store@cpwm.com,(763) 424-0271,Jesse Paulson
375,375,375,Store,375 Livingston,530 W Mount Pleasant Ave,Livingston,NJ,7039,6375.store@cpwm.com,(973) 533-7439,Arlene Forbes
376,376,376,Store,376 Tyler,8970 S Broadway Ave Suite 136,Tyler,TX,75703,6376.store@cpwm.com,(903) 534-3604,John Warren
377,377,377,Store,377 Missoula,3025 Paxson St,Missoula,MT,59801,6377.store@cpwm.com,(406) 542-6669,Elizabeth Erickson
378,378,378,Store,378 Jacksonville,11111 San Jose Blvd,Jacksonville,FL,32223,6378.store@cpwm.com,(904) 260-3039,Michelle Wisser
379,379,379,Store,379 PANAMA CITY,15700 Panama City Beach Parkway Suite 100,Panama City Beach,FL,32413,6379.store@cpwm.com,(850) 235-4157,Amelia Thompson
380,380,380,Store,380 WACO,4633 S Jack Kultgen Expressway Suite 103,Waco,TX,76706,6380.store@cpwm.com,(254) 662-9235,Jon Lemon
381,381,381,Store,381 West Hills,"6621 Fallbrook Avenue, Unit A",West Hills,CA,91307,6381.store@cpwm.com,(818) 712-9394,Jennifer Knighton
382,382,382,Store,382 MISSION VIEJO,25262 El Paseo,Mission Viejo,CA,92691,6382.store@cpwm.com,(949) 348-1126,Amanda Laskowski (AM)
383,383,383,Store,383 HOUSTON HEIGHTS,195 Yale Street Suite 300,Houston,TX,77007-3710,6383.store@cpwm.com,(713) 862-8100,Alaina Ibarra
385,385,385,Store,385 OMAHA,12200 K Plaza,Omaha,NE,68137,6385.store@cpwm.com,(402) 333-5665,Becky Wetterstrom
386,386,386,Store,386 LAFAYETTE,3615 Ambassador Caffery Parkway,Lafayette,LA,70503,6386.store@cpwm.com,(337) 216-1544,Paul Williamson
387,387,387,Store,387 TUSCALOOSA,1320 McFarland Blvd E,Tuscaloosa,AL,35404,6387.store@cpwm.com,(205) 349-4339,Jeremy Smith
388,388,388,Store,388 SHREWSBURY,490 Broad Street,Shrewsbury,NJ,7702,6388.store@cpwm.com,(732) 530-2863,Andrea Drost
389,389,389,Store,389 Framingham,1 Worchester Road Unit 501,Framingham,MA,1701,6389.store@cpwm.com,(508) 626-1529,Julie Donaldson
390,390,390,Store,390 Irvine,13682 Jamboree Rd,Irvine,CA,92602,6390.store@cpwm.com,(714) 368-7539,Anthony Santilla
391,391,391,Store,391 Farmington,230 N Central Ave,Farmington,UT,84025,6391.store@cpwm.com,(801) 451-0169,Thane Lowe
393,393,393,Store,393 MONTGOMERYVILLE,751 Horsham Road Unit B2,Lansdale,PA,19446,6393.store@cpwm.com, (215) 368-7545,Corrine Morton
394,394,394,Store,394 WICHITA,2746 N Greenwich Ct,Wichita,KS,67226,6394.store@cpwm.com,(316) 315-0741,Cathy Lolar
395,395,395,Store,395 SOUTHLAKE,2941 E State Highway 114,Southlake,TX,76092,6395.store@cpwm.com,(817) 749-0011,Michelle Retiz
397,397,397,Store,397 SANTA FE,"4250 CERRILLOS RD, SUITE 1220",SANTA FE,NM,87507,6397.store@cpwm.com,(505) 424-6077,Heather McMillin
398,398,398,Store,398 DALY CITY,150 Serramonte Center Drive,Daly City,CA,94015,6398.store@cpwm.com,(415) 840-0585,Barbara Ray
399,399,399,Store,399 ADDISON ,1391 Dallas Parkway,Dallas,TX,75240,6399.store@cpwm.com,(972) 367-0090,Cynthia Barfield (AM)
899,899,899,Store,899 GSI COMMERCE,3379 Joseph Martin Hwy,MARTINSVILLE,VA,24112,Andrew.Lamee@cpwm.com,(510) 694-3301,Andrew Lamee
901,901,901,Warehouse,901 STOCKTON DISTRIBUTION CENTER,1735 Zephyr St.,STOCKTON,CA,95206,domesticlogistics@cpwm.com,(209) 982-1244,Manager
909,909,909,Warehouse,909 WINDSOR DISTRIBUTION CENTER,12300 DOMINION WAY,WINDSOR,VA,23487,domesticlogistics@cpwm.com,(757) 242-9930,Manager
248,AWD,AWD,Warehouse,Austin Warehouse & Distribution,16310 Bratton Ave.,Austin,TX,78728,info@fogelco.com,(415) 422-0081,Manager
249,Selectexpress,Selectexpress,Warehouse,Select Express & Logistics,60 Metro Way,Secaucus,NJ,7094,jross@selectexp.com,(347) 370-1115,Jonathan Ross
250,TAZ,TAZ,Warehouse,TazPack,462 5th St.,San Fernando,CA,91340,info@fogelco.com,(415) 422-0081,Manager
251,NC72,NC72,Warehouse,MJB Trucking,1519 South 192nd St.,Seatac,WA,98148,info@fogelco.com,(415) 422-0081,Manager
517,517,517V,Vendor,G.L. MEZZETTA INC.,105 MEZZETTA CT,AMERICAN CANYON,CA,94503,ORDERS@MEZZETTA.COM,7076481050,
535,535,535V,Vendor,GENERAL WAX CO.,6858 BECK AVE,NORTH HOLLYWOOD,CA,91605,MSMITH@GENERALWAX.COM,8187643878,
554,554,554VCA2,Vendor,UNIFIED GROCERS/SUPERVALU AT TREE HOUSE FOODS,1111 RUNWAY DRIVE,STOCKTON,CA,95206,TARMANINO@MARKETCENTRE.COM,6505520063,
554,554,554VPA2,Vendor,UNIFIED GROCERS/BAY VALLEYCARLISLE NEDC,1700 RITNER HIGHWAY,CARLISLE,PA,17013,TARMANINO@MARKETCENTRE.COM,6505520063,
554,554,554V,Vendor,UNIFIED GROCERS,1990 PICCOLI RD,STOCKTON,CA,95215,TARMANINO@MARKETCENTRE.COM,6505520063,
651,651,651V,Vendor,ITAL FOODS INC,205 SHAW RD,SOUTH SAN FRANCISCO,CA,94080,ACALERO@ITALFOODSINC.COM,6508770724,
676,676,676 VB,Vendor,JFC International Inc,48490 Milmont drive,Fremont,CA,94538,MMAKI@JFC.COM,5107715707,
2264,2264,2264VTX,Vendor,LIBBEY GLASS,1600 JUSTO-PENN ROAD,LAREDO,TX,78041,EBAILE@LIBBEY.COM,9134815091,
2264,2264,2264VLA,Vendor,LIBBEY GLASS,5001 GREENWOOD ROAD,SHREVEPORT,LA,71109,EBAILE@LIBBEY.COM,9134815091,
2264,2264,2264VOH,Vendor,LIBBEY GLASS,940 ASH STREET,TOLEDO,OH,43611,EBAILE@LIBBEY.COM,9134815091,
2863,2863,2863VCA2,Vendor,PEERLESS/GOLDENWEST PACKAGING GROUP,17740 SHIDELER PKWY,LATHROP,CA,94607,CS@PEERLESSCOFFEE.COM,5107631763,
2863,2863,2863V,Vendor,PEERLESS COFFEE,260 FALLON ST,OAKLAND,CA,94607,CS@PEERLESSCOFFEE.COM,5107631763,
3109,3109,3109V,Vendor,WINE WAREHOUSE,3465 COLLINS AVE,RICHMOND,CA,94806,A.NAVARRO@WINEWAREHOUSE.COM,1800339141,
3404,3404,3404V,Vendor,SCONZA CANDY CO,1 SCONZA CANDY LN,OAKDALE,CA,95361,SALES@SCONZACANDY.COM,2098453700,
3596,3596,3596VC,Vendor,CHEMEX CORP,11 VETERANS DRIVE,CHICOPEE,MA,1022,LIZ.GRASSY@CHEMEXCOFFEEMAKER.COM,8002436399,
3596,3596,3596 V,Vendor,Chemex Corp / International Housewares,1102 Sheridan Street,Chicopee,MA,1022,LIZ.GRASSY@CHEMEXCOFFEEMAKER.COM,8002436399,
4107,4107,4107VTX,Vendor,JOKARI,1220 CHAMPION CIRCLE #100,CARROLLTON,TX,75006,ORDERS@JOKARI.COM,2145409503,
4129,4129,4129V,Vendor,"LETTIERI & CO., LTD.    (D)",120 PARK LN,BRISBANE,CA,94005,FRANK@LETTIERI.COM,4156573392,
4448,4448,4448VPSS,Vendor,CARL BRANDT C/O PSS DISTRIBUTION,121 RIDGE RD,JAMESBURG,NJ,8831,ORDERS@GLOBALSALESMKTG.COM,2032568133,
4545,4545,4545VWI,Vendor,DAIRYFOOD USA,2819 COUNTY ROAD F,BLUE MOUNDS,WI,53517,TERRTHUM@DAIRYFOODUSA.COM,6084375598,
4567,4567,4567VCA3,Vendor,THE COMPANION GROUP,1685 TIDE COURT SUITE 200,WOODLAND,CA,95776,SCOTT@COMPANION-GROUP.COM,5105973542,
4748,4748,4748V,Vendor,"BIA CORDON BLEU, INC.     (D)",100 ENTERPRISE COURT,GALT,CA,95632,JAMIC@BIACORDONBLU.COM,2097455685,
5045,5045,5045VIL,Vendor,SAHAGIAN & ASSOCIATES,3845 STERN AVENUE,SAINT CHARLES,IL,60174,sales@sahagianinc.com,7088485552,
5045,5045,5045VIN,Vendor,SAHAGIAN & ASSOCIATES,5433 SOUTH 150 EAST,BERNE,IN,46711,sales@sahagianinc.com,7088485552,
5729,5729,5729VWA,Vendor,D&D DISTRIBUTING WHOLESALE,14615 C STREET SOUTH,TACOMA,WA,98444,SALES@DDDIST.COM,2535362236,
5795,5795,5795VGA,Vendor,BLACKBERRY PATCH,92 GENESIS PARKWAY,THOMASVILLE,GA,31792,COLLIER@BLACKBERRYPATCH.COM,2295589998,
5857,5857,5857V,Vendor,WESTMINSTER CRACKER,"1 SCALE AVENUE, BUILDING # 8",RUTLAND,VA,5701,MARK@VIVOSPECIALTY.COM,5164838888,
6107,6107,6107BUFFALO,Vendor,UMBRA,1705 BROADWAY,BUFFALO,NY,14212,RENATA.ZDJELARIC@UMBRA.COM,4162990088,
6317,6317,6317VWI,Vendor,WORKMAN C/O LSC COMMUNICATIONS,N9234 LAKE PARK ROAD,APPLETON,WI,54915,TOMCHEAP@COMCAST.NET,2126147534,
6373,6373,6373VCA2,Vendor,Jelly Belly Candy co,2330 Courage Drive,Fairfield,CA,94533,DPAULOS@JELLYBELLY.COM,8003239380,
6373,6373,6373VTN,Vendor,JELLY BELLY CANDY AT BARRET DIST,4836 HICKORY HILL,MEMPHIS,TN,38141,DPAULOS@JELLYBELLY.COM,8003239380,
6374,6374,6374VCA,Vendor,JILLSON & ROBERTS,3300 WEST CASTOR STREET,SANTA ANA,CA,92704,CHRIS.WILLIAMS@JILLSONROBERTS.COM,8002401666,
6731,6731,6731VTN,Vendor,LODGE MANUFACTURING C/O LODGE DISTRIBUTION CENTER,1170 HIGHWAY 156,NEW HOPE,TN,37380,LOU@NEXTDIMENSIONSALES.COM,4233056571,
7036,7036,7036VIL,Vendor,GLASHAUS,"450 EAST CONGRESS PARKWAY, SUITE E",CRYSTAL LAKE,IL,60014,BKUNZ@GLASHAUS.COM,8153568440,
7230,7230,7230VCA,Vendor,CUSTOM FOODS,14715 ANSON AVE,SANTA FE SPRINGS,CA,90670,JASMINE@CUSTOM-FOODS.COM,8004585826,
7230,7230,7230 VBC,Vendor,"Sticky Fingers Bakeries/ Customs Foods, Inc",15320 Valley View  / Unit 9,La Mirada,CA,90638,JASMINE@CUSTOM-FOODS.COM,8004585826,
7456,7456,7456V,Vendor,"BUSSETO FOODS, INC.",1351 N CRYSTAL AVE,FRESNO,CA,93728,THERNANDEZ@BUSSETO.COM,5594859882,
7600,7600,7600VNV,Vendor,GLOBAL AMICI,"5360 CAPITAL COURT, SUITE 100",RENO,NV,89502,CHERI@KANDAENTERPRISES.COM,8585476880,
7651,7651,7651VA,Vendor,"VENUS WAFERS, NC",100 RESEARCH RD,HINGHAM,MA,2043,CRUPRECHT@VENUSWAFERS.COM,7817401002,
7663,7663,7663VOH,Vendor,ANCHOR HOCKING DC,2893 W FAIR AVE,LANCASTER,OH,43130,KELLIE.LATCHFORD@THEONEIDAGROUP.COM,6146334245,
7743,7743,7743VTX,Vendor,REGENCY WRAPS,2731 SATSUMA DRIVE,DALLAS,TX,75229,mail@regencywraps.com,8005239727,
7802,7802,7802VNJ,Vendor,FRED AND FRIENDS AT LIFETIME BRANDS,12 APPLEGATE DR,ROBBINSVILLE,NJ,8691,angela@fredandfriends.com,8668015543,
7809,7809,7809VIL1,Vendor,MSRF C/O FIRST LOGISTICS,"13040 SOUTH PULASKI ROAD, UNIT C",ALSIP,IL,60803,CDANIELESKI@MSRF.COM,7732271115,
7809,7809,7809VIL2,Vendor,MSRF C/O INFINITY ASSEMBLY & PACKAGING,"500 EAST TOUHY AVENUE, UNIT H",DES PLAINES,IL,60018,CDANIELESKI@MSRF.COM,7732271115,
7858,7858,7858VIL,Vendor,TRUDEAU CORPORATION,850 REMINGTON BOULEVARD,BOLINGBROOK,IL,60440,JENNIFER.BAHLMANN@TRUDEAU.COM,6307394000,
7923,7923,7923VVT2,Vendor,BUTTERNUT MOUNTAIN FARM,419 HARREL STREET,MORRISVILLE,VT,5661,stuart@vermontmaplesugarcompany.com,8028883491,
7941,7941,7941 VB,Vendor,"Torn Ranch, INC",2198 South McDowell Blve,Petaluma,CA,94954,INFO@TORNRANCH.COM,4155063000,
8096,8096,8096V,Vendor,UNIVERSITY GAMES,5585 E RAINES RD,MEMPHIS,TN,38115,ORDERS@UGAMES.COM,4155031600,
8569,8569,8569V,Vendor,THE BEISTLE COMPANY,1 BEISTLE PLZ,SHIPPENSBURG,PA,17257,MRSTOUFFER@BEISTLE.COM,7175322131,
8572,8572,8572VIL,Vendor,THE REPUBLIC OF TEA,"11051 NORTH MOCKINGBIRD ROAD, DOCK 7 OR 8",NASHVILLE,IL,62263,VCM@REPUBLICOFTEA.COM,4153823400,
8795,8795,8795VFL,Vendor,PELICAN BAY,150 DOUGLAS AVENUE,DUNEDIN,FL,34698,JENNIFER@PELICANBAYLTD.COM,8008268922,
9081,9081,9081V,Vendor,MORRIS NATIONAL INC.,506 DANLEE ST,AZUSA,CA,91702,david.pistole@morrisnational.com,6263852000,
9084,9084,9084VWA,Vendor,PROGRESSIVE INTERNATIONAL,3514 142ND AVENUE EAST,SUMNER,WA,98390,NC@MORGANSAMPSONUSA.COM,8004267101,
9141,9141,9141V,Vendor,"LEE KUM KEE (USA), INC.",14841 DON JULIAN RD,CITY OF INDUSTRY,CA,91746,KHAMM@CO-SALESNC.COM,6267091888,
9707,9707,9707V,Vendor,OGGI CORPORATION,1835C N ORANGETHORPE PARK,ANAHEIM,CA,92801,BETTYJ@OGGICORP.COM,7144490733,
9984,9984,9984VWI,Vendor,EAST SHORE SPECIALTY FOODS,643 CARDINAL LANE,HARTLAND,WI,53029,ORDERS@EASTSHOREFOODS.COM,8002361069,
10052,10052,10052VMN,Vendor,NORDIC WARE,5005 COUNTY ROAD 25,SAINT LOUIS PARK,MN,55416,CPWM@NORDICWARE.COM,9529202888,
10465,10465,10465V,Vendor,JO'S CANDIES,2530 W 237TH ST,TORRANCE,CA,90505,GRANT@JOSCANDIES.COM,3102570260,
10832,10832,10832 V,Vendor,Guittard Chocolate,229 Maple Street,Scranton,PA,18501,LWITHERS@TPGSALES.COM,8004682462,
10832,10832,10832VCA,Vendor,GUITTARD CHOCOLATE COMPANY/GCC COLD STORAGE,2701 GUITTARD WAY,FAIRFIELD,CA,94533,LWITHERS@TPGSALES.COM,8004682462,
10922,10922,10922VCA,Vendor,THE SPICE HUNTER,184 SUBURBAN RD,SAN LUIS OBISPO,CA,93401,CPPO@SAUERBRANDS.COM,8055978980,
11293,11293,11293V,Vendor,ST GEORGE DISTRIBUTION,13300 CARMENITA RD,SANTA FE SPRINGS,CA,90670,JWCHAN@ELSAL.COM,4154728388,
11293,11293,11293 V,Vendor,Elsa L.,2180 S. Wineville Ave,Ontario,CA,91761,JWCHAN@ELSAL.COM,4154728388,
11334,11334,11334V,Vendor,JOHN WM. MACY'S CHEESESTICKS,80 KIPP AVE,ELMWOOD PARK,NJ,7407,timmacy@cheesesticks.com,2017918036,
11423,11423,11423VNJ2,Vendor,SOURCE ATLANTIQUE AT PSS DISTRIBUTION,7 NICHOLAS CT,DAYTON,NJ,8810,ANGELA.MCKENZIE@IMPACTGRP.COM,2019471000,
11725,11725,11725V,Vendor,AHMAD TEA USA/ 3G Warehouse,320 Mill Rd,EDISON,NJ,8817,ORDERS@GLOBALSALESMKTG.COM,2814764832,
12187,12187,12187VNYA,Vendor,MSC INTERNATIONAL AT AN DERINGER,100 WALNUT ST,CHAMPLAIN,NY,12919,joe@msc-international.com,5147450400,
12656,12656,12656 VB,Vendor,CapaBunga,7696 Bell Road,Windsor,CA,95492,MARIA@CLAY-COMPANY.COM,7075421423,
12716,12716,12716VIN,Vendor,HOUGHTON MIFFLIN HARCOURT,2700 NORTH RICHARDT AVENUE,INDIANAPOLIS,IN,46219,ELIZFALKNER@GMAIL.COM,5105203977,
12752,12752,12752VWA,Vendor,MCSTEVEN'S,5600 NORTHEAST 88TH STREET,VANCOUVER,WA,98665,JO@MCSTEVENS.COM,3609445788,
13208,13208,13208VWA2,Vendor,CONIFER,"15500 WOODINVILLE REDMOND ROAD, NORTHEAST, SUITE C400",WOODINVILLE,WA,98072,CLARSEN@CONIFER-INC.COM,4255270415,
13337,13337,13337V,Vendor,"BOYAJIAN, INC.",144 WILL DR,CANTON,MA,2021,MPIJEWSKI@BOYAJIANINC.COM,7818289966,
13878,13878,13878V,Vendor,PAPER PRODUCTS DESIGN,60 GALLI DR STE 1,NOVATO,CA,94949,AIRCO2@COMCAST.NET,4158831888,
13937,13937,13937VWA,Vendor,TOYSMITH,3101 WEST VALLEY HIGHWAY EAST,SUMNER,WA,98390,LINDSEYW@TOYSMITH.COM,2538630886,
14076,14076,14076V,Vendor,ASTOR CHOCOLATE CORP.,651 NEW HAMPSHIRE AVE,LAKEWOOD,NJ,8701,BSVARC@ASTORCHOCOLATE.COM,7327461122,
14899,14899,14899VTX,Vendor,WHITE ROCK PRODUCTS AT TEMPLE BOTTLING,3510 PARKWAY DR,TEMPLE,TX,76504,LALMANZAR@WHITEROCKBEV.COM,7187463400,
14920,14920,14920VMI,Vendor,BOYLAN BOTTLING C/O INTRASTATE DISTRIBUTOR,20021 EXETER AVENUE,DETROIT,MI,48203,mlarosa@boylanbottling.com,8002897978,
14920,14920,14920VNJ,Vendor,Boylan Bottling Co.,21 Constitution Way,Piscataway,NJ,8854,mlarosa@boylanbottling.com,8002897978,
14983,14983,14983VIN,Vendor,HOLLINGSWORTH LUMBER C/O RADEL WOOD PRODUCTS,1630 WEST LOGANSPORT ROAD,PERU,IN,46970,darin@hollingsworthlumber.com,7658835836,
15309,15309,15309VTX,Vendor,DEXAS INTERNATIONAL,585 SOUTH ROYAL LANE,COPPELL,TX,75019,CHERI@KANDAENTERPRISES.COM,4696358127,
15562,15562,15562VIL,Vendor,NIELSEN MASSEY VANILLAS,1550 SHIELDS DRIVE,WAUKEGAN,IL,60085,ORDERS@NIELSENMASSEY.COM,8475781550,
15789,15789,15789VOH,Vendor,MORE THAN GOURMET,"3081 GILCHRIST ROAD, SUITE 250",AKRON,OH,44305,SALES@MORETHANGOURMET.COM,3307626652,
15968,15968,15968 VBC,Vendor,Royal Pacific Foods / The Ginger People,"6205 Engle Way, ste. 1",Gilroy,CA,95020,CLEESON@GINGERPEOPLE.COM,8315822494,
16155,16155,16155VIL,Vendor,TABLECRAFT PRODUCTS,801 LAKESIDE DRIVE,GURNEE,IL,60031,JWOLF@TABLECRAFT.COM,8478559000,
16436,16436,16436VWA,Vendor,QUINOA CORP C/O SAN GENNARO FOODS,19255 80TH AVENUE SOUTH,KENT,WA,98032,ORDERS@ANCIENTHARVEST.COM,3039575906,
16484,16484,16484VE,Vendor,ZODAX,14040 ARMINTA STREET,PANORAMA CITY,CA,91402,TEAMCOSTPLUS@ZODAX.COM,8187855626,
16484,16484,16484VCA3,Vendor,Zodax LP,28805 Industry Drive,Valencia,CA,91355,TEAMCOSTPLUS@ZODAX.COM,8187855626,
16611,16611,16611VCA,Vendor,KUHN RIKON/JAVENLIN LOGISTICS,7091 CENTRAL AVE,NEWARK,CA,94560,HEATHER@KUHNRIKON.COM,9256761300,
16650,16650,16650V,Vendor,GOLDEN WEST SPECIALTY FOODS,300 INDUSTRIAL WAY,BRISBANE,CA,94005,LCA@GWSFOODS.COM,4156570123,
16691,16691,16691VB2,Vendor,NUMI ORGANIC TEA / PRISM LOGISTICS,1961 STEARMAN AVE,HAYWARD,CA,94545,CUSTOMERSERVICE@NUMITEA.COM,5105001127,
16691,16691,16691VCA5,Vendor,NUMI ORGANIC TEA/PRISM LOGISTICS,3656 PERLMAN DRIVE,STOCKTON,CA,95206,CUSTOMERSERVICE@NUMITEA.COM,5105001127,
16974,16974,16974VWI,Vendor,SNOW RIVER PRODUCTS DIVISION OF COLUMBIAN HOME PRODUCTS,809 NORTH CENTRAL AVENUE,CRANDON,WI,54520,BENSON@MCFARRENMARKETING.COM,8473078626,
17068,17068,17068VNJ,Vendor,LIFETIME BRANDS,12 APPLEGATE DR,ROBBINSVILLE,NJ,8691,MOLLY.FOURIE@LIFETIMEBRANDS.COM,6093731840,
17068,17068,17068VCA2,Vendor,LIFETIME BRANDS,1221 ALDER AVENUE,RIALTO,CA,92376,MOLLY.FOURIE@LIFETIMEBRANDS.COM,6093731840,
17164,17164,17164VP,Vendor,BRITISH WHOLESALE AT PACIFIC LOGISTICS,111 INTERSTATE BLVD #100,JAMESBURG,NJ,8831,BETH@BWI-IMPORTS.COM,8189916644,
17164,17164,17164VCA,Vendor,BRITISH WHOLESALE,5711 CORSA AVE,WESTLAKE VILLAGE,CA,91362,BETH@BWI-IMPORTS.COM,8189916644,
17231,17231,17231VLA,Vendor,CAFE DU MONDE,1820 AIRLINE DRIVE,METAIRIE,LA,70001,WHOLESALE@CAFEDUMONDE.COM,5045812914,
17437,17437,17437VAR,Vendor,PATTON PICTURE,1612 HWY 304 E,POCAHONTAS,AR,72455,ORDERS@NBGROUPUS.COM,8772728866,
17707,17707,17707VB,Vendor,ACME IMPORTS AT TYLER DISTRIBUTION,200 LIBERTY WAY,CRANBURY,NJ,8512,ORDERS@GLOBALSALESMKTG.COM,9258377300,
17903,17903,17903VCA4,Vendor,SNAK KING CORPORATION,15150 PROCTOR,CITY OF INDUSTRY,CA,91745,ORDERS@SNAKKING.COM,6263637720,
17947,17947,17947VCA,Vendor,ENCHANTE ASSESSORIES/ FREIGHT HORSE LOGISTICS,555 MADRID AVENUE,TORRANCE,CA,90501,MELISSA@KEYSTONEPLUSMKTG.COM,4125963191,
17947,17947,17947V,Vendor,ENCHANTE,6666 E WASHINGTON BLVD,COMMERCE,CA,90040,MELISSA@KEYSTONEPLUSMKTG.COM,4125963191,
18016,18016,18016VNJ3,Vendor,PREFERRED BRANDS/ROMARK LOGISTICS,23 MACK DRIVE,EDISON,NJ,8817,CUSTOMERSERVICE@TASTYBITE.COM,2033480030,
18016,18016,18016VNV,Vendor,PREFERRED BRANDS INTERNATIONAL C/O LEGACY SCS,"5360 CAPITAL COURT, SUITE 103.",RENO,NV,89502,CUSTOMERSERVICE@TASTYBITE.COM,2033480030,
18022,18022,18022VIL,Vendor,ZIYAD BROTHERS IMORTING,5400 WEST 34TH STREET,CICERO,IL,60804,KCHEOP@ZIYAD.COM,7082228330,
18072,18072,18072 VC,Vendor,Fusion Gourmet,690 W. Manville St.,Rancho Dominguez,CA,90220,SANDRALIAW@FUSIONGOURMET.COM,3108982180,
18092,18092,18092VOR,Vendor,CHINA STAR USA,"3048 SOUTHWEST HIGH DESERT DRIVE, SUITE R",PRINEVILLE,OR,97754,MAGGIESPERBER@GMAIL.COM,7605987570,
18152,18152,18152V,Vendor,MGR DESIGN INTL,1950 WILLIAMS DR UNIT A,OXNARD,CA,93036,RH@MGRDESIGN.COM,8185978225,
18348,18348,18348 V,Vendor,Schylling Inc,3951 E. Earlstone Street,Ontario,CA,91761,AIMEE@SCHYLLING.COM,9789483200,
18398,18398,18398VFAIRLAWN,Vendor,CONSUP AT TEAM LOGISTICS,20-10 MAPLE AVE BLDG 35,FAIR LAWN,NJ,7410,CUSTOMERSERVICE@CONSUP.US,9736287330,
18447,18447,18447VD,Vendor,CALBEE AMERICA INC,2600 MAXWELL WAY,FAIRFIELD,CA,94534,ORDER@CALBEENA.COM,7074272500,
18457,18457,18457VIL,Vendor,CHICAGO IMPORTING,11200 EAST MAIN STREET,HUNTLEY,IL,60142,SALES@CHICAGOIMPORTING.COM,8476692100,
18536,18536,18536VCA,Vendor,OLDE THOMPSON,2300 CELSIUS AVE,OXNARD,CA,93030,DEBRATRAVERSGRP@AOL.COM,8057514412,
18612,18612,18612VWA,Vendor,ELKI CORPORATION,6101 23RD DRIVE WEST,EVERETT,WA,98203,ELIE@ELKI.COM,4252611002,
18886,18886,18886V,Vendor,HALF MOON BAY TRADING,210 MAYPORT RD,ATLANTIC BEACH,FL,32233,bbleland@aol.com,6506921585,
18925,18925,18925VWA,Vendor,NORPRO,2215 MERRILL CREEK PARKWAY,EVERETT,WA,98203,lundgren2@aol.com,4252611000,
18959,18959,18959VCA,Vendor,WISMETTAC ASIAN FOODS,13409 ORDEN DRIVE,SANTA FE SPRINGS,CA,90670,DAVID.YAMASHITA@WISMETTACUSA.COM,5628021900,
18959,18959,18959VNJ,Vendor,Wismettac Asian Foods,602 WASHINGTON AVE,CARLSTADT,NJ,7072,DAVID.YAMASHITA@WISMETTACUSA.COM,5628021900,
18963,18963,18963VWA,Vendor,KOOKABURRA LICORICE COMPANY,"14512 167TH AVENUE SOUTHEAST, SUITE 192",MONROE,WA,98272,SALES@KOOKABURRALICORICE.COM,3608056858,
18972,18972,18972VWA,Vendor,TIM'S CASCADE SNACKS,1150 INDUSTRY DRIVE NORTH,ALGONA,WA,98001,TIMSORDERS@UTZSNACKS.COM,2538330255,
19052,19052,19052V,Vendor,NOH FOODS OF HAWAII,1402 W 178TH ST,GARDENA,CA,90248,ORDERS@GLOBALSALESMKTG.COM,3103246770,
19155,19155,19155VIL,Vendor,PRIMROSE CANDY,4020 WEST SCHUBERT AVENUE,CHICAGO,IL,60639,DARREN@ACTIONSALESWEST.COM,7732769522,
19289,19289,19289V,Vendor,WALKERS SHORTBREAD INC,170 COMMERCE DR,HAUPPAUGE,NY,11788,KAREN.HAMM@IMPACTGRP.COM,9259736189,
19289,19289,19289vMD,Vendor,WALKERS SHORTBREAD AT BARRETT DIST,7603 ENERGY PARK WAY,CURTIS BAY,MD,21226,KAREN.HAMM@IMPACTGRP.COM,9259736189,
19320,19320,19320VWA,Vendor,KING & PRINCE SEAFOODS,"2825 ROEDER AVENUE, DOCK 2",BELLINGHAM,WA,98225,TMORRIS@KPSEAFOOD.COM,3607339090,
19397,19397,19397VCA2,Vendor,LORINA INC/ TRIWAYS INC,11201 IBERIA ST. SUITE B,MIRA LOMA,CA,91752,MARK.ANTHONY@ROYALUNIBREW.COM,3057793085,
19397,19397,19397VCA3,Vendor,LORINA INC/ PRIME DISTRIBUTION,1919 BOEING WAY STE 300,Stockton,CA,95206,MARK.ANTHONY@ROYALUNIBREW.COM,3057793085,
19397,19397,19397VPA,Vendor,LORINA INC/FANELLI TRUCKING&WAREHOUSING,298 LINCOLN AVENUE,ORWIGSBURG,PA,17961,MARK.ANTHONY@ROYALUNIBREW.COM,3057793085,
19413,19413,19413VNJ,Vendor,ILLY CAFFE C/O PREMIER DIST,17 VERONICA AVE,SOMERSET,NJ,8873,SILVIA.BEAM@ILLY.COM,9242534566,
19413,19413,19413V,Vendor,ILLY CAFE/INLAND STAR,3146 S CHESTNUT AVE,FRESNO,CA,93725,SILVIA.BEAM@ILLY.COM,9242534566,
19474,19474,19474VWA2,Vendor,WORLD WIDE GOURMET FOODS,21828 87TH AVENUE SOUTHEAST,WOODINVILLE,WA,98072,JACKP@WWGOURMET.COM,3606689404,
19504,19504,19504VIL,Vendor,AEROMAX,28W079 INDUSTRIAL AVENUE,LAKE BARRINGTON,IL,60010,JARED@AEROMAXTOYS.COM,8777762291,
19613,19613,19613VGA,Vendor,LAURANCE MILNER HOLDINGS DBA SOMETHING SOUTH AFRICAN,"825 FRANKLIN COURT SOUTHEAST, SUITE B",MARIETTA,GA,30067,laurance.milner@comcast.net,4258903031,
19986,19986,19986VNV,Vendor,PEET'S COFFEE - MIGHTY LEAF TEA C/O BENDER WAREHOUSE #4,380 EAST PARR BOULEVARD,RENO,NV,89512,PEETSDIRECT@PEETS.COM,5105942100,
19986,19986,19986VCA2,Vendor,PEET'S COFFEE & TEA,650 85TH AVE,OAKLAND,CA,94621,PEETSDIRECT@PEETS.COM,5105942100,
20406,20406,20406VK,Vendor,SALEM BAKING COMPANY,3840 KIMWELL DR,WINSTON-SALEM,NC,27103,AMANDA.TROY@DEWEYS.COM,8002742994,
20419,20419,20419VIL,Vendor,DAVID RIO C/O MIDWEST WAREHOUSE,"2600 INTERNATIONALE PARKWAY, DOOR 17",WOODRIDGE,IL,60517,ORDERS@GLOBALSALESMKTG.COM,4155432733,
20670,20670,20670VCRAN,Vendor,BRANDS OF BRITAIN AT TYLER DIST,200 LIBERTY WAY,CRANBURY,NJ,8810,ORDERS@BRANDSOFBRITAIN.COM,9258069400,
20683,20683,20683 VG,Vendor,Vigo Importing Co,4700 Tony Alessi Sr. Ave,Tampa,FL,33614,KIM@VIGO-ALESSI.COM,8002824130,
20683,20683,20683V,Vendor,VIGO IMPORTING COMPANY,GP BUILDING 4701 W COMANCHE AVE,TAMPA,FL,33614,KIM@VIGO-ALESSI.COM,8002824130,
20814,20814,20814VCA,Vendor,"Morinaga Nutrional Foods, INC / DMS",1956 William St.,San Leandro,CA,94577,RMORA@MORINU.COM,3107870200,
20959,20959,20959VA,Vendor,DF STAUFFER BISCUIT,360 S BELMONT ST,YORK,PA,17403,SMARKEL@STAUFFERS.COM,7178154658,
20959,20959,20959VCA,Vendor,STAUFFER BISCUIT C/O LAGU,4041 W GARRY AVE,SANTA ANA,CA,92704,SMARKEL@STAUFFERS.COM,7178154658,
20977,20977,20977 V,Vendor,Nassau Candy,300 Duffy Ave,Hicksville,NY,11801,CAROL.BACA@NASSAUCANDY.COM,5164337100,
20990,20990,20990VTX,Vendor,MICROPLANE DIVISION OF GRACE MANUFACTURING C/O SWEET DREAMS,1300 EAST UPAS AVENUE,MCALLEN,TX,78501,MNIEMANN@MICROPLANE.COM,4798809632,
21007,21007,21007VIL,Vendor,JONES SODA C/O THE DELIVERY NETWORK,1000 ACCESS BOULEVARD,MADISON,IL,62060,ORDERS@JONESSODA.COM,2064368766,
21059,21059,21059VIL,Vendor,CAROUSEL CANDIES,2248 GARY LANE,GENEVA,IL,60134,DSTONER@CAROUSEL-CANDIES.COM,6302322500,
21177,21177,21177V,Vendor,HOSODA BROS.INC.,1444 TENNESSEE ST,SAN FRANCISCO,CA,94107,JEFF.TANABE@HOSODABROS.COM,4156487144,
21430,21430,21430VCA,Vendor,"Dave's Gourmet, INC/ INLAND STAR",3146 S Chestnut,Fresno,CA,93725,INFO@DAVESGOURMET.COM,4154019100,
21506,21506,21506V,Vendor,TOO GOOD GOURMET,2380 GRANT AVENUE,SAN LORENZO,CA,94580,jennifer@toogoodgourmet.com,5109850400,
21536,21536,21536V,Vendor,POSH NOSH,"1 JACOBUS AVE BUILDING 50, SUITE 120",KEARNY,NJ,7032,ORDERS@GLOBALSALESMKTG.COM,9732749444,
21536,21536,21536 V,Vendor,Posh Nosh Imports,"111 Interstate Blvd, # 100",Jamesburg,NJ,8831,ORDERS@GLOBALSALESMKTG.COM,9732749444,
21568,21568,21568VMI,Vendor,ALEX BRANDS,4280 SOUTH HAGGERTY ROAD,CANTON,MI,48188,ORDERS@ALEXBRANDSMI.COM,8003298697,
21678,21678,21678VIL,Vendor,KA&F GROUP,4630 SOUTH KOLMAR AVENUE,CHICAGO,IL,60632,CHERI@KANDAENTERPRISES.COM,9252543592,
21765,21765,21765VLA,Vendor,BLEND MARK,2620 8TH STREET,HARVEY,LA,70058,TSMITH@BLENDMARK.COM,5043614068,
21768,21768,21768VIL,Vendor,VERVE C/O PAKO CORP,"975 NIMCO DRIVE, UNIT 0",CRYSTAL LAKE,IL,60014,EMILY@GLEEGUM.COM,4013516415,
21851,21851,21851VTX,Vendor,EASY WAY PRODUCTS,2705 QUALITY LANE,BROWNSVILLE,TX,78526,CPWMEWCUSTOMERSERVICETEAM@EASYWAYPRODUCTS.COM,5137315640,
21868,21868,21868VA,Vendor,BOSTON AMERICA,55 SIXTH ROAD #8,WOBURN,MA,1801,mkavet@bostonamerica.com,7819333535,
22406,22406,22406 VB,Vendor,New Century,5560 E.Slauson Ave.,Commerce,CA,90040,ORDERS@CENTURYSNACKS.COM,3232789578,
22431,22431,22431VCA2,Vendor,Bradshaw Home,9415 KAISER WAY,FONTANA,CA,92335,STACEY.STEVENS@GOODCOOK.COM,9094764430,
22647,22647,22647VUT2,Vendor,THE CHOCOLATE TRAVELER C/O CROWN CHOCOLATE,1239 SWANER ROAD,SALT LAKE CITY,UT,84104,JON@THECHOCOLATETRAVELER.COM,8189857497,
22647,22647,22647VUT1,Vendor,THE CHOCOLATE TRAVELER,418 SOUTH 1325 WEST,OREM,UT,84058,JON@THECHOCOLATETRAVELER.COM,8189857497,
22837,22837,22837VMS,Vendor,OXO INTERNATIONAL C/O HELEN OF TROY,3890 HIGHWAY 51 N,SOUTHAVEN,MS,38671,BENSON@MCFARRENMARKETING.COM,8002361478,
23076,23076,23076VIL,Vendor,URBAN ACCENTS,500 FENTON LANE,WEST CHICAGO,IL,60185,TKNIBBS@URBANACCENTS.COM,7735289515,
23085,23085,23085VIN,Vendor,WABASH VALLEY FARMS,6323 NORTH 150 EAST,MONON,IN,47959,TAMMYL@WABASHVALLEYFARMS.COM,2192324930,
23309,23309,23309VMA2,Vendor,MELVILLE CANDY COMPANY,28 YORK AVE,RANDOLPH,MA,2368,STEVE@MELVILLECANDYCOMPANY.COM,8006388063,
23423,23423,23423VAZ,Vendor,REVOLUTION TEA,"220 SOUTH 9TH STREET, SUITE 300",PHOENIX,AZ,85034,ORDERS@REVOLUTIONTEA.COM,6023933737,
23651,23651,23651 V2,Vendor,"Setton Intl Foods, INC",23311 Ave 95,Terra Bella,CA,93270,jasees@settonfarms.com,6313878038,
23651,23651,23651VCA,Vendor,SETTON PISTACHIO,9370 ROAD 234,TERRA BELLA,CA,93270,jasees@settonfarms.com,6313878038,
24267,24267,24267VMN1,Vendor,TALISMAN DESIGNS C/O CPS DELIVERY,207 OSBORNE ROAD NORTHEAST,FRIDLEY,MN,55432,CHERI@KANDAENTERPRISES.COM,9526812866,
24267,24267,24267VMN2,Vendor,TALISMAN DESIGNS,4846 PARK GLEN ROAD,MINNEAPOLIS,MN,55416,CHERI@KANDAENTERPRISES.COM,9526812866,
24269,24269,24269V,Vendor,EMPIRE INTERNATIONAL,1351 E CHIEF PRIVADO,ONTARIO,CA,91761,EMPINTHO@YAHOO.COM,9099238588,
24352,24352,24352VIL,Vendor,BEER NUTS,103 ROBINSON STREET,BLOOMINGTON,IL,61701,JBUCK@BEERNUTS.COM,3098278580,
24352,24352,24352VMI,Vendor,BEER NUTS INC AT KRISPAK INC,3883 SWANK DR SE,GRAND RAPIDS,MI,49512,JBUCK@BEERNUTS.COM,3098278580,
24434,24434,24434VFL,Vendor,ANASTASIA CONFECTIONS,1815 CYPRESS LAKE DR,ORLANDO,FL,32837,ORDERS@LASOLASBRANDS.COM,4078169944,
24580,24580,24580VWA2,Vendor,ORCA BEVERAGE,11903 CYRUS WAY #5,MUKILTEO,WA,98275,MIKE@ORCABEVERAGE.COM,4253495655,
24580,24580,24580VWA1,Vendor,ORCA BEVERAGE,2302 B STREET NORTHWEST #101,AUBURN,WA,98011,MIKE@ORCABEVERAGE.COM,4253495655,
24582,24582,24582VC,Vendor,"ROXY TRADING, INC",389 N HUMANE WAY,POMONA,CA,91768,CHIMES.ORDERS@ROXYTRADING.COM,6266101388,
24710,24710,24710 VBC,Vendor,"La Tourangelle, INC","2340 East Main St, Suite 400",Woodland,CA,95776,ORDERDESK@LATOURANGELLE.COM,5109709960,
24820,24820,24820VPA,Vendor,UTZ Quality Foods,101 Kindig Lane,Hanover,PA,17331,UTZORDERS@UTZSNACKS.COM,7176371759,
24820,24820,24820VAZ,Vendor,INVENTURE FOODS,"101 NORTH 104TH AVENUE, SUITE C",TOLLESON,AZ,85353,UTZORDERS@UTZSNACKS.COM,7176371759,
24820,24820,24820 VB,Vendor,UTZ Quality Foods,200 Stewart Road,Wilkes-Barre,PA,18706,UTZORDERS@UTZSNACKS.COM,7176371759,
24829,24829,24829VCA3,Vendor,MASTERPIECES ART GALLERY/KLEINS LOGISTICS,9505 AIRWAY RD SUITE 600,SAN DIEGO,CA,92154,ROSEMARYT@CRYSTALARTGALLERY.COM,3234174530,
24829,24829,24829VCA2,Vendor,MASTERPIECES ART GALLERY/KLEINS LOGISTICS WAREHOUSES,"9654 SIEMPRE VIVA ROAD, SUITE# 5",SAN DIEGO,CA,92154,ROSEMARYT@CRYSTALARTGALLERY.COM,3234174530,
24831,24831,24831VCA2,Vendor,R TORRE & COMPANY,2000 MARINA BLVD,SAN LEANDRO,CA,94577,orders@torani.com,6506351145,
25128,25128,25128VB,Vendor,MARUKAN VINEGAR,16203 VERMONT AVE,PARAMOUNT,CA,90723,SHIP5S@AOL.COM,5626306060,
25128,25128,25128VGA,Vendor,MARUKAN VINEGAR,623 REHOBOTH RD,GRIFFIN,GA,30224,SHIP5S@AOL.COM,5626306060,
25337,25337,25337VMS,Vendor,INDIANOLA PECAN HOUSE,1013 HIGHWAY 82 EAST,INDIANOLA,MS,38751,PECAN@PECANHOUSE.COM,6628875420,
25687,25687,25687 VB,Vendor,Heritage Candy Co,11212 Bradley Ave,Pacoima,CA,91331,DANIELLE@GGMARKETING.NET,8187809600,
25687,25687,25687VCA3,Vendor,HERITAGE CANDY COMPANY,29124 N. HANCOOK PKWY,VALENCIA,CA,91355,DANIELLE@GGMARKETING.NET,8187809600,
25687,25687,25687V,Vendor,HERITAGE CANDY COMPANY,6923 WOODLEY AVE,VAN NUYS,CA,91406,DANIELLE@GGMARKETING.NET,8187809600,
25757,25757,25757VIN1,Vendor,TRUE BRANDS,3333 MESILLA COURT,INDIANAPOLIS,IN,46226,VICTORIAGROVE@TRUEBRANDS.COM,8007508783,
25943,25943,25943VCA5,Vendor,SONOMA CREAMERY,22020 CARNEROS VINEYARD WAY SUITE# 1/ DOCK #4,SONOMA,CA,95476,freight@sonomacreamery.com,707-966-1001X41,DANIEL MARTINEZ
26116,26116,26116VCA,Vendor,CRYSTAL GEYSER WATER,2351 EAST BRUNDAGE,BAKERSFIELD,CA,93307,JEFFK@CRYSTALGEYSER.COM,9167724889,
26118,26118,26118V,Vendor,TRIPLE LEAF TEA-INC.,1564 ROLLINS RD,BURLINGAME,CA,94010,MARYANNE@TRIPLELEAF-TEA.COM,6505888258,
26429,26429,26429V,Vendor,CROCODILE CREEK,1648 E LAWSON ST,DURHAM,NC,27703,ORDERS@CROCODILECREEK.COM,9195988152,
26429,26429,26429 V,Vendor,Crocodile Creek,2728 Capital Blvd suite 101,Raleigh,NC,27703,ORDERS@CROCODILECREEK.COM,9195988152,
26522,26522,26522VCO,Vendor,HAMMOND'S CANDIES,5755 NORTH WASHINGTON STREET,DENVER,CO,80216,HBERGER@HAMMONDSBRANDS.COM,3033335588,
26535,26535,26535VCA,Vendor,BOURBON FOODS/KSA AMERICA INC,3109 LOMITA BLVD,TORRANCE,CA,90505,mtakeshita@ksaamerica.com,310-325-7577,MARK / RAFAEL
26611,26611,26611VMN,Vendor,FUNKY CHUCKY,6750 SHADY OAK ROAD,EDEN PRAIRIE,MN,55344,DAN@FUNKYCHUNKY.COM,9527679143,
26717,26717,26717V,Vendor,ALTA MARKETING,26717 PALMETTO AVE,REDLANDS,CA,92374,Website - Portal - no e-mail,909-307-1777,Craig Wilkerson
27074,27074,27074VOR,Vendor,PACIFIC FOODS OF OREGON,27255 SOUTHWEST 95TH AVENUE,WILSONVILLE,OR,97140,NSDENVERORDERS@ACOSTA.COM,5036929666,
27114,27114,27114VCO,Vendor,CHOCOLOVE,1880 SOUTH 57TH COURT,BOULDER,CO,80301,margaret@chocolove.com,3037867888,
27315,27315,27315VCA,Vendor,WALONG MARKETING INC,6281 REGIO AVENUE,BUENA PARK,CA,90620,TONYCHIU@WALONG.COM,7144481879,
27315,27315,27315VB,Vendor,WALONG MARKETING INC.,95 CAVEN POINT RD,JERSEY CITY,NJ,7305,TONYCHIU@WALONG.COM,7144481879,
27398,27398,27398VTX,Vendor,ALEX TOYS C/O DHL/MONARCH FX,5600 MARK IV PARKWAY,FORT WORTH,TX,76131,VINCE@TOYOLOGY.COM,7323954090,
27758,27758,27758VNJ2,Vendor,LIBERTY RICHTER/PSS DISTRIBUTION,121 RIDGE ROAD,JAMESBURG,NJ,8831,ORDERS@WORLDFINER.COM,9733380300,
27758,27758,27758VVA,Vendor,LIBERTY RICHTER/BOWMAN ADROS FOODS,182 JOHNS MANVILLE DRIVE,EDINBURG,VA,22824,ORDERS@WORLDFINER.COM,9733380300,
27758,27758,27758 VB,Vendor,Liberty Richter ( Andros Foods ),230 West Avondale Avenue,Mount Jackson,VA,22842,ORDERS@WORLDFINER.COM,9733380300,
27762,27762,27762VC,Vendor,STREAMLINE IMPORTING,"229 NORTH ROUTE 303, STE 107",CONGERS,NY,10920,KATHERINE@STREAMLINENYC.COM,8452681000,
27763,27763,27763VIL,Vendor,GALISON MUDPUPPY PRESS C/O STEPHEN GOULD,4801 SOUTH WHIPPLE STREET,CHICAGO,IL,60632,ORDERS@GALISON.COM,2123548840,
27979,27979,27979VCA2,Vendor,SENCHA NATURAL,104 N UNION AVE,LOS ANGELES,CA,90026,MEI@SENCHANATURALS.COM,2133539908,
27979,27979,27979VCA3,Vendor,SENCHA NATURALS,1101 MONTEREY PASS RD,MONTEREY PARK,CA,91754,MEI@SENCHANATURALS.COM,2133539908,
28005,28005,28005VECW,Vendor,ITO EN AT EAST COAST WAREHOUSE,1140 POLARIS ST,ELIZABETH,NJ,7201,LOGISTICS@ITOEN.COM,7182504000,
28005,28005,28005VCA,Vendor,ITO EN (north america) inc,1820 N. MacArthur Drive,Tracy,CA,95376-2831,LOGISTICS@ITOEN.COM,7182504000,
28155,28155,28155VOH,Vendor,GEOCENTRAL C/O CM PAULA,6049 HI-TEK COURT,MASON,OH,45040,KSMITH@GEOCENTRAL.COM,8002316083,
28309,28309,28309VIL,Vendor,STAR HOME,13801 WEST LAUREL DRIVE,LAKE FOREST,IL,60045,PS@STARCREATIONSINC.NET,2245434800,
28380,28380,28380VHANOVER,Vendor,ZAPPS,200 STEWART RD,HANOVER TOWNSHIP,PA,18706,RGAUDRY@ZAPPS.COM,2258699777,
28449,28449,28449VCA,Vendor,LBB IMPORTS,2015 SOUTH ACACIA COURT,RANCHO DOMINGUEZ,CA,90220,ANDREW@LBBIMPORTS.COM,3107619565,
28664,28664,28664 D,Vendor,Chuao Chocolatier,"2350 Camino Vida Roble, Suite 201",Carlsbad,CA,92011,TOMAS@CHUAOCHOCOLATIER.COM,7606029484,
28681,28681,28681V,Vendor,LE BELGE CHOCOLATIER,761 SKYWAY CT,NAPA,CA,94558,BSVARC@ASTORCHOCOLATE.COM,7072589200,
28749,28749,28749VOH,Vendor,UP WITH PAPER,6049 HI TEK COURT,MASON,OH,45040,JAMIER@UPWITHPAPER.COM,5137597473,
29010,29010,29010V,Vendor,INDO-EUROPEAN FOODS,1000 AIR WAY,GLENDALE,CA,91201,MIKE@INDO-EURO.COM,8182471000,
29060,29060,29060VIN,Vendor,SOUTH BEND CHOCOLATE COMPANY,3300 WEST SAMPLE STREET,SOUTH BEND,IN,46619,ORDERS@SBCHOCOLATE.COM,5742332577,
29505,29505,29505VCA,Vendor,BRAINSTORM PRODUCTS,"1011 S ANDREASEN DRIVE, SUITE 100",ESCONDIDO,CA,92029,TMROWKA@XKITES.COM,7608711135,
29585,29585,29585VIL,Vendor,M BLOCK AND SONS,18801 SOUTH OAK PARK AVENUE,TINLEY PARK,IL,60477,ELSA.BARREDA@MBLOCK.COM,7087288400,
29643,29643,29643VWA,Vendor,THEO CHOCOLATE,124 NORTH 35TH STREET,SEATTLE,WA,98103,ORDERS@THEOCHOCOLATE.COM,2066325100,
29671,29671,29671VB,Vendor,SPRING VALLEY FLORAL,3200 Golf Course Dr. Suite B,VENTURA,CA,93003,JEFF@FGHDI.COM,8057510312,
29705,29705,29705VCA3,Vendor,SUGAR BOWL,20389 CORSAIR BLVD,HAYWARD,CA,94545,KRISTINE_TRIEU@SUGARBOWLBAKERY.COM,5107822118,
29707,29707,29707VFL,Vendor,CORDOBA FOODS,4477 EAST 11 AVENUE,HIALEAH,FL,33013,SALES@GAUCHORANCHFOODS.COM,3057334768,
29883,29883,29883VOH,Vendor,DRY SODA C/O TAYLOR WAREHOUSE,9756 INTERNATIONAL BOULEVARD,CINCINNATI,OH,45246,ORDERS@DRYSODA.COM,2066522345,
29913,29913,29913VFL,Vendor,JA-RU,13875 GRAN BAY PARKWAY,JACKSONVILLE,FL,32258,DENNISW@JARU.COM,9047339311,
29915,29915,29915VOH3,Vendor,BRAND CASTLE C/O CANDOR TRANSPORTATION,22801 AURORA ROAD,BEDFORD HTS,OH,44146,ERIC.GORDON@BRANDCASTLE.COM,2162927700,
29915,29915,29915VOH1,Vendor,BRAND CASTLE,5111 RICHMOND ROAD,BEDFORD HEIGHTS,OH,44146,ERIC.GORDON@BRANDCASTLE.COM,2162927700,
30048,30048,30048VWI,Vendor,FASHION ANGELS ENTERPRISES,3511 WEST GREEN TREE ROAD,MILWAUKEE,WI,53209,MFRIEDMAN@FASHIONANGELS.COM,4149619200,
30075,30075,30075 V,Vendor,Lifetime Brands,1221 Alder Ave,Rialto,CA,92376,CUSTOMERORDERS@TAYLORUSA.COM,8002890944,
30413,30413,30413V,Vendor,ROUTE 11 POTATO CHIPS,11 EDWARDS WAY,MOUNT JACKSON,VA,22842,SARAH@RT11.COM,5404779664,
30444,30444,30444VE,Vendor,ABBEY SPEC. FOODS/FOND DU LAC COLD STORAGE,78 SAW MILL POND RD,EDISON,NJ,8817,ORDERS@GOGLOBALSALES.COM,8622108150,
30522,30522,30522VOH,Vendor,SPECTRUM DIVERSIFIED DESIGNS,9300 DUTTON DRIVE,TWINSBURG,OH,44087,ORDERS@THESPRINTZGROUP.COM,2066336066,
30992,30992,30992 VB,Vendor,Intermarket Gourmet LLC,25008 Viking Street,Hayward,CA,94545,NANCY@FANCIFOODS.COM,7077899308,
31025,31025,31025VCA,Vendor,PICTURA INC/DYNAMIC DISTRIBUTION&WAREHOUSING INC,15992 S. MAIN STREET,GARDENA,CA,90248,JOHAN.WESTBERG@PICTURAUSA.COM,8007428872,
31025,31025,31025 V,Vendor,Pictura Inc,4 Andrews Drive,Woodland Park,NJ,7424,JOHAN.WESTBERG@PICTURAUSA.COM,8007428872,
31237,31237,31237VIN,Vendor,ALBANESE CONFECTIONERY,6471 NORTHWIND PARKWAY,HOBART,IN,46342,LARRY@PARAMOUNTSALESGROUP.COM,2199421877,
31421,31421,31421VTX,Vendor,KIKKERLAND DESIGN C/O FB FLURRY,"10300 SANDEN DRIVE, SUITE 100, DOCK 32/34",DALLAS,TX,75238,LAURIE@KEENACO.COM,2126782250,
31422,31422,31422VCA,Vendor,SARINA/CAPITAL LOGISTICS,20943 S MACIEL,CARSON,CA,90810,JCARTER@SARINAACC.COM,2122398106,
31548,31548,31548 V,Vendor,Breton Enterprises / Hanover terminal,201 Center Street,HANOVER,PA,17331,DIANA@NATURAL-NECTAR.COM,6313677280,
31573,31573,31573VWI,Vendor,RISHI TEA,185 SOUTH 33RD COURT,MILWAUKEE,WI,53208,COLLEEN.FESSLER@RISHI-TEA.COM,4147474001,
31582,31582,31582VCA2,Vendor,NPW/ GEBRUDER WEISS,11201 IBERIA ST UNIT A,MIRA LOMA,CA,91752,NA.OPERATIONS@VIVONABRANDS.COM,9708795242,
31582,31582,31582 VB,Vendor,Adesso Inc,13230 San Bernardino  Suite B,Fontana,CA,92335,NA.OPERATIONS@VIVONABRANDS.COM,9708795242,
31582,31582,31582VCA,Vendor,NPW C/O GEBRUDER WEISS,1355-1365 STORM PARKWAY,TORRANCE,CA,90501,NA.OPERATIONS@VIVONABRANDS.COM,9708795242,
31890,31890,31890VKS,Vendor,GRANDMA HOERNER'S FOODS,31862 THOMPSON ROAD,ALMA,KS,66401,PO@GRANDMAHOERNERS.COM,7857652300,
31892,31892,31892V,Vendor,SASA DEMARLE INC / PPS,9 CORPORATE DR,CRANBURY,NJ,8512,ORDERS-USA@SASA-DEMARLE.COM,6093950219,
31896,31896,31896VCA2,Vendor,MACFARMS / ROADTEX,13880 MONTE VISTA AVE,CHINO,CA,91710,PMANTENA@MACFARMS.COM,9496616304,
31896,31896,31896VCA,Vendor,Buderim MacFarms of Hawaii/Sierra Pacific,4300 Finch Road,Modesto,CA,95357,PMANTENA@MACFARMS.COM,9496616304,
31906,31906,31906VOH,Vendor,TROPICAL NUT & FRUIT,3150 URBANCREST INDUSTRIAL DRIVE,URBANCREST,OH,43123,CPETERSEN@TROPICALOHIO.COM,6145397233,
32013,32013,32013VNJ,Vendor,FENTIMANS NORTH AMERICA/LAK WAREHOUSE,106 KENNY PLACE,SADDLEBROOK,NJ,7663,KFAKARO@DRINKFENTIMANS.COM,8773263248,
32013,32013,32013VCA,Vendor,Fentimans North America/ WB Warehousing,1217 Moffat Blvd,Manteca,CA,95336,KFAKARO@DRINKFENTIMANS.COM,8773263248,
32061,32061,32061VMI,Vendor,GOURMET INTERNATIONAL,5253 PATTERSON AVENUE SOUTHEAST,GRAND RAPIDS,MI,49512,JOE.KANE@GOURMETINT.COM,6166980666,
32128,32128,32128VWI,Vendor,KLEMENT'S SAUSAGE COMPANY,2650 SOUTH CHASE AVENUE,MILWAUKEE,WI,53207,TIFFANY.ALBRECHT@KLEMENTS.COM,4147442330,
32129,32129,32129V,Vendor,"DURKEE-MOWER, INC.",2 EMPIRE STREET,LYNN,MA,1903,PDANIELS@EMPIREFOODMARKETING.COM,7815938007,
32257,32257,32257V,Vendor,HOME AND BODY CO,18352 ENTERPRISE LN,HUNTINGTON BEACH,CA,92648,SALES@HOMEANDBODYCO.COM,7148428000,
32257,32257,32257VCA3,Vendor,HOME AND BODY CO,5800 SKYLAB RD,HUNTINGTON BEACH,CA,92647,SALES@HOMEANDBODYCO.COM,7148428000,
32257,32257,32257 VV,Vendor,Home and Body Co,5900 Skylab Rd,Huntington Beach,CA,92647,SALES@HOMEANDBODYCO.COM,7148428000,
32270,32270,32270V,Vendor,"BAZZINI HOLDINGS, LLC",1035 MILL RD,ALLENTOWN,PA,18106,MARK@VIVOSPECIALTY.COM,6103661606,
32310,32310,32310VGA,Vendor,SAVANNAH BEE COMPANY,54 BURNS LANE,SAVANNAH,GA,31410,SALES@SAVANNAHBEE.COM,9122340688,
32409,32409,32409VNV,Vendor,MERI MERI,4945 AIRCENTER CIRCLE #101,RENO,NV,89502,ORDERS@MERIMERI.COM,6505082300,
32436,32436,32436V,Vendor,SQUARE ENTERPRISES CORP,19 PATERSON AVE,WALLINGTON,NJ,7057,DOROTAG@SQUAREENTERPRISES.COM,9733651639,
32442,32442,32442VLA1,Vendor,WALKER & SONS,1679 WEST MAIN STREET,VILLE PLATTE,LA,70586,JOEWILLY@WALKERANDSONS.COM,3373636904,
32442,32442,32442VLA2,Vendor,WALKER & SONS C/O TARGILS,229 WARTELL AVENUE,OPELOUSAS,LA,70570,JOEWILLY@WALKERANDSONS.COM,3373636904,
32464,32464,32464VCA2,Vendor,California Olive Ranch/Prism,4686 Frontier Way,Stockton,CA,95215,ORDERS@CAL-OLIVE.COM,5305923792,
32473,32473,32473VDE,Vendor,"DURALEX, USA",802 CENTERPOINT BLVD,NEW CASTLE,DE,19720,GCRESHINE@DURALEXUSA.COM,3023264804,
32487,32487,32487VCA2,Vendor,NATURAL HEALTH & BEAUTY QUEST/MAXWAY,1480 BEACHY PLACE,CARSON,CA,90746,GEORGE@NHBQUEST.COM,3109281585,
32535,32535,32535VNV2,Vendor,KNOCK KNOCK C/O LEGACY SCS,"5360 CAPITAL COURT, SUITE 103",RENO,NV,89502,KK1@KNOCKKNOCKSTUFF.COM,3103964132,
32535,32535,32535VNV1,Vendor,KNOCK KNOCK C/O FOSDICK FULFILLMENT,"8730 MILITARY ROAD, SUITE 150",RENO,NV,89506,KK1@KNOCKKNOCKSTUFF.COM,3103964132,
32580,32580,32580V,Vendor,HERR FOODS,4 CENTER DRIVE,NORTH EAST,MD,21901,HEIDI.CAMPBELL@HERRS.COM,6109329330,
32748,32748,32748V,Vendor,ICY COOLS,15 OSCAR DRIVE,ROOSEVELT,NJ,8555,SALES@ICYCOOLS.COM,6094480172,
32749,32749,32749VGA2,Vendor,FREDERICK HART AT COMPAC,4963 SOUTH ROYAL ATLANTA DRIVE,TUCKER,GA,30084,AL_SULLIVAN@MSN.COM,4043734030,
32796,32796,32796VNJ,Vendor,STANMAR INT'L C/O EAST COAST WHSE,1130 POLARIS ST,ELIZABETH,NJ,7201,HAYLEY@STANMARINTERNATIONAL.COM,9054744450,
32796,32796,32796 VBC,Vendor,Stanmar International (WCS Distribution),2260 S.Haven Ave Ste E,Ontario,CA,91761,HAYLEY@STANMARINTERNATIONAL.COM,9054744450,
32799,32799,32799V,Vendor,COMMONWEALTH SOAP & TOILETRIES,661 QUEQUECHAN ST,FALL RIVER,MA,2721,JAPOLINARIO@CSTSOAP.COM,5086769355,
32931,32931,32931VB,Vendor,HIGHLAND SUGARWORKS,49 PARKER ROAD,BARRE,VT,5641,RHORAN@LBMAPLETREAT.COM,8024791747,
32953,32953,32953VPA,Vendor,UNIQUE PRETZEL BAKERY INC,215 E BELLEVUE AVE,READING,PA,19605,SALES@UNIQUESPLITS.COM,6109293172,
33285,33285,33285VAZ,Vendor,SOUTHWEST SPECIALTY FOOD,700 NORTH BULLARD AVENUE,GOODYEAR,AZ,85338,LINDA@ASSKICKIN.COM,6239313131,
33289,33289,33289V,Vendor,BRASWELL FOOD COMPANY,226 NORTH ZETTEROWER AVE,STATESBORO,GA,30458,STUARTS@BRASWELLS.COM,8006739388,
33401,33401,33401V,Vendor,"SABATINO NORTH AMERICA, LLC",135 FRONT AVE,WEST HAVEN,CT,6516,W.MATOS@SABATINOSTORE.COM,7183284120,
33441,33441,33441VCA3,Vendor,DECOR CRAFT INC/FLEXPORT LA WAREHOUSE,1420 N McKinley Ave,LOS ANGELES,CA,90059,LOGISTICS@DCIGIFT.COM,4016212324,
33441,33441,33441VCA4,Vendor,COEXS LLC/ OIA GLOBAL,15927 DISTRIBUTION WAY,CERRITOS,CA,90703,LOGISTICS@DCIGIFT.COM,4016212324,
33445,33445,33445VFL,Vendor,NELLIE & JOE'S,450 SW 12TH AVE,POMPANO BEACH,FL,33069,INFO@KEYLIMEJUICE.COM,8005463743,
33445,33445,33445VCA,Vendor,NELLIE & JOE'S AT TRIPLE H FOODS,5821 WILDERNESS AVE,RIVERSIDE,CA,92504,INFO@KEYLIMEJUICE.COM,8005463743,
33524,33524,33524V,Vendor,BAKERY STREET INC,1465 FACTOR AVE,SAN LEANDRO,CA,94577,KCHUA@BAKERYSTREET.COM,5105678880,
33559,33559,33559VCA,Vendor,NONGSHIM AMERICA INC,9325 SANTA ANITA AVE,RANCHO CUCAMONGA,CA,91730,YDKIM@NONGSHIMUSA.COM,5105970508,
33559,33559,33559VCA3,Vendor,NONGSHIM AMERICA INC,9520 SANTA ANITA AVE,RANCHO CUCAMONGA,CA,91730,YDKIM@NONGSHIMUSA.COM,5105970508,
33563,33563,33563VCA,Vendor,A & K Wong,261 12th Street,Oakland,CA,94607,FCF261@YAHOO.COM,5108325552,
33615,33615,33615VLA,Vendor,BOSCOLI FOODS,2254 GREENWOOD STREET,KENNER,LA,70062,CINDY@BOSCOLI.COM,5044695500,
33626,33626,33626 VB,Vendor,"Takari International, INC",521 N. Loop Dr.,Ontario,CA,91761,INFO@TAKARI.COM,9099239399,
33668,33668,33668V,Vendor,VASINEE FOOD CORP,1247 GRAND STREET,BROOKLYN,NY,11211,DEBBIE@VASINEE.COM,7183496911,
33710,33710,33710VCA,Vendor,INSULATED PRODUCTS CORP,250 W. ARTESIA BLVD,RANCHO DOMINGUEZ,CA,90220,ROBERT.BIRNBAUM@IPCPACK.COM,310-638-0900,ROBERT
33712,33712,33712VTX,Vendor,MEDITERRANEAN DELIGHT C/O CHO AMERICA,16922 BUCANEER LANE,HOUSTON,TX,77058,OLIVEOIL@IGOTOIL.COM,2817121549,
33769,33769,33769 V,Vendor,Kabushihiki Kaisha Muso shoji at Gold Mine Natural foods,13200 Danielson street Ste A-1,Poway,CA,92064,ORDERS@JAPANGOLDUSA.COM,8134869341,
33793,33793,33793VIL,Vendor,LOWELL INTERNATIONAL,9234 WEST BELMONT AVENUE,FRANKLIN PARK,IL,60131,MARTA.KICHARD@LOWELLFOODS.COM,8473491015,
33858,33858,33858VIN,Vendor,TF PUBLISHING,4257 SOUTH 500 EAST,WHITESTOWN,IN,46075,KHESSEL@TFPUBLISHING.COM,3172901333,
33861,33861,33861V,Vendor,JAYONE FOODS INC,7212 ALONDRA BLVD,PARAMOUNT,CA,90723,JANIS.KIM@JAYONE.COM,5626337400,
33909,33909,33909VCA,Vendor,JOSEPH JOSEPH/ TTD WEST,16107 COMMERCE WAY,CERRITOS,CA,90703,DEBRATRAVERSGRP@AOL.COM,9173380900,
33909,33909,33909VNJ,Vendor,JOSEPH JOSEPH C/O GMI DISTRIBUTION,60 CLYDE RD,SOMERSET,NJ,8873,DEBRATRAVERSGRP@AOL.COM,9173380900,
33955,33955,33955V,Vendor,MARUKOME USA,17132 PULLMAN ST,IRVINE,CA,92614,YTERANISHI@MARUKOMEUSA.COM,9498630110,
33999,33999,33999 VB,Vendor,The Brand Passport inc,481 Doremus Ave,Newark,NJ,7105,ORDERS@THEBRANDPASSPORT.COM,2123152343,
33999,33999,33999 VBV,Vendor,"the Brand passport, Inc","55 Jacobus ave, Bldg 4",Kearny,NJ,7032,ORDERS@THEBRANDPASSPORT.COM,2123152343,
34101,34101,34101VCA,Vendor,JAY IMPORT C/O PIXIOR,10621 6TH STREET,RANCHO CUCAMONGA,CA,91730,KJAY@JAYIMPORT.COM,2126832727,
34113,34113,34113VWA,Vendor,THE NAPOLEON COMPANY C/O HOLMAN DISTRIBUTION,22408 76TH AVENUE SOUTH,KENT,WA,98032,MILO@NAPOLEON-CO.COM,4254553776,
34127,34127,34127VIN,Vendor,AMISH COUNTRY POPCORN,5433 SOUTH 150 EAST.,BERNE,IN,46711,LEOGEELS@AMISHCOUNTRYPOPCORN.COM,2605898513,
34138,34138,34138VCA2,Vendor,The ORB Factory/Schenker Inc,22941 S. Wilmington Ave,Carson,CA,90745,PURCHASEORDERS@ORBTOYS.COM,8053200909,
34138,34138,34138VCA,Vendor,THE ORB FACTORY/DEPENDABLE SUPPLY CHAIN SERVICES,2555 E. OLYMPIC BLVD.,LOS ANGELES,CA,90023,PURCHASEORDERS@ORBTOYS.COM,8053200909,
34138,34138,34138VCA3,Vendor,THE ORB FACTORY/DEPENDABLE SUPPLY CHAIN SERVICES,901 E. 233RD STREET,90745,CA,90745,PURCHASEORDERS@ORBTOYS.COM,8053200909,
34260,34260,34260V,Vendor,MILAS FOODS LLC,15-01 UNIT#4  POLLITT DR,FAIR LAWN,NJ,7410,SALES@ELMAFARMS.COM,2017021244,
34260,34260,34260 VB,Vendor,"Milas Foods, LLC","2 S Middlesex Ave, Suite A",Monroe Township,NJ,8831,SALES@ELMAFARMS.COM,2017021244,
34280,34280,34280 VB,Vendor,Prepara / Motivational fulfillment,15785 Mountain Ave.,Chino,CA,91708,CHERI@KANDAENTERPRISES.COM,8888788665,
34280,34280,34280VTX,Vendor,PREPARA C/O MAINFREIGHT,"501 GERAULT ROAD, SUITE 120",FLOWER MOUND,TX,75028,CHERI@KANDAENTERPRISES.COM,8888788665,
34285,34285,34285VIL,Vendor,PASTORELLI FOOD,901 WEST LAKE STREET,CHICAGO,IL,60607,KRAMIREZ@PASTORELLI.COM,3126662041,
34305,34305,34305V,Vendor,MELISSA & DOUG,1203 S RIVER RD,CRANBURY,NJ,8512,PCHOI@MELISSAANDDOUG.COM,8002843948,
34305,34305,34305 V,Vendor,Melissa & Doug,25451 Mountain House Parkway,Tracy,CA,95377,PCHOI@MELISSAANDDOUG.COM,8002843948,
34350,34350,34350VC,Vendor,LA LAVANDE,5221 CENTRAL AVENUE#17,RICHMOND,CA,94804,LALAVANDEGIFTS@AOL.COM,5105244711,
34492,34492,34492VC,Vendor,Punch Studio,6029 W SLAUSON AVE,CULVER CITY,CA,90230,KIMBERLYF@PUNCHSTUDIO.COM,3103909900,
34688,34688,34688VBCD,Vendor,CJ FOODS,675 S PLACENTIA AVE,FULLERTON,CA,92831,LBUNKERS@CJFOODS.COM,3232785248,
34752,34752,34752VMI,Vendor,SANDERS CANDY,22800 HALL ROAD,CLINTON TOWNSHIP,MI,48036,MARK@VIVOSPECIALTY.COM,5864645311,
34758,34758,34758VJ,Vendor,BCGA CONCEPT,465 JOHNSON AVE,BROOKLYN,NY,11237,ORDERS@BROOKLYNFB.COM,2124880661,
34807,34807,34807VMA2,Vendor,GLOBAL BEVERAGE/GINSENG-UP BOTTLING CO,60 SOLFERINO STREET,WORCESTER,MA,1604,EGGCREAM@EARTHLINK.NET,9542033097,
34881,34881,34881VLA,Vendor,SIROCCO ENTERPRISES,228 INDUSTRIAL AVENUE,JEFFERSON,LA,70121,INFO@SIROCCOENTERPRISES.COM,5048341549,
34886,34886,34886 V,Vendor,Terofoma,255 Long Beach Blvd / Dock E,Stratford,CT,6615,ANNA@TEROFORMA.COM,8778991190,
34886,34886,34886 VB,Vendor,Teroforma c/o Shepards inc,32 Henry Street,Bethel,CT,6801,ANNA@TEROFORMA.COM,8778991190,
34886,34886,34886 VBC,Vendor,Teroforma,57 Dodge Ave / suite 3,North Haven,CT,6473,ANNA@TEROFORMA.COM,8778991190,
34906,34906,34906VWA,Vendor,GARVEY'S ENTERPRISES C/O SKCAC INDUSTRIES,19731 RUSSELL ROAD SOUTH,KENT,WA,98032,NED@GARVEYSENT.COM,4256439441,
34990,34990,34990VIL,Vendor,V.FORMUSA,2150 OXFORD ROAD,DES PLAINES,IL,60018,JJOHNSON@MARCONI-FOODS.COM,3124210485,
35091,35091,35091V,Vendor,NEW HOPE MILLS MFG,181 YORK ST,AUBURN,NY,13021,ORDERS@NEWHOPEMILLS.COM,3152522676,
35114,35114,35114VTN,Vendor,RUFUS TEAGUE C/O ALLEGRO FINE FOODS,199 PLUMLEY DRIVE,PARIS,TN,38242,ORDERS@RUFUSTEAGUE.COM,9137063814,
35114,35114,35114VKS,Vendor,J & J GROUP DBA RUFUS TEAGUE C/O BURDISS,9940 WIDMER ROAD,LENEXA,KS,66215,ORDERS@RUFUSTEAGUE.COM,9137063814,
35130,35130,35130VNJ,Vendor,ATALANTA CORP,1 ATLANTA PLAZA,ELIZABETH,NJ,7206,ORDERS@GLOBALSALESMKTG.COM,9083518000,
35212,35212,35212VCA,Vendor,LAVAZZA/OMNI LOGISTICS,2730 E. EL PRESIDIO STREET,CARSON,CA,90810,KRISTIN.DECKER@LAVAZZA.COM,2127258800,
35212,35212,35212VPSS,Vendor,LAVAZZA COFFEES AT PSS DIST,7 NICHOLAS CT,DAYTON,NJ,8810,KRISTIN.DECKER@LAVAZZA.COM,2127258800,
35331,35331,35331V,Vendor,SKOY ENTERPRISES AT REX INDUSTRIES,1336 RANCHEROS DR STE 100,SAN MARCOS,CA,92069,WHOLESALE@SKOYCLOTH.COM,7608033669,
35357,35357,35357 VLODI,Vendor,TRINCHERO FAMILY ESTATES AT SUTTER HOME WINERY,18667 JACOB BRACK RD,LODI,CA,95242,ORDERS@TFEWINES.COM,7079633104,
35437,35437,35437VCA,Vendor,SONOMA PORTWORKS/GROSKOPF WAREHOUSE& LOGISTICS,20580 EIGHTH STREET EAST,SONOMA,CA,95476,BILL@PORTWORKS.COM,7077695203,
35537,35537,35537 V,Vendor,Piedmont candy Company,305 E. US hwy 64,Lexington,NC,27295,DARREN@ACTIONSALESWEST.COM,3362482477,
35620,35620,35620V,Vendor,AEROPRESS INC AT THE WORKCENTER,550 QUARRY RD,SAN CARLOS,CA,94070,SALES@AEROPRESSINC.COM,6504933050,
35634,35634,35634VCA3,Vendor,TCHO /SIERRA PACIFIC DISTRIBUTION,4300 FINCH RD,MODESTO,CA,95357,ORDERS@TCHO.COM,8448778246,
35667,35667,35667VIL,Vendor,SPRING-FILL INDUSTRIES,2855 SHERMER ROAD,NORTHBROOK,IL,60062,LATOYAC@SPRING-FILL.COM,8474183068,
35686,35686,35686VNJ2,Vendor,UNITED OLIVE OIL/HALLS WAREHOUSE,100 SAW MILL POND ROAD,EDISON,NJ,8817,ZACH@UNITEDOLIVEOIL.COM,2123460942,
35708,35708,35708VWA,Vendor,MADRONA SPECIALTY FOODS,18621 72ND AVENUE SOUTH,KENT,WA,98032,CUSTOMERSERVICE@MADRONAFOODS.COM,2069030500,
35708,35708,35708VNC,Vendor,MADRONA SPECIALTY FOODS LLC,6051 LAKEVIEW RD STE H,CHARLOTTE,NC,28269,CUSTOMERSERVICE@MADRONAFOODS.COM,2069030500,
35715,35715,35715VGA,Vendor,CORKCICLE C/O AMWARE LOGISTICS,4505 NEWPOINT PLACE,LAWRENCEVILLE,GA,30043,EHOSCH@CORKCICLE.COM,8667800007,
35744,35744,35744VNJ2,Vendor,Star Snacks,111 Port Jersey Blvd,Jersey City,NJ,7305,ORDER.ENTRY@STARSNACKS.NET,2012009820,
35771,35771,35771 VC,Vendor,Food Specialties Trading LLC,350 Cheryl Lane,City of Industry,CA,91789,MARIA@FST-LLC.COM,9738376791,
35846,35846,35846V,Vendor,JBR,1731 Aviation Blvd,Lincoln,CA,95648,SERVICE@ROGERSFAMILYCO.COM,5104324326,
35885,35885,35885 V,Vendor,Zoku,305 Churchill Ave,Somerset,NJ,8873,CHERI@KANDAENTERPRISES.COM,5163943351,
35912,35912,35912V,Vendor,US TRADING CO,21118 CABOT BLVD,HAYWARD,CA,94545,VINCETOV@USTRADING.COM,5107811818,
36009,36009,36009VFL,Vendor,QUALITY GROWERS FLORAL,5220 STATE ROAD 11,DE LEON SPRINGS,FL,32130,SARAH@QUALITYGROWERS.COM,3867343433,
36077,36077,36077 V,Vendor,Queensway Trading Company,"1510 Zephyr Avenue, Suite B",Hayward,CA,94544,QUEENSWAYCOMPANY@GMAIL.COM,4159882258,
36079,36079,36079VNC,Vendor,CAROLINA BEVERAGE CORP AT DR PEPPER,8116 NC HIGHWAY 163,WEST JEFFERSON,NC,28694,BPORTER@CHEERWINE.COM,7046375881,
36149,36149,36149V,Vendor,INTERNATIONAL GOLD STAR INC,570 SMITH ST,BROOKLYN,NY,11231,INFO@GOLDSTARUSA.COM,7185221545,
36183,36183,36183V,Vendor,KING WAI TRADING COMPANY,30098 EIGENBRODT WAY,UNION CITY,CA,94587,VLOPEZ@KGCUSA.COM,5104891888,
36215,36215,36215VCA,Vendor,J&A IMPORTERS,4398 AYERS AVENUE,VERNON,CA,90058,ANTHONY.MA@JAIMPORTERS.COM,3237803998,
36218,36218,36218VTX,Vendor,DUBLIN BOTTLING WORKS,221 SOUTH PATRICK STREET,DUBLIN,TX,76446,ACCOUNTING@DUBLINBOTTLINGWORKS.COM,2544453466,
36222,36222,36222VWEST,Vendor,TATE'S BAKE SHOP,220 ROGERS WAY,WESTHAMPTON BEACH,NY,11978,AMANDAN@TATESBAKESHOP.COM,6317806511,
36233,36233,36233VCA,Vendor,UT BRANDS C/O DSW DISTRIBUTION CENTERS,8858 ROCHESTER AVENUE,RANCHO  CUCAMONGA,CA,91730,ROB@URBANTRENDHK.COM,9497570000,
36233,36233,36233CA2,Vendor,UT BRANDS /GLC DISTRIBUTION,9724 ALABAMA ST,REDLANDS,CA,92374,ROB@URBANTRENDHK.COM,9497570000,
36297,36297,36297 V,Vendor,Olli Salumeria America LLC,1301 Rocky Point Drive,Oceanside,CA,92056,ORDERS@OLLI.COM,8042014969,
36333,36333,36333VCA2,Vendor,Dang Foods LLC/Best Logistics,340 Port Road 22,Stockton,CA,95203,SALES@DANGFOODS.COM,5109826830,
36473,36473,36473VIL,Vendor,RICK'S PICKS C/O RJW,50 SOUTHCREEK PARKWAY,ROMEOVILLE,IL,60446,SNACKINGPICKLESORDERS@RICKSPICKS.COM,2123580428,
36535,36535,36535VIL,Vendor,SAFFRON ROAD/AMERICAN HALAL C/O MIDWEST WAREHOUSE,2600 INTERNATIONALE PARKWAY,WOODRIDGE,IL,60517,MAMUN@AMERICANHALAL.COM,2039611954,
36635,36635,36635 V,Vendor,SLT Foods Inc,"303,Ridge Road",Dayton,NJ,8810,SANDIP.PATEL@SLTGROUP.COM,7326611030,
211944,211944,211944VOH,Vendor,BRENTWOOD ORIGINALS,1309 NORTH MERIDIAN ROAD,YOUNGSTOWN,OH,44509,OLIVIAB@BRENTWOODORIGINALS.COM,3106376804,
211944,211944,211944VCA,Vendor,BRENTWOOD ORIGINALS,20639 SOUTH FORDYCE AVENUE,CARSON,CA,90810,OLIVIAB@BRENTWOODORIGINALS.COM,3106376804,
211944,211944,211944VMS,Vendor,BRENTWOOD ORIGINALS,9759 CHURCH ROAD,WALLS,MS,38680,OLIVIAB@BRENTWOODORIGINALS.COM,3106376804,
211985,211985,211985VNY,Vendor,GODINGER SLIVER,20 BOND ST,CENTRAL VALLEY,NY,10917,NELLIE@GODINGER.COM,7184181000,
211985,211985,211985VCA,Vendor,GODINGER SILVER,490 W.MANVILLE ST,RANCHO DOMINGUEZ,CA,90220,NELLIE@GODINGER.COM,7184181000,
212158,212158,212158VMI,Vendor,ANN WILLIAMS GROUP C/O GSA,"32500 VAN BORN ROAD, SUITE 600",WAYNE,MI,48184,ORDERS@ANNWILLIAMSGROUP.COM,2489775831,
212279,212279,212279VOR,Vendor,BIG ISLAND BEES C/O NATURE'S KICK,1443 45TH AVENUE NORTHEAST,SALEM,OR,97301,SALES@BIGISLANDBEES.COM,8083287318,
212291,212291,212291VNJ2,Vendor,PURSE SEINE HOLDING AT FINE ITALIAN FOODS WAREHOUSE,42 MILEED WAY,AVANEL,NJ,7001,JOSHUA@BELABRANDSEAFOOD.COM,6172450490,
212483,212483,212483 V,Vendor,Snifty Scented Products,1401 Park Avenue South,Linden,NJ,7036,BRANDIE@SNIFTYPEN.COM,7604731421,
212541,212541,212541 VC,Vendor,Asa Trading Co,2300 Polvorosa Ave,San Leandro,CA,94577,CINDYY@ASATRADINGCO.COM,5106331500,
212592,212592,212592VTX,Vendor,CINSA,1208 UNIROYAL DRIVE,LAREDO,TX,78045,RENE.PAREDES@VITROMEX.COM,2104895707,
212638,212638,212638VWI,Vendor,IMPERIAL FLAVORS BEVERAGE CO,6300 WEST DOUGLAS AVENUE,MILWAUKEE,WI,53218,GSCHOTT@IMPERIALFLAVORS.COM,4145367788,
212674,212674,212674VMO,Vendor,SCHOLASTIC,6336 ALGOA ROAD,JEFFERSON CITY,MO,65101,KATHY_RAYNOR@KLUTZ.COM,2129657253,
212730,212730,212730VSC,Vendor,Charleston Beverage/Creative Foods Inc,5912 Campbell Street,Hanahan,SC,29410,SALES@CHARLESTONMIX.COM,8668104915,
212939,212939,212939 V,Vendor,Kids Preferred LLC,81 Twin rivers Dr,East Windsor,NJ,8520,OFFICE@SUNSHINESALE.COM,7322741144,
213110,213110,213110VUT,Vendor,BACK TO THE ROOTS C/O TRUE LEAF MARKET,175 WEST 2700 SOUTH STREET,SALT LAKE CITY,UT,84115,ORDERS@BACKTOTHEROOTS.COM,5109229758,
213110,213110,213110VMI,Vendor,BACK TO THE ROOTS C/O GOURMET MUSHROOMS,506 EAST STATE STREET,SCOTTVILLE,MI,49454,ORDERS@BACKTOTHEROOTS.COM,5109229758,
213133,213133,213133V,Vendor,Wang Globalnet,2465 Fruitland Ave,Vernon,CA,90058,MIKELEE@HANMIINC.COM,2136225111,
213157,213157,213157V,Vendor,EB EXPRESS PROVISIONS,181-191 VANDERPOOL ST,NEWARK,NJ,7114,EB21ARAUJO@GMAIL.COM,9738685381,
213166,213166,213166VWA,Vendor,CULINARY COLLECTIVE,"12407-B MUKILTEO SPEEDWAY, SUITE 245",LYNNWOOD,WA,98087,ERIC@CULINARYCOLLECTIVE.COM,4253989765,
213166,213166,213166VNJ2,Vendor,CULINARY COLLECTIVE/REFRIGIT WAREHOUSE,287 MILER STREET,NEWARK,NJ,7114,ERIC@CULINARYCOLLECTIVE.COM,4253989765,
213166,213166,213166VNJ,Vendor,CULINARY COLLECTIVE/TYLER DISTRIBUTION,7-1 CORN RD,DAYTON,NJ,8810,ERIC@CULINARYCOLLECTIVE.COM,4253989765,
213446,213446,213446V,Vendor,H2W,20630 Superior ST,Chatsworth,CA,91311,ANNETTE@SUNSTACHES.COM,8184072968,
213521,213521,213521VWI2,Vendor,30 WATT C/O AW2 LOGISTICS,W160S6471 COMMERCE DRIVE,MUSKEGO,WI,53150,DAVID@30WATT.COM,6128862607,
213591,213591,213591V,Vendor,PEREG GOURMET,25 STYERTOWNE RD,CLIFTON,NJ,7012,OFFICE@PEREG-GOURMET.COM,7182616767,
213636,213636,213636VUT,Vendor,POP ART SNACKS,"3232 SOUTH 400 EAST, SUITE 800",SALT LAKE CITY,UT,84115,VENESSA@POPARTSNACKS.COM,8019837470,
213658,213658,213658VCA2,Vendor,COASTAL COCKTAILS/WCS DISTRIBUTION,2260 S HAVEN AVE STE E,ONTARIO,CA,91761,EREYES@MODERNGOURMETFOODS.COM,9492503129,
213658,213658,213658VCA3,Vendor,COASTAL COCKTAILS/ WCS DISTRIBUTION,4225 ETIWANDA AVE UNIT 2,MIRA LOMA,CA,91752,EREYES@MODERNGOURMETFOODS.COM,9492503129,
213711,213711,213711VMA2,Vendor,EEBOO/FULFILLMENT AMERICA,17 PROGRESS ROAD,BILLERICA,MA,1821,ALEX@EEBOO.COM,2122220823,
213745,213745,213745VCA2,Vendor,OOLY,5607 PALMER WAY,CARLSBAD,CA,92010,MARISSA@INTLARRIVALS.COM,7602317603,
213778,213778,213778VOR,Vendor,HOG WILD TOYS,10145 SOUTHEAST JENNIFER STREET,CLACKAMAS,OR,97015,LINDSAY@HOGWILDTOYS.COM,5032316465,
213780,213780,213780VIL,Vendor,WILD AND WOLF C/O MAINFREIGHT LOGISTICS,560 REMINGTON BOULEVARD,BOLINGBROOK,IL,60440,USKA@WILDANDWOLF.COM,8662854407,
213810,213810,213810VTX,Vendor,PRIMIZIE SNACKS C/O FIESTA WAREHOUSE,3739 DROSSETT DRIVE,AUSTIN,TX,78744,LISA@PRIMIZIESNACKS.COM,8772927553,
213883,213883,213883VGA,Vendor,TYPHOON HOMEWARES C/O LEAN SUPPLY SOLUTIONS,"3000 LOGISTICS CENTER DRIVE, SUITE 200",FAIRBURN,GA,30213,CUSTOMERCARE@TYPHOONHOMEWARES.COM,8665980309,
213920,213920,213920VCA2,Vendor,STUDIO OH/ ORANGE CIRCLE STUDIO,1339 ROCKY POINT DR,OCEANSIDE,CA,92056,DANIELW@ORANGECIRCLESTUDIO.COM,9497270800,
213945,213945,213945VCA,Vendor,PROVISIONAIRE--FIELD TRIP C/O EVANS,15430 PROCTOR AVE,CITY OF INDUSTRY,CA,91745,ORDERS@FIELDTRIPJERKY.COM,6466818600,
213945,213945,213945VUT,Vendor,PROVISIONAIRE--FIELD TRIP C/O QUALITY DISTRIBUTION,6010 WEST AMELIA EARHART DRIVE,SALT LAKE CITY,UT,84116,ORDERS@FIELDTRIPJERKY.COM,6466818600,
213951,213951,213951 V,Vendor,Savory Creations International,32611 Central AVE,Union City,CA,94587,UC-ORDERS@KETTLECUISINE.COM,6506381024,
213953,213953,213953VMI1,Vendor,MCCLURE''S PICKLES,8201 SAINT AUBIN STREET,DETROIT,MI,48211,ORDERS@MCCLURESPICKLES.COM,8887848434,
214110,214110,214110V,Vendor,MPS,16365 JAMES MADISON HWY,GORDONSVILLE,VA,22942,JACLYN.WAGGNER@MACMILLAN.COM,6463075427,
214220,214220,214220VMO,Vendor,COCKTAIL CRATE AT FULFILLMENT PLUS,1446 TANEY ST,KANSAS CITY,MO,64116,SALES@COCKTAILCRATE.COM,7183162033,
214232,214232,214232 VB,Vendor,Hella Bitter LLC,21 Constitution Ave,Piscataway,NJ,8854,JOMAREE@HELLABITTERS.COM,6462673341,
214232,214232,214232 V,Vendor,Hella Bitter LLC,30 Clearview Rd,Edison,NJ,8837,JOMAREE@HELLABITTERS.COM,6462673341,
214266,214266,214266 VB,Vendor,Zoe's Meats,715 Southpoint Blvd,Petaluma,CA,94954,GEORGEG@ZOEMEATS.COM,7075459637,
214444,214444,214444V,Vendor,FOOD IRELAND,230 EAST 3RD ST,MOUNT VERNON,NY,10557,WHOLESALE@FOODIRELAND.COM,9146995000,
214539,214539,214539VIL,Vendor,REGAL GAMES,1006 CAROLINA DRIVE,WEST CHICAGO,IL,60185,SALES@REGALGAMESLLC.COM,6305876700,
214539,214539,214539VIN,Vendor,REGAL GAMES C/O DIY GROUP,2401 WEST 26TH STREET,MUNCIE,IN,47302,SALES@REGALGAMESLLC.COM,6305876700,
214662,214662,214662VUT,Vendor,CROWN CHOCOLATE PACKAGING,1239 SWANER ROAD,SALT LAKE CITY,UT,84104,GABEADAMSCCP@AOL.COM,8014673050,
214815,214815,214815 VB,Vendor,Family Foods International INC,6801 De Bie Drive,Paramount,CA,90723,WILLIAM@FAMILYFOODSINTERNATIONAL.COM,3107152698,
214853,214853,214853V,Vendor,KRUGER NORTH AMERICA AT TYLER DIST,200 LIBERTY WAY,CRANBURY,NJ,8512,TORBEN@TRADEWORKSONLINE.COM,7088513670,
215052,215052,215052VCA,Vendor,S & E GOURMET CUTS/CASE STACKS C/O STATES LOGISTICS,5590 EAST FRANCIS STREET,ONTARIO,CA,91761,SALES@COUNTRYARCHER.COM,9093700155,
215059,215059,215059VNJ2,Vendor,INES ROSALES/TYLER DISTRIBUTION,200 LIBERTY ROAD,CRANBURY,NJ,8512,ORDERS@INESROSALESUSA.COM,2024691579,
215091,215091,215091V,Vendor,SUGAR PLUM,88 DILLEY STREET,FORTY FORT,PA,18704,SALES@SUGAR-PLUM.COM,5702880559,
215105,215105,215105VNJ,Vendor,BAHLSEN NORTH/TYLER DISTRIBUTION,200 LIBERTY WAY,CRANBURY,NJ,8512,BNAORDERS@BAHLSEN.COM,9739292410,
215125,215125,215125V,Vendor,NOTED AT WHITEHURST AND CLARK,1200 COUNTY RD RTE 23,FLEMINGTON,NJ,8822,LAURIE@KEENACO.COM,8006007216,
215193,215193,215193V,Vendor,"The Piggy Story, INC",16516 Arminta St.,Van Nuys,CA,91406,PEILING@THEPIGGYSTORY.COM,8189088838,
229209,229209,229209VKY,Vendor,GALERIE,3380 LANGLEY DRIVE,HEBRON,KY,41048,JARTHURS@GALERIEUSA.COM,8595388000,
229250,229250,229250V,Vendor,COPAK SOLUTIONS,103 SOMERSET DR NW,CONOVER,NC,28613,SMILLER@COPAKSOLUTIONSINC.NET,8282610255,
229265,229265,229265 V,Vendor,Harney & sons Tea Company,5723 Route 22,Millerton,NY,12546,CLARA@HARNEYTEAS.COM,5187892100,
229367,229367,229367VTX,Vendor,PROJECT GENIUS,2701 GATTIS SCHOOL ROAD E-150,ROUND ROCK,TX,78664,BRANDI@PROJECTGENIUSINC.COM,5122187950,
229373,229373,229373V,Vendor,"MIEL LABONTE HONEY, INC",2002 RIDGE ROAD,CHAMPLAIN,NY,12919,A.FRANCOEUR@LABONTEINC.COM,8197583877,
229403,229403,229403V,Vendor,FRENCH FOOD EXPERTS AT COURIER SYSTEMS,180 PULASKI ST,BAYONNE,NJ,7002,BONJOUR@FRENCHFOODEXPORTS.COM,2018672151,
229477,229477,229477VMD,Vendor,PALADONE / TOTAL BIZ FULFILLMENT,120 RESOURCE AVE,MOUNTAIN LAKE PARK,MD,21550,TYLER.BREUER@PALADONE.COM,8888500600,
229477,229477,229477VCA,Vendor,PALADONE PRODUCTS/ACE/OIA GLOBAL,15927 DISTRIBUTION WAY,CERRITOS,CA,90703,TYLER.BREUER@PALADONE.COM,8888500600,
229483,229483,229483VTX,Vendor,EPOCA C/O  SADDLE CREEK LOGISTICS,"4670 RAILHEAD ROAD, DOOR 301",FORT WORTH,TX,76106,NC@MORGANSAMPSONUSA.COM,5613533900,
229483,229483,229483VCA,Vendor,Epoca C/O Saddle Creek Logistics,6565 Knott Ave Suite C,Buena Park,CA,90620,NC@MORGANSAMPSONUSA.COM,5613533900,
229560,229560,229560VMT,Vendor,OLIVELLE,24795 FRONTAGE ROAD,BOZEMAN,MT,59718,PURCHASING@OLIVELLE.COM,4065874246,
229737,229737,229737 V,Vendor,Wine Country Kitchens,511 Alexis Ct,Napa,CA,94558,DEBBIE@WINECOUNTRYKITCHENS.COM,7072529463,
229814,229814,229814VMI1,Vendor,KAHOOTZ,"772 AIRPORT BOULEVARD, SUITE 1",ANN ARBOR,MI,48108,DOUG@KAHOOTZTOYS.COM,7342229798,
233481,233481,233481VCA,Vendor,Full Circle/ SOMA WATER /Regal Logistics,2201 E. Cerritos Ave,Anaheim,CA,92806,ORDERS@FULLCIRCLEHOME.COM,2124320001,
233488,233488,233488VTX,Vendor,DISHAKA,13843 STAFFORD ROAD,STAFFORD,TX,77477,OPERATIONS@DISHAKA.COM,7139882900,
233546,233546,233546 V,Vendor,Kii Naturals,2299 Kenmore Avenue Bld 3--,Buffalo,NY,14207,JOHN@KIINATURALS.COM,9057388887,
245338,245338,245338VCA2,Vendor,GIMME HEALTH/SADDLE CREEK LOGISTICS,496 E WHITMORE AVE BLDG 4,MODESTO,CA,95358,ALICE@GIMMEHEALTH.COM,4154798272,
245445,245445,245445VWA,Vendor,NOW DESIGNS,18900 8TH AVE. S. #300,SEATAC,WA,98148,JESSICA@DANICAIMPORTS.COM,8662539001,
245583,245583,245583 V,Vendor,Otafuku Foods Inc,13117 Molette Street,Santa Fe Springs,CA,90670,ORDER@OTAFUKUFOODS.COM,5624044700,
245587,245587,245587VNY,Vendor,IBERIA FOODS,1900 LINDEN BOULEVARD,BROOKLYN,NY,11207,AMILLER@NSBOTTLE.COM,7186496500,
245612,245612,245612V,Vendor,W&P DESIGN FULFILLMENT,110 VISTA CENTRE DRIVE,FOREST,VA,24551,RYAN.KELLY@WANDPDESIGN.COM,4348061443,
245636,245636,245636VIL,Vendor,MODERN SPROUT,2023 WEST CARROLL AVENUE,CHICAGO,IL,60612,SARAH@MODSPROUT.COM,3129521570,
245920,245920,245920V,Vendor,KEBAPOLIS LLC DBA BRADY'S COLD BREW,819 GARRISON AVE,BRONX,NY,10474,DAVE@GRADYSCOLDBREW.COM,6179625052,
245948,245948,245948VIL,Vendor,PUKKA HERBS C/O DISTRIBUTION 2000,1165 WEST CROSSROAD PARKWAY,ROMEOVILLE,IL,60446,PUKKA@THEOPALGROUP.COM,4128549012,
245954,245954,245954 V,Vendor,"Mike's Hot Honey, INC",202 E. 7th St,Watsontown,PA,17777,ORDERS@MIKESHOTHONEY.COM,3474504722,
246617,246617,246617V,Vendor,ENGLISH TEA SHOP AT ARROW PAC,52 METRO WAY,SECAUCUS,NJ,7094,ANGELO@ETSTEAS.CO.UK,3316472780,
246795,246795,246795VMI,Vendor,"BOXED WATER IS BETTER, LLC",135 MANUFACTURER DR,HOLLAND,MI,49424,ORDERS@BOXEDWATERISBETTER.COM,6167101560,
246795,246795,246795VUT,Vendor,BOXED WATER IS BETTER,93 SOUTH 1800 WEST,LINDON,UT,84042,ORDERS@BOXEDWATERISBETTER.COM,6167101560,
246821,246821,246821VFL,Vendor,CONCHITA FOODS INC,"10051 N.W. 99TH AVE, SUITE 3",MEDLEY,FL,33178,SIXTO@CONCHITA-FOODS.COM,3058889703,
246821,246821,246821VNJ,Vendor,SPICE CHAIN,35 KIMBERLY ROAD,EAST BRUNSWICK,NJ,8816,SIXTO@CONCHITA-FOODS.COM,3058889703,
246869,246869,246869 VD,Vendor,Life Plus Style Gourmet,10 A executive ave.,Edison,NJ,8817,MARK@VIVOSPECIALTY.COM,5168233001,
246869,246869,246869VWI,Vendor,LIFE PLUS STYLE C/O TROYSTAR FOOD PACKAGING,171 INDUSTRIAL DRIVE,BURLINGTON,WI,53105,MARK@VIVOSPECIALTY.COM,5168233001,
246869,246869,246869V,Vendor,Life Plus Style Gourmet/ Ziggy Snack Foods,200 Clifton Blvd Sutie 1,Clifton,NJ,7011,MARK@VIVOSPECIALTY.COM,5168233001,
246869,246869,246869 V,Vendor,Life Plus Style Gourmet,218 Midlwe Park Dr,Syracuse,NY,13206,MARK@VIVOSPECIALTY.COM,5168233001,
247328,247328,247328 Suffolk,Vendor,Acesur North America,1010 Obici Industrial Blvd,Sufolk,VA,23434,APORRETTI@AOL.COM,9149250450,
247328,247328,247328VCA1,Vendor,ACESUR NORTH AMERICA/ KLEIN WAREHOUSE,1515 SOUTH FRESNO AVE,STOCKTON,CA,95206,APORRETTI@AOL.COM,9149250450,
247328,247328,247328 V,Vendor,Acesur North America / RPM Warehouse,201 Dexter Street West Suite A,Chesapeake,VA,23324,APORRETTI@AOL.COM,9149250450,
247329,247329,247329VOR,Vendor,DOWN TO EARTH DISTRIBUTORS,3030 JUDKINS ROAD,EUGENE,OR,97403,THEIST@DOWNTOEARTHDISTRIBUTORS.COM,5414855932,
247398,247398,247398VNJ,Vendor,PREMIER FOODS AT EAST COAST WAREHOUSE,1140 POLARIS STREET,ELIZABETH,NJ,7201,MAXINE.CAMPBELL@OPTIMUM-BUYING.COM,4478273112,
247588,247588,247588VBUFFALONY,Vendor,HEART INDUSTRIES/ NEXGISTICS,425 CAYUGA RD,BUFFALFO,NY,14225,ARINFO@HEARTINDUSTRIES.CA,9054756055,
247725,247725,247725 V,Vendor,Juratoys US Corp,350 Wiconisco Street,Millersburg,PA,17061,CUSTOMERCARE@JURATOYSUS.COM,7344549552,
247799,247799,247799V,Vendor,SPICE CHAIN,7C TERMNAL WAY,AVENEL,NJ,7001,CUSTOMERSERVICE@SPICECHAIN.COM,7325181100,
247907,247907,247907VOR,Vendor,UNITED STATES BAKERY,1388 NORTHEAST HIGHWAY 99 WEST,MCMINNVILLE,OR,97128,BRENDA.SPEARMAN@USBAKERY.COM,5037315671,
247977,247977,247977V,Vendor,THE PURPLE COW AT TOTAL BIZ FULFILLMENT,ONE CORPORATE DRIVE,GRANTVILLE,MD,21536,RAN@THE-PURPLE-COW.COM,8555892818,
248025,248025,248025VWI,Vendor,PLAYMONSTER,2700 SOUTH BARTELLS DRIVE,BELOIT,WI,53511,RYAN.STAPLEFORD@PLAYMONSTER.COM,6083626896,
248149,248149,248149TX1,Vendor,"CANDY PEOPLE, LLC/SHIPPERS WAREHOUSE",1005 W WINTERGREEN ROAD,HUTCHINS,TX,75141,ORDERUSA@CANDYPEOPLE.COM,9724224737,
248221,248221,248221VCA2,Vendor,Fringe studio/ Punch Studio,6029 W Slauson Ave,Culver City,CA,90230,KIMBERLYF@PUNCHSTUDIO.COM,3103909900,
248319,248319,248319VM,Vendor,ORIGINAL NEW YORK SELTZER,7301 TELEGRAPH RD UNIT A,MONTEBELLO,CA,90640,ORDERS@NEWYORKSELTZER.COM,3235000757,
248320,248320,248320V,Vendor,LEKUE USA,802 CENTERPOINT BLVD,NEW CASTLE,DE,19720,GCRESHINE@LEKUEUSA.COM,3023264805,
248681,248681,248681VIN,Vendor,UNEMPLOYED PHILOSOPHERS GUILD C/O ENTERMARKET,"6402 CORPORATE DRIVE, SUITE 101",INDIANAPOLIS,IN,46278,JENNIFER@UPGUILD.COM,7182439492,
248702,248702,248702VCA2,Vendor,A-SHA FOODS USA CO INC,"905 WESTMINSTER AVE , UNIT J",ALHAMBRA,CA,91803,INFO@ASHADRYNOODLE.COM,5628882742,
248971,248971,248971V,Vendor,SUPER IMPULSE AT TOTAL BIZ FULFILLMENT,120 RESOURCE AVE,MTN LAKE PARK,MD,21550,VINCE@TOYOLOGY.COM,2678780466,
249020,249020,249020VTN,Vendor,PADDYWAX,421 MCNALLY DRIVE,NASHVILLE,TN,37211,TONI.TRUETT@PADDYWAX.COM,6156307100,
249360,249360,249360VCT,Vendor,DeliciouSnacks/Zesty Z at D&M Packing,197 Huntingdon Ave,Waterbury,CT,6708,SALES@ZESTYZ.COM,7185171039,
249456,249456,249456 VC,Vendor,"Voyage-Marhce, INC",1000 Port Carteret Drive,Carteret,NJ,7008,ERODRIGUEZ@VOYAGE-MARCHE.COM,3053610871,
249456,249456,249456VNJ2,Vendor,VOYAGE-MARCHE/ PSS,1105 CRANBURY SOUTH RIVER RD.,SOUTH BRUNSWICK,NJ,8831,ERODRIGUEZ@VOYAGE-MARCHE.COM,3053610871,
249456,249456,249456 VB,Vendor,"Voyage-Marche, INC",14 Empire Boulevard,Moonachie,NJ,7074,ERODRIGUEZ@VOYAGE-MARCHE.COM,3053610871,
249481,249481,249481VOH,Vendor,LILLIE'S Q SAUCES AND RUBS C/O MIKESELLS,1610 STANLEY AVENUE,DAYTON,OH,45404,BGOLINVAUX@LILLIESQ.COM,7735311510,
249481,249481,249481VMO,Vendor,LILLIE'S Q C/O ARCOBASSO FOODS,251 AXMINSTER DRIVE,FENTON,MO,63026,BGOLINVAUX@LILLIESQ.COM,7735311510,
249847,249847,249847VOR,Vendor,S-L SNACKS NATIONAL,1610 14TH STREET SOUTHEAST,SALEM,OR,97302,BRANDON_BELL@CAMPBELLS.COM,7045578528,
249847,249847,249847VWI,Vendor,S-L SNACKS NATIONAL,3190 KETTLE WAY,BELOIT,WI,53511,BRANDON_BELL@CAMPBELLS.COM,7045578528,
250144,250144,250144VNV,Vendor,LEAPFROG BRANDS C/O NEVADA DISTRIBUTION SERVICES,"625 WALTHAM WAY, SUITE 104",SPARKS,NV,89434,OPERATIONS@LEAPFROGBRANDS.COM,7733830208,
250361,250361,250361 V,Vendor,Banzai La dba Banzai living inc.,2615 Pacific Park Drive,Whittier,CA,90601,SUNNYONG@BANZAILIVING.COM,3235836020,
250693,250693,250693VCA3,Vendor,STOREBOUND/MOTIVATIONAL,16133 FERN AVE,CHINO,CA,91708,RACHEL@STOREBOUND.COM,6464594300,
250736,250736,250736VTN,Vendor,MSM INDUSTRIES,802 SWAN DRIVE,SMYRNA,TN,37167,CPWM@MSMIND.COM,6153554355,
250751,250751,250751 V,Vendor,Cavallini Papers & CO,401 Forbes Blvd,South San Francisco,CA,94080,SKOBAN@CAVALLINI.COM,6506164500,
250751,250751,250751 VB,Vendor,Snapdragon Foods / Sierra Pacific Warehouse,4200 Finch Rd.,Modesto,CA,95357,SKOBAN@CAVALLINI.COM,6506164500,
250905,250905,250905 V,Vendor,Juniper Ridge,2500 Kirkham Street,Oakland,CA,94607,BOUTIQUESALES@JUNIPERRIDGE.COM,5105217204,
250959,250959,250959V,Vendor,CALIFORNIA CREATIONS,15135 WOODLAWN AVENUE,TUSTIN,CA,92780,RUDY@CACREATIONS.NET,7142591900,
250990,250990,250990 VB,Vendor,Casa Agromonte USA inc,1005 West Midlesex Ave suite 200 receiving door 25,Port Reading,NJ,7064,E.ZUKOWSKI@REDOAK-MGMT.COM,2014401234,
250990,250990,250990 V,Vendor,Casa Agromonte USA inc.,499 Commerce Drive,Burlington,NJ,8016,E.ZUKOWSKI@REDOAK-MGMT.COM,2014401234,
251095,251095,251095VMO2,Vendor,CHOCOLATE CHOCOLATE CHOCOLATE COMPANY,5130 NORTHRUP AVENUE,SAINT LOUIS,MO,63110,CABEL@CHOCOLATECHOCOLATE.COM,3143383501,
251135,251135,251135 V,Vendor,W&P Design Fulfillment Center,"110 Vista Centre Drive, STE 7",Forest,VA,24551,RYAN.KELLY@WANDPDESIGN.COM,6177630272,
255818,255818,255818VKY,Vendor,THE LEGACY COMPANIES VINTURI,149 CLEVELAND DRIVE,PARIS,KY,40361,wbrouting@thelegacycompanies.com,302-300-5474,JOSH RHODY
255990,255990,255990VCA,Vendor,THUMBS UP UK LIMITED/AN DERINGER,19520 S. WILMINGTON AVENE,RANCHO DOMINGUEZ,CA,90220,ANNA@THUMBSUPUK.COM,4420883988,
255990,255990,255990V,Vendor,Thumbs Up UK Limited/AN Deringer,790 Aero Driver Suite 200,CHEEKTOWAGA,NY,14225,ANNA@THUMBSUPUK.COM,4420883988,
256064,256064,256064VUT,Vendor,INTERMOUNTAIN SPECIALTY FOOD GROUP,265 WEST PLYMOUTH AVENUE,SALT LAKE CITY,UT,84115,SALES@INTERMOUNTAINFOOD.COM,8019779077,
256124,256124,256124VCA3,Vendor,WINE HOOLIGANS / ALEXANDER VALLEY CELLARS,1010 SHILOH ROAD,WINDSOR,CA,95492,ORDERS@AWDIRECTUSA.COM,7072002895,
256185,256185,256185 V,Vendor,"East West Import Export, INC",2410 E. 38th Street,Vernon,CA,90058,INFO_EASTWEST@YAHOO.COM,3232671802,
256228,256228,256228 V,Vendor,"Provence Beauty, LLC",17021 Kingsview Ave,Carson,CA,90746,JEREMY@PROVENCEBEAUTY.COM,6464944171,
256283,256283,256283VPA,Vendor,SUNNY DELL FOODS,355 REEDVILLE ROAD,OXFORD,PA,19363,BONNIE@SUNNYDELL.COM,6109325164,
256284,256284,256284 V,Vendor,Casablanca Market,"8430 Central Avenue, Suite 3A",Newark,CA,94560,KATIA@CASABLANCAMARKET.COM,6509643000,
256349,256349,256349 V,Vendor,Rupert Gibbon & Spider Inc,1147 Healdsburg Ave,Healdsburg,CA,95448,SERVICE@JACQUARDPRODUCTS.COM,7074339577,
256389,256389,256389V,Vendor,U.S. Games System INC,179 Ludlow Street,Stamford,CT,6902,BOBBIE@USGAMESINC.COM,2033538400,
256435,256435,256435VTX,Vendor,BOBINO C/O THE WAREHOUSE USA,2704 HANDLEY EDERVILLE ROAD,FORT WORTH,TX,76118,WHOLESALE@MYBOBINO.COM,6846847575,
256438,256438,256438VIN,Vendor,VIRAL BRANDS DBA MUSTARD C/O ENTER MARKET,"6402 CORPORATE DRIVE, SUITE 101",INDIANAPOLIS,IN,46278,REUBEN@JUSTMUSTARD.COM,4420881090,
256452,256452,256452VCA,Vendor,THE OLIVE PACKING CO/NETWORK LOGISTICS,1195 W VICTORIA STREET,COMPTON,CA,90220,OFFICE@OLIVEPACKINGCOMPANY.COM,4092933257,
256452,256452,256452VTX,Vendor,THE OLIVE PACKING COMPANY,1500 SABINE AVENUE,PORT ARTHUR,TX,77642,OFFICE@OLIVEPACKINGCOMPANY.COM,4092933257,
256453,256453,256453VWI,Vendor,WORKMAN PUBLISHING C/O LSC COMMUNICATIONS,N9234 LAKE PARK ROAD,APPLETON,WI,54915,TIM.GOLDEN@SOURCEBOOKS.COM,6309613900,
256490,256490,256490VNY,Vendor,NASSAU CANDY/AMUSEMINTS,520 W. JOHN ST,HICKSVILLE,NY,11801,TIM.HAAS@AMUSEMINTS.COM,3032926364,
256547,256547,256547VMO2,Vendor,PILOT KNOB COMFORTS C/O PCS GOURMET FOODS,11721 NORTHLINE INDUSTRIAL DRIVE,MARYLAND HEIGHTS,MO,63043,EMMARKET@VERIZON.NET,3093683544,
256548,256548,256548VNJ2,Vendor,NULOOM,286 PROSPECT PLAINS DR,CRANBURY,NJ,8512,MONICA@NULOOM.COM,7183602286,
256607,256607,256607VM,Vendor,RED MILL FARMS,590 ROCKY GLEN ROAD,MOOSIC,PA,18507,MARK@VIVOSPECIALTY.COM,5704572400,
256621,256621,256621V,Vendor,MILKBOY SWISS CHOCOLATES/ACCEM WAREHOUSE,63 NEW HOOK ROAD,BAYONNE,NJ,7002,ORDERS@MILKBOY.COM,7182215540,
256623,256623,256623VCA3,Vendor,COPPER COW COPPER/PRIORITY PAK,"13040 SAN FERNANDO RD, SUITE B",SYLMAR,CA,90723,LOGISTICS@COPPERCOWCOFFEE.COM,9148865924,
256623,256623,256623VCA,Vendor,Copper Cow Coffee/SOS Co Packing Solutions,16386 Downey Ave,Paramount,CA,90723,LOGISTICS@COPPERCOWCOFFEE.COM,9148865924,
256623,256623,256623VCA2,Vendor,COPPER COW COFFEE/ AMS,28624 WITHERSPOON PARKWAY,VALENCIA,CA,91355,LOGISTICS@COPPERCOWCOFFEE.COM,9148865924,
256730,256730,256730V,Vendor,COOKIES UNITED,141 FREEMAN AVE,ISLIP,NY,11751,JVOIGT@COOKIESUNITED.COM,6315814000,
256730,256730,256730 V,Vendor,Cookies United,5005 Veterans Hwy,Holbrook,NY,11741,JVOIGT@COOKIESUNITED.COM,6315814000,
256837,256837,256837VCA,Vendor,BLUE ORANGE GAMES/DENMAY INC,1937 DAVIS STREET SUITE C,SAN LEANDRO,CA,94577,MARTINM@BLUEORANGEGAMES.COM,4152520372,
256842,256842,256842VCA,Vendor,MAKE IT REAL/SELDAT CHINO,8601 MERRILL AVE,CHINO,CA,91710,IWOLMAN@MAKEITREALPLAY.COM,4109958685,
256884,256884,256884V,Vendor,BISCOTTI BROTHERS BAKERY,5142 STATE ROUTE 30,GREENSBURG,PA,15601,BARB@BISCOTTIBROTHERS.COM,7817106861,
257049,257049,257049VNJ2,Vendor,THE WCN GROUP/ GALAXY GLOBAL Fulfillment LLC,53 GREEN POND RD SUITE E,ROCKAWAY,NJ,7866,CHERI@KANDAENTERPRISES.COM,5107484248,
257076,257076,257076VNE,Vendor,MINDWARE,11112 I STREET,OMAHA,NE,68137,JZIGNEGO@MWWHOLESALE.BIZ,8002969485,
257299,257299,257299VOR,Vendor,THE REAL COMPANY C/O RELAY RESOURCES,5312 NORTHEAST 148TH AVENUE,PORTLAND,OR,97230,FINANCE@THEREAL.CO,3474338945,
257299,257299,257299VKY,Vendor,THE REAL COMPANY C/O BOSS LOGISTICS,6022 SHEPHERDSVILLE RD,LOUISVILLE,KY,40228,FINANCE@THEREAL.CO,3474338945,
257365,257365,257365VOH2,Vendor,SPECTRUM DIVERSIFIED DESIGNS,9300 DUTTON DRIVE,TWINSBURG,OH,44087,SALES@SPECTRUMDIVERSIFIED.COM,3304221840,
257419,257419,257419 V,Vendor,Kohana Coffee LLLC,514 W Ohio Ave,Richmond,CA,94804,ORDERS@KOHANACOFFEE.COM,4253679493,
257669,257669,257669V,Vendor,WORLD OF COFFEE,328 ESSEX STREET,STIRLING,NJ,7980,OFFICE@WORLDOFCOFFEEINC.COM,9086471218,
257713,257713,257713 V,Vendor,Gift Basket Supply,249 W. Victoria St.,Gardena,CA,90248,RORY@GIFTBASKETSUPPLIES.COM,3105627924,
257885,257885,257885 V,Vendor,"Fasttrak Foods, LLC",45585 Commerce St,Indio,CA,92201,CUSTOMERSERVICE@FASTTRAKFOODS.COM,7603422200,
257897,257897,257897VNJ,Vendor,COSMOPOLITAN FOOD GROUP C/O GLOBAL TRANSPORT LOGISTICS,276 OLD NEW BRUNSWICK ROAD,PISCATAWAY,NJ,8854,OFFICE@CFGOIL.COM,9089981818,
258097,258097,258097VMS,Vendor,RUDOLPH FOODS,131 SKATING RINK ROAD,PRENTISS,MS,39474,GREYES@RUDOLPHFOODS.COM,4196483611,
258097,258097,258097VCA,Vendor,RUDOLPH FOODS COMPANY,950 WEST 4TH STREET,BEAUMONT,CA,92223,GREYES@RUDOLPHFOODS.COM,4196483611,
258170,258170,258170VOR,Vendor,PURE STEEPS BEVERAGE C/O BRIDGEPORT DISTRIBUTION,"16520 SOUTHWWEST 72ND, BUILDING 7",PORTLAND,OR,97224,ORDERS@PURESTEEPS.COM,9712566191,
258280,258280,258280 V,Vendor,H2ROSE/ CLASSIC SLIPCOVERS,4300 District Blvd,Vernon,CA,90058,KATE@ILLULIANGROUP.COM,3236538500,
258301,258301,258301 V,Vendor,Talking Tables,615 Route 303,Blauvelt,NY,10913,MCKENNA@TALKINGTABLES.COM,8889825546,
258479,258479,258479V,Vendor,NATURAL LIFE COLLECTIONS,7780 WESTSIDE INDUSTRIAL DR UNIT 2,JACKSONVILLE,FL,32219,LVANE@NATURALLIFE.COM,8008843856,
258818,258818,258818VKY,Vendor,THE LEGACY COMPANY,149 CLEVELAND DRIVE,PARIS,KY,40631,JEBERT@THELEGACYCOMPANIES.COM,2245132307,
258819,258819,258819 V,Vendor,The Decorated Cookie LLC,1215 State Fair Blvd,Syracuse,NY,13209,JESSICA@CORSOSCOOKIES.COM,8004657775,
258819,258819,258819 VB,Vendor,The Decorated Cookie Co,628 S. Main Street,North Syracuse,NY,13212,JESSICA@CORSOSCOOKIES.COM,8004657775,
258915,258915,258915V,Vendor,SUCK UK/TOTAL BIZ,120 RESOURCE AVE,MOUNTAIN LAKE PARK,MD,21550,CHLOE@SUCK.UK.COM,4420792300,
258972,258972,258972VTX,Vendor,PUREWINE C/O QUALITY PACKAGING,"1400 NORTH HIGHWAY 360, SUITE 100, DOCKS 10-13",GRAND PRAIRIE,TX,75050,ORDERS@DRINKPUREWINE.COM,8179335151,
259018,259018,259018VGA,Vendor,BACON'S HEIR,3120 SOUTH MARTIN STREET,EAST POINT,GA,30344,INFO@BACONSHEIR.COM,3343542916,
259094,259094,259094VTX,Vendor,NUOP DESIGN C/O WOODS DISTRIBUTION,721 111 STREET,ARLINGTON,TX,76011,NUOPDESIGN@GMAIL.COM,2128428201,
259111,259111,259111VWI,Vendor,GARTNER STUDIOS,486 BAER DRIVE,HUDSON,WI,54016,GHAGEN@GARTNERSTUDIOS.COM,6512754621,
259207,259207,259207VCA,Vendor,JANDY BRANDS,"2539 WEST 237TH STREET, SUITE C",TORRANCE,CA,90505,JOSEPH@KOCOSTARUSA.COM,3105340300,
259308,259308,259308VCA,Vendor,FOGLIANI FOODS,3507 WESTWIND BLVD,SANTA ROSA,CA,95403,KRISTINA@FOGLIANIFOODS.COM,8588695151,
259323,259323,259323VOH,Vendor,PANACEA PRODUCTS,2711 INTERNATIONAL STREET,COLUMBUS,OH,43228,MARYJO.SMITH@PANACEAPRODUCTS.COM,6148507000,
259323,259323,259323VCA,Vendor,Panacea Products,"285 Rood Rd, Suite 108",Calexico,CA,92231,MARYJO.SMITH@PANACEAPRODUCTS.COM,6148507000,
259488,259488,259488VWA,Vendor,ACCOUTREMENTS C/O ARCHIE MCPHEE WHOLESALE,10915 47TH AVENUE WEST,MUKILTEO,WA,98275,JERILYN@ACCOUTREMENTS.COM,4253493838,
259557,259557,259557VCA2,Vendor,SNAPDRAGON FOODS/ SIERRA PACIFIC WAREHOUSE GROUP,770 GARNER RD,MODESTO,CA,95357,ORDER@SNAPDRAGONFOOD.COM,5104302800,
259643,259643,259643VCA,Vendor,Sonoma Creamery LLC,21750 8th St Suite 1,Sonoma,CA,95476,A_SHAH@HORIZONSALESCORP.COM,7079961000,
259671,259671,259671VNJ1,Vendor,THE MANISCHEWITZ COPANY/350 LOGISTICS,350 CLARK DRIVE,MT.OLIVE,NJ,7828,AMY.NORTON@SEASONPRODUCTS.COM,9736819000,
259729,259729,259729VTX,Vendor,LOLOI RUGS,"4550 SPRING VALLEY ROAD, SUITE 200",DALLAS,TX,75244,AJACQUES@LOLOIRUGS.COM,9725806565,
259785,259785,259785VCA2,Vendor,GENMERT/THE COMPLETE LOGISTICS COMPANY,1670 S ETIWANDA AVE,ONTARIO,CA,91761,CRISTIAN.CHINCHILLA@GENMERT.COM,9099310541,
259813,259813,259813VCA,Vendor,BASIC FUN/FARO SERVICES,11555 ARROW RTE,RANCHO CUCAMONGA,CA,91730,CINDY.JAFFY@BASICFUN.COM,5619978901,
259814,259814,259814 V,Vendor,"Lap USA, INC",736 E. 29th st,LOS ANGELES,CA,90011,PAUL@F4MBRANDS.COM,3232339005,
259832,259832,259832 V,Vendor,Soma Water,2201 E. Cerritos Ave,Anaheim,CA,92806,ORDERS@FULLCIRCLEHOME.COM,2124320001,
259913,259913,259913VCA2,Vendor,TANGLE INC,310 LITTLEFIELD AVE,SOUTH SAN FRANCISO,CA,94080,BEVERLY@TANGLETOYS.COM,6506167900,
259925,259925,259925 V,Vendor,"Yaya Imports, INC",530 Boulder Ct. Suite 105,Pleasanton,CA,94566,WHOLESALE@YAYAIMPORTS.COM,9252499292,
259968,259968,259968 V,Vendor,Professor Puzzle,120 Resource Avenue,Mtn Lake Park,MD,21550,ANDREW.WADE@PROFESSORPUZZLE.COM,8882119207,
260074,260074,260074VCA4,Vendor,DALENO/ IMAX CORPORATION,1801 S. CARLOS AVENUE,ONTARIO,CA,91761,MARTY@DALENOART.COM,3106574201,
260074,260074,260074 VB,Vendor,Daleno Inc/ Santa Fe Finishing,2798 Sears Street,Vernon,CA,90058,MARTY@DALENOART.COM,3106574201,
260074,260074,260074VCA3,Vendor,DALENO INC/SANTA FE FINISHING,6015 BANDINI BVD,COMMERCE,CA,90040,MARTY@DALENOART.COM,3106574201,
260074,260074,260074VCA2,Vendor,DALENO INC/  SANTA FE FINISHING,6152 S. BOYLE AVENUE,VERNON,CA,90058,MARTY@DALENOART.COM,3106574201,
260103,260103,260103VKY,Vendor,ABOUT FACE DESIGNS,200 S. 31st STREET,PADUCHAH,KY,42001,SULRICH@AFDGIFTS.COM,8479149040,
260159,260159,260159VPA2,Vendor,DL DISTRIBUTION,735 EAGLE BLVD,WARMINSTER,PA,18974,ORDERS@SOFTLICORICE.COM,2156721301,
260188,260188,260188 V,Vendor,Haram-Christensen Corp.,125 Asia Place,Carlstadt,NJ,7072,SALES@HARAMCHRIS.COM,2015078544,
260303,260303,260303VIL,Vendor,MARKETPLACE BRANDS,101 MARK STREET,WOOD DALE,IL,60191,HPYZIKIEWICZ@MARKETPLACEBRANDS.COM,8472583558,
260424,260424,260424VOH,Vendor,THESE ARE THINGS,1476 DELASHMUT AVENUE,COLUMBUS,OH,43212,WHOLESALE@THESEARETHINGS.COM,8449844647,
260452,260452,260452 V,Vendor,Monogram International Inc,21005 Commerce Point Dr,Walnut,CA,91789,MNORMANN@MONOGRAMDIRECT.COM,9097188388,
260455,260455,260455VTX,Vendor,MELINDA'S FOODS,1740 HURD DRIVE,IRVING,TX,75038,AMY@MELINDAS.COM,2143519060,
260594,260594,260594VIL,Vendor,NANDOS PERI-PERI C/O DISTRIBUTION 2000,1165 WEST CROSSROAD PARKWAY,ROMEOVILLE,IL,60446,US-RETAIL.ORDERS@NANDOSPERIPERI.COM,4128549012,
260595,260595,260595VCA,Vendor,NAPLES DRIZZLE/ CIBARIA INTERNATIONAL,705 COLUMBIA AVENUE,RIVERSIDE,CA,92507,DAVEY@NAPLESDRIZZLE.COM,9493403787,
260691,260691,260691VCA,Vendor,The Cookware Company / Saddle Creek,496 E. Whitmore Ave BLDG # 4,Modesto,CA,95358,ROBERT.NIKIC@COOKWARE-CO.COM,9143726086,
260691,260691,260691VOR,Vendor,GRAND & BENEDICTS,9304 SOUTHEAST MAIN STREET,MILWAUKIE,OR,97222,ROBERT.NIKIC@COOKWARE-CO.COM,9143726086,
260705,260705,260705VIL,Vendor,BOSS PET,1501 BURLINGTON AVENUE,KEWANEE,IL,61443,JWORKINGER@BOSSPET.COM,2163320832,
260751,260751,260751VNJ,Vendor,FEVERTREE USA INC,200 LIBERTY WAY,CRANBURY,NJ,8512,USAORDERS@FEVER-TREE.COM,3477355437,
260751,260751,260751VCA2,Vendor,FEVERTREE USA INC/MATSON,9401 SAN LEANDRO STREET,OAKLAND,CA,94603,USAORDERS@FEVER-TREE.COM,3477355437,
260755,260755,260755 V,Vendor,"ATA-BOY, INC",97 S. Union Ave.,Lansdowne,PA,19050,APEREZ@ATA-BOY.COM,3236440117,
260885,260885,260885VIL,Vendor,DI MARTINO,1101 TAYLOR ROAD,ROMEOVILLE,IL,60446,F.LUGLI@GRANDIPASTAI.IT,0,
260885,260885,260885 VB,Vendor,Di Martino,19 Gardner Road #F,Fairfield,NJ,7004,F.LUGLI@GRANDIPASTAI.IT,0,
260899,260899,260899VWA,Vendor,SEABEAR,605 30TH STREET,ANACORTES,WA,98221,JAIMER@SEABEAR.COM,8004540023,
260901,260901,260901VNJ,Vendor,JAILBREAK INC TOYS/AMWARE LOGISTICS,1240 SOUTH RIVER ROAD,CRANBURY,NJ,8512,WHOLESALE@FCTRY.COM,7183047643,
260951,260951,260951 V,Vendor,Kyocera,49070 Milmont Dr,Freemont,CA,94538,DEBRATRAVERSGRP@AOL.COM,8005370294,
261096,261096,261096VWI,Vendor,EPICUREAN CUTTING SURFACES,257B MAIN STREET,SUPERIOR,WI,54880,TOM@EPICUREANUSA.COM,2183368542,
261244,261244,261244VIL,Vendor,LEARNING RESOURCES,380 NORTH FAIRWAY DRIVE,VERNON HILLS,IL,60061,SALESSUPPORT@LEARNINGRESOURCES.COM,8002223909,
261292,261292,261292VCA,Vendor,FUN ZONE INC/MINIMUS,2610 CONEJO SPECTRUM,NEWBURYPARK,CA,91320,TPADILLA@FUNZONEINC.COM,3104749100,
261358,261358,261358 V,Vendor,Leoben Company,15661 Producer Company,Huntington Beach,CA,92649,ACCOUNTING@LEOBENCO.COM,9512849653,
261842,261842,261842VOR,Vendor,FISH & PEOPLE C/O SNOTEMP ALBANY,3815 MARION STREET SOUTHEAST,ALBANY,OR,97322,CUSTOMERSERVICE@FISHPEOPLESEAFOOD.COM,5033422424,
261845,261845,261845VKS,Vendor,SPICIN FOODS DBA ORIGINAL JUAN SPECIALTY FOODS,111 SOUTHWEST BOULEVARD,KANSAS CITY,KS,66103,KLEL5538@ONEBOX.COM,9134325228,
261909,261909,261909VUT,Vendor,KARA CHOCOLATES,418 SOUTH 3125 WEST,OREM,UT,84058,INFO@KARACHOCOLATES.COM,8012249500,
261944,261944,261944VCA2,Vendor,DESIGN CLIQUE  INC/ BTX GLOBAL,1560 W 190TH ST,TORRANCE,CA,90501,PAM@THEDCLIQUE.COM,7209799794,
261944,261944,261944 V,Vendor,Design Clique Inc/ BTX Global,20435 S. Western Ave,Torrance,CA,90501,PAM@THEDCLIQUE.COM,7209799794,
261986,261986,261986VCA,Vendor,ECCOLO/DEFILI SOLUTIONS,2366 E PACIFICA PL,RANCHO DOMINGUEZ,CA,90001,PATRICIA@ECCOLOLTD.COM,7328900983,
261986,261986,261986 V,Vendor,Eccolo Tld,257 Essex Street,Harrison,NJ,7029,PATRICIA@ECCOLOLTD.COM,7328900983,
262016,262016,262016 VD,Vendor,"JWM Sales, Inc dba Discover with Dr. Cool",13300 Carmenita Road,Santa Fe Springs,CA,90670,SALES@COREHOME.COM,6468456000,
262021,262021,262021,Vendor,California Artesian LLC,42180 Nyack Rd,Emigrant Gap,CA,95715,SIMONA@TAHOEBEVCO.COM,4152799339,
262021,262021,262021VCA2,Vendor,CALIFORNIA ARTESIAN/DENMAN OF CALIFORNIA,8250 INDUSTRIAL AVENUE,ROSEVILLE,CA,95678,SIMONA@TAHOEBEVCO.COM,4152799339,
262051,262051,262051 V,Vendor,Natures Wild Organic INC,287 Miller Street,Newark,NJ,7114,DIANA@OLIVOSUSA.COM,9493255090,
262065,262065,262065VCA,Vendor,Shaka Beverages/Stapleton Spence,100 Kentucky Street,Gridley,CA,95948,HARRISON@SHAKATEA.COM,8085180921,
262065,262065,262065VCA2,Vendor,SHAKA BEVERAGES/BRAND WAREHOUSE,830 NATIONAL DRIVE,SACRAMENTO,CA,95834,HARRISON@SHAKATEA.COM,8085180921,
262176,262176,262176VRI,Vendor,BELGRAVIA IMPORTS/TECH 4 BUILDING SUITE 102A,88 SILVA LANE,MIDDLETOWN,RI,2842,BELGRAVIAORDERS@BELGRAVIAIMPORTS.COM,4016833323,
262205,262205,262205VTX,Vendor,ASPIRE FOOD GROUP C/O PACK N FRESH,"1330 POST & PADDOCK, SUITE 500",GRAND PRAIRIE,TX,75050,ORDERS@ASPIREFG.COM,5122651629,
262205,262205,262205VIL,Vendor,ASPIRE FOOD GROUP C/O WSI,21800 SOUTH CICERO STREET,MATTESON,IL,60443,ORDERS@ASPIREFG.COM,5122651629,
262205,262205,262205VNY,Vendor,ASPIRE FOOD GROUP/RAKUTEN,250 HOMER ST,OLEAN,NY,14760,ORDERS@ASPIREFG.COM,5122651629,
262207,262207,262207VCA,Vendor,STASHER INC/ NORTH BAY DISTRIBUTION,2029 E MONTE VISTA AVE,VACAVILLE,CA,95688,JOE.RYAN@STASHERBAG.COM,4155312100,
262423,262423,262423VNM,Vendor,NEW MEXICO PINON COFFEE C/O STATEWIDE PRODUCTS,"2420 COMANCHE ROAD NORTHEAST, SUITE D-2",ALBUQUERQUE,NM,87107,DEBI@SWPNM.COM,5058884646,
262476,262476,262476 V,Vendor,The Creme Shop,819 Gladys Ave,Los Angeles,CA,90021,MEETME@THECREMESHOP.COM,2136880066,
262579,262579,262579VMI,Vendor,BOSCO AND ROXY'S C/O FEDEX TRADE NETWORKS,151 GAFFIELD DRIVE,KIMBALL,MI,48074,SARAH@BOSCOANDROXYS.COM,8882471245,
262589,262589,262589 VB,Vendor,Waterloo Sparkling Water,103 Commerce Dr.,Aston,PA,19014,ORDERS@DRINKWATERLOO.COM,5129108990,
262589,262589,262589VPA,Vendor,WATERLOO SPARKING WATER/REFRESO-CONCORDVILLE,20 ALDAN AVE,GLEN MILLS,PA,19342,ORDERS@DRINKWATERLOO.COM,5129108990,
262589,262589,262589VCA,Vendor,WATERLOO SPARKING WATER/  REFRESCO,631 S WATERMAN AVE,SAN BERNARDINO,CA,92408,ORDERS@DRINKWATERLOO.COM,5129108990,
262662,262662,262662VNJ,Vendor,FABBRI 1905/SAVINO DEL BENE,4 ENGELHARD AVE,AVENEL,NJ,7001,HADIZ.KATHERINE@FABBRI1905.COM,7187648311,
262690,262690,262690 V,Vendor,"Swoon Brands, LLC",26 Barnes Industrial Road N,Wallingford,CT,6492,ORDERS@TASTESWOON.COM,6179305948,
262691,262691,262691 VB,Vendor,Me and the Bees Lemonade,14190 N. Washington Hwy,Ashland,VA,23005,PO@MEANDTHEBEES.COM,5126892203,
262691,262691,262691 V,Vendor,Me and The Bees Lemonade,1500 Industrial,Marion,VA,24354,PO@MEANDTHEBEES.COM,5126892203,
262854,262854,262854 V,Vendor,Private Spring Water,1800 Pine Run Road,Laurel Run,PA,18706,DERRICK@PSWATERS.COM,4086811500,
262854,262854,262854VCA,Vendor,PRIVATE SPRING WATER/CBC,6453 BANDINI BLVD,COMMERCE,CA,90040,DERRICK@PSWATERS.COM,4086811500,
262891,262891,262891VCA,Vendor,YELLOW OWL WORKSHOP,1890 BRYANT STREET SUITE 102,SAN FRANCISCO,CA,94110,MARIA@YELLOWOWLWORKSHOP.COM,4152822025,
262941,262941,262941 V,Vendor,Pacific Pickle works Inc,718 Union Ave.,Santa Barbara,CA,93103,ADMIN@PACIFICPICKLEWORKS.COM,8057651779,
262963,262963,262963 V,Vendor,SW Wine Distribution LLC,12781 Western Ave unit,Garden Grove,CA,92841,WGRAFF32@GMAIL.COM,7146588866,
263105,263105,263105VPA,Vendor,GO MAX GO FOODS/GARDNERS CANDIES,2600 ADAMS AVENUE,TYRONE,PA,16686,SCOTT@GOMAXGOFOODS.COM,9804741222,
263109,263109,263109VNV,Vendor,KNOCK KNOCK C/O LEGACY SCS,"5360 CAPITAL COURT, SUITE 103",RENO,NV,89502,KK1@WHOSTHERE.COM,3103964132,
263485,263485,263485VOR,Vendor,COSMOS CREATIONS,395 EAST 1ST AVENUE,JUNCTION CITY,OR,97448,SALES@COSMOSCREATIONS.COM,5419988883,
263610,263610,263610VCA,Vendor,Japan Crate/ Sungistix Warehouse,2616 Research Dr. Ste A,Corona,CA,92882,CAROLINE@JAPANCRATE.COM,4152257271,
263615,263615,263615 V,Vendor,Iscream,231 Croton Avenue,Corlandt Manor,NY,10567,ISCREAM@MINESPRESS.COM,9147881800,
263715,263715,263715VIL,Vendor,TRUONG ENTERPRISES,2300 SOUTH HALSTED STREET,CHICAGO,IL,60608,TLUU@TRUONGENT.COM,3122162300,
263762,263762,263762VCA,Vendor,REGRAINED WAREHOUSE,1308 NINTH STREET,BERKELEY,CA,94710,ORDER@REGRAINED.COM,8337347246,
263762,263762,263762VIL,Vendor,REGRAINED C/O ASSEMBLERS,8601 47TH STREET,MCCOOK,IL,60525,ORDER@REGRAINED.COM,8337347246,
263764,263764,263764VUT,Vendor,SARAYA DBA LAKANTO C/O ELITE OPS,"4000 EAST HIGHWAY 6, DOCKS 32-37",SPANISH FORK,UT,84660,SALES@LAKANTO.COM,8005137936,
263786,263786,263786VCA,Vendor,"Solely, Inc/ Allied Sales& Distribution Inc",2021 East 52nd Street,Vernon,CA,90058,ELOUIS@INSTANTIA.COM,8586994133,
263800,263800,263800VIL,Vendor,JiMMYBAR!,459 BUSSE ROAD,ELK GROVE VILLAGE,IL,60007,ORDERS@JIMMYBARS.COM,8886767971,
263867,263867,263867 V,Vendor,Progressive Furniture Inc.,2555 Penny Road,Claremont,NC,28610,PBRANTON@PROGRESSIVEFURNITURE.COM,8284592151,
263870,263870,263870 V,Vendor,Kill Sauce,2900 E. Blue Star St.,Anaheim,CA,92806,RYAN@KILLSAUCE.COM,8186340469,
263871,263871,263871 VB,Vendor,Ziba Foods,42 Mileed Way,Avenel,NJ,7001,LAUREL@ZIBAFOODS.COM,2039888720,
263916,263916,263916VUT,Vendor,WOMEN''S LEADERSHIP LIVE C/O JULIEANN CARAMELS,9493 SOUTH 560 WEST,SANDY,UT,84070,DAVID@WOMENSLEADERSHIPLIVE.COM,2032532502,
263933,263933,263933 V,Vendor,Koppers Chocolate LLC,125 Moen Street Door #3,Cranford,NJ,7016,DARREN@ACTIONSALESWEST.COM,8003250026,
263952,263952,263952VCA,Vendor,LENNTEK,1610 LOCKNESS PLACE,TORRANCE,CA,90501,ORDERS@SHOPSONIX.COM,3105342738,
263989,263989,263989 V,Vendor,Charles Chips,3535 Route 66 Suite 2A,Neptune,NJ,7753,ORDERS@CHARLESCHIPS.COM,7323597272,
264006,264006,264006 VN,Vendor,Intermarket  Gourmet LLC,25008 Viking street,Hayward,CA,94545,NANCY@FANCIFOODS.COM,6508730400,
264090,264090,264090VIL,Vendor,ORIGINS PALEO MEALS DBA MINUTE MIXOLOGY,325 4TH STREET,LIBERYVILLE,IL,60048,BJ@MINUTEMIXOLOGY.COM,3126722848,
264091,264091,264091 V,Vendor,Daron Worldwide Trading,24 Stewart Place Unit 4,Fairfield,NJ,7004,SALES@DARONWWT.COM,9738820035,
264102,264102,264102VTX,Vendor,FREDERICKSBURG FARMS C/O FREDERICKSBURG DISTRIBUTION,8318 RANCH ROAD 1376,FREDERICKSBURG,TX,78624,TINA.RENEE@FFARMS.COM,8309970960,
264248,264248,264248 V,Vendor,"Dreams USA, INC",100 Higginson Ave,Lincoln,RI,2865,DREAMSUSA@DREAMS6.COM,4013315729,
264325,264325,264325VTX,Vendor,BRAVADO SPICE,"7025 WEST TIDWELL ROAD, BUILDING H, SUITE 103",HOUSTON,TX,77092,RYAN@BRAVADOSPICE.COM,8325629262,
264327,264327,264327VWA,Vendor,RITROVO ITALIAN REGIONAL FOODS,4231 WEST MARGINAL WAY SOUTHWEST,SEATTLE,WA,98106,ORDERS@RITROVO.COM,2069851635,
264443,264443,264443VCA2,Vendor,SORRY ROBOTS,14751 FRANKLIN AVE UNIT,TUSTIN,CA,92780,SALES@GIR.CO,6469430485,
264443,264443,264443VCA,Vendor,SORRY ROBOTS,20918 BAKE PARKWAY SUITE 102,LAKE FOREST,CA,92630,SALES@GIR.CO,6469430485,
264462,264462,264462 V,Vendor,King Floyd's INC,320 West Main St.,Wakefield,VA,23888,BATTERTON@GMAIL.COM,4154757811,
264494,264494,264494VOR,Vendor,PETE'S GOURMET CONFECTIONS,3100 MERRIMAN ROAD,MEDFORD,OR,97501,PETE@PETESGOURMET.COM,5415001410,
264497,264497,264497VTX,Vendor,CAKE CRAFT FACTORY LLC,2001 PLATINUM STREET,GARLAND,TX,75042,ORDERS@CAKECRAFTUSA.COM,4697822500,
264501,264501,264501VCA,Vendor,GIRL OF ALL WORK,1649 18TH ST,SANTA MONICA,CA,90404,POSTMISTRESS@GIRLOFALLWORK.COM,4242317340,
264586,264586,264586 V,Vendor,Universal Specialty Foods,3655 NW 115th Ave,Doral,FL,33178,TORBEN@TRADEWORKSONLINE.COM,3235923077,
264587,264587,264587 V,Vendor,Mytagalongs,21 Lawrence Paquette Dr,Champlain,NY,12919,VICTORIA@MYTAGALONGS.COM,5147270290,
264588,264588,264588 V,Vendor,Bella Tunno LLC,1300 Altura Road,Fort Mill,SC,29708,CAMERON@BELLATUNNO.COM,8882908978,
264605,264605,264605VNJ,Vendor,HORIZON GROUP USA,257 PROSPECT PLAINS ROAD,CRANBURY,NJ,8512,TYLERH@DIVERSEMAIL.COM,9058101111,
264606,264606,264606VTX,Vendor,SPITFIRE GIRL,"12507 PAULS VALLEY ROAD, BUILDING 3A",AUSTIN,TX,78737,SALES@SPITFIREGIRL.COM,2138969282,
264616,264616,264616VIN,Vendor,OUTSET MEDIA C/O PACKAGE RIGHT,811 DEVELOPMENT DRIVE,TIPTON,IN,46072,DARCY@OUTSETMEDIA.COM,3608810448,
264622,264622,264622 V,Vendor,Sillycow Farms,293 Industrial park Road,Wells River,VT,5081,ORDERS@SILLYCOWFARMS.COM,8024292920,
264632,264632,264632 VB,Vendor,Amigo,One Corporate Drive,Grantsville,MD,21536,JEFF.PINSKER@AMIGO.GAMES,8449656446,
264649,264649,264649VCA,Vendor,MADESMART/DISTRIBUTION ALTERNATIVES,1979 W. RENAISSANCE PKWY,RIALTO,CA,92376,LAURA@MADESMART.COM,6516958550,
264651,264651,264651VCA,Vendor,BEEKMAN 1802 INC/LAB CLEAN INC,3627 BRIGGEMAN DRIVE,LOS ALAMITOS,CA,90720,TPORCHARD3@GMAIL.COM,7276881864,
264651,264651,264651VIL,Vendor,BEEKMAN 1802 C/O SCIENCE SOLUTIONS,5000 WEST ROOSEVELT ROAD,CHICAGO,IL,60644,TPORCHARD3@GMAIL.COM,7276881864,
264651,264651,264651 V,Vendor,Beekman 1802,8075 Beacon Lake Dr Suite 100,Orlando,FL,32809,TPORCHARD3@GMAIL.COM,7276881864,
264686,264686,264686VTX,Vendor,SEQUOIA SOUTHEAST C/O JANUARY LANE WAREHOUSE,2010 JANUARY LANE,GRAND PRAIRIE,TX,75050,R.HEIS@SIGHTLINERETAIL.COM,4796968882,
264692,264692,264692 V,Vendor,Runamok Maple,293 Fletcher Road,Fairfax,VT,5454,SALES@RUNAMOKMAPLE.COM,8028497943,
264722,264722,264722VGA,Vendor,IG DESIGN GROUP,265 INDUSTRIAL BOULEVARD,MIDWAY,GA,31320,ORDERS@ANKERPP.COM,3053978185,
264724,264724,264724 V,Vendor,Three Cheers for Girls,120 Resource Ave,Mt. Lake Park,MD,21550,BILLR@3C4G.COM,8456511556,
264725,264725,264725 V,Vendor,Stojo Products,11 Perina Blvd,Cherry Hill,NJ,8003,SALES@STOJO.CO,9175750094,
264743,264743,264743 V,Vendor,Toast Beverages LLC,175-177 S. Main Street,Plains,PA,18705,ORDERS@TOSTBEVERAGES.COM,8023451182,
264813,264813,264813VCA,Vendor,LIFE'S GRAPE,4087 N.HOWARD AVE,KERMAN,CA,93630,DEBBIE@LIFESGRAPE.COM,7754054105,
264891,264891,264891VFL,Vendor,GOODIE GIRL TRIBECA C/O TOUFAYAN BAKERY,2615 US HIGHWAY 92 EAST,PLANT CITY,FL,33566,LAUREN@GOODIEGIRL.COM,2019412000,
264896,264896,264896VCA,Vendor,CHUDABEEF JERKY CO/TRG FULFILMENT CENTER,360 W 132ND ST,LOS ANGELES,CA,90061,KEVIN@CHUDABEEF.COM,2672523569,
265024,265024,265024VCA,Vendor,LIVE LIFE/FLEXPORT,1420  N. McKinley Ave,LOS ANGELES,CA,90059,MICHAEL@LIVELIFEHOUSEWARES.COM,9293160388,
265047,265047,265047VCA,Vendor,COMPARTES CHOCOLATIER,516 N LA BREA AVE,LOS ANGELES,CA,90036,WHOLESALE@COMPARTES.COM,3108263380,
265098,265098,265098 V,Vendor,"PB Crave of NC, LLC",32126 General Thomas Hwy,Franklin,VA,23851,ORDERS@PBCRAVE.COM,2525853902,
265101,265101,265101VCA,Vendor,COWGIRL CATTLE& TRADING COMPANY/ DEL REY NUT CO,12926 S. BROADWAY,LOS ANGELES,CA,90061,INFO@COWGIRLCATTLE.COM,1800294518,
265101,265101,265101VMI,Vendor,THE CLASSIC JERKY COMPANY,21655 TROLLEY INDUSTRIAL DRIVE,TAYLOR,MI,48180,INFO@COWGIRLCATTLE.COM,1800294518,
265101,265101,265101VMN2,Vendor,COWGIRL CATTLE COMPANY C/O DOMBROVSKI MEATS,221 BROADWAY AVENUE,FOLEY,MN,56329,INFO@COWGIRLCATTLE.COM,1800294518,
265258,265258,265258VCA,Vendor,CB GOURMET FOODS/ANITA'S MFC,3392 N MIKE DALEY DR,SAN BERNARDINO,CA,92407,SUPPORT@CBGOURMET.COM,9494581886,
265272,265272,265272VCA,Vendor,POPSALOT GOURMET POPCORN,7723 SOMERSET BLVD,PARAMOUNT,CA,90723,NOAH@POPSALOT.COM,8557677040,
265331,265331,265331VCA,Vendor,TEA DROPS/RELIANCE PACK,13040 SAN FERNANDO ROAD UNIT B,SYLMAR,CA,91342,WHOLESALE@MYTEADROP.COM,8448323767,
265331,265331,265331 V,Vendor,Tea Drops,2918 Schoeneck Rd,Macungie,PA,18062,WHOLESALE@MYTEADROP.COM,8448323767,
265332,265332,265332 V,Vendor,Califia Farms LLC,4000 AM Drive,Quakertown West,PA,18951,ORDERS@CALIFIAFARMS.COM,8442374779,
265332,265332,265332VCA,Vendor,CALIFIA FARMS/US COLD STORAGE BAKERSFIELD,6501 DISTRICT BLVD,BAKERSFIELD,CA,93313,ORDERS@CALIFIAFARMS.COM,8442374779,
265345,265345,265345VCA,Vendor,ALPACKA GROUP,178 BARNARD AVE,SAN JOSE,CA,95125,MIKE@GOALPACKA.COM,4082052601,
265395,265395,265395VOH,Vendor,BUNKER HILL CHEESE,6005 COUNTY ROAD 77,MILLERSBURG,OH,44654,HFOUTS@BHCHEESE.COM,3308932131,
265457,265457,265457VMN,Vendor,HACHI LIMITED T/A LILYBEE WRAP C/O C.I.S,"22000 INDUSTRIAL BOULEVARD, SUITE 400",ROGERS,MN,55374,INFO@LILYBEEWRAP.COM,6422082543,
265479,265479,265479VOH,Vendor,THE SAUCY LADIES C/O MIKE-SELLS,1610 STANLEY AVENUE,DAYTON,OH,45404,DAN@SAUCYLADIESUSA.COM,6317716921,
265491,265491,265491 V,Vendor,MJC Confections / Hampton Popcorn,"999 S. Oyster Bay Road, Bldg 500",Bethpage,NY,11714,CUSTOMERSERVICE@HAMPTONPOPCORN.COM,5164395437,
265492,265492,265492VCA,Vendor,SODA STREAM/PORT LOGISTICS GROUP,19801 S SANTA FE AVE,RANCHO DOMINGUEZ,CA,90221,ORDERSUSA@SODASTREAM.COM,8567553400,
265492,265492,265492 V,Vendor,Soda Stream,485 St. Johns Church Road,Camp Hill,PA,17011,ORDERSUSA@SODASTREAM.COM,8567553400,
265493,265493,265493VCA,Vendor,FUN CLUB,2122 S MYRTLE AVE,MONROVIA,CA,91016,CAITLIN@SHOPFUNCLUB.COM,6264151086,
265515,265515,265515VWA,Vendor,BUNNIES BY THE BAY,3115 V PLACE,ANACORTES,WA,98221,ANDREW@BUNNIESBYTHEBAY.COM,3602938037,
265531,265531,265531VCA2,Vendor,TEA DROPS/ PHV,12701 VAN NUYS AVE WHSE N,PACOIMA,CA,91331,bobby@myteadrop.com,310-210-5997,BOBBY Z
265537,265537,265537VKY,Vendor,MORRIS KITCHEN C/O FLAVORCRAFT,2123 WATTERSON TRAIL,LOUISVILLE,KY,40299,KARI@MORRISKITCHEN.COM,8887776150,
265562,265562,265562VCA,Vendor,KEURIG DR.PEPPER,2009 FARALLON DRIVE,SAN LEANDRO,CA,94577,ORDERING@DPSQ.COM,8007877757,
265563,265563,265563 V,Vendor,Bobby Sue's Nuts LLC,750 Enterprise Drive,Kingson,NY,12401,ADAM@BOBBYSUESNUTS.COM,9144885066,
265578,265578,265578 V,Vendor,TorchBearer Sauces,1045 Columbus,Lemoyne,PA,17043,INFO@TORCHBEARERSAUCES.COM,7076973568,
265581,265581,265581VCA,Vendor,DOIY/ MENTOR MEDIA,3768 MILLIKEN AVE,EASTVALE,CA,91752,MARINADEVEGA@DOIYDESIGN.COM,0,
265615,265615,265615 V,Vendor,Port-Style Enterprises INC,2221 Niagara Falls Blvd,Niagara Falls,NY,14304,SALES@PORTSTYLE.COM,8002681029,
265668,265668,265668VUT,Vendor,POPCORN HOLDINGS C/O COLUMBIAN LOGISTICS,1050 36TH STREET SOUTHEAST,GRAND RAPIDS,MI,49508,OPS@POPZEROPOPCORN.COM,8557679376,
265668,265668,265668VMI,Vendor,POPCORN HOLDING C/O CLASSIC TRANSPORTATION & WAREHOUSING,5357 52ND STREET SUITE D/E,GRAND RAPIDS,MI,49512,OPS@POPZEROPOPCORN.COM,8557679376,
265809,265809,265809VCO,Vendor,SCS DIRECT C/O CAMERON'S PRODUCTS,1660 SOUTH CIRCLE DRIVE,COLORADO SPRINGS,CO,80910,RACHELM@SCSDIRECTINC.COM,8314570301,
265809,265809,265809 V,Vendor,SCS Direct Inc,22 Marsh Hill Road,Orange,CT,6477,RACHELM@SCSDIRECTINC.COM,8314570301,
265810,265810,265810VIL,Vendor,KARMA NUTS C/O RJW LOGISTICS GROUP,1000 VETERANS PARKWAY,BOLINGBROOK,IL,60440,CHUCK@KARMANUTS.COM,9259615491,
265810,265810,265810VCA,Vendor,KARMA NUTS INC/BUENA PARK WAREHOUSE,6570 ALTURA BLVD,BUENA PARK,CA,90620,CHUCK@KARMANUTS.COM,9259615491,
265817,265817,265817VCA,Vendor,SCENTCO INC,8640 ARGENT ST,SANTEE,CA,92071,SLUCAS@SCENTCOINC.COM,6195829900,
265818,265818,265818 V,Vendor,Fast-Pak Trading Inc,375 County Ave.,Secaucus,NJ,7094,KASCOLILLO@JOHARE.COM,2012934757,
265819,265819,265819 V,Vendor,Pepper Explosion Wholesale,224 Stockton Street,Phillipsburg,NJ,8865,ROBERT@PEPPEREXPLOSION.COM,2483857377,
265820,265820,265820VCA,Vendor,MINTED/ GLOBE CON FREIGHT SYSTEMS INC,18420 BROADWICK STREET,90220,CA,90220,KATE.GOTHREAU@MINTED.COM,4153991100,
265836,265836,265836 V,Vendor,1 IN 6 Snacks LLC,1717 E Lawson St,Durham,NC,27703,INFO@1IN6SNACKS.COM,8559167622,
265836,265836,265836 V2,Vendor,1 in 6 Snacks LLC,2726 Raleigh Rd,Henderson,NC,27536,INFO@1IN6SNACKS.COM,8559167622,
265838,265838,265838VAR,Vendor,JUST JAN'S C/O HOUSE OF WEBSTER,1013 NORTH 2ND STREET,ROGERS,AR,72756,JAN@JUSTJANS.COM,8182826236,
265840,265840,265840VWI,Vendor,QUAKER BAKERY BRANDS C/O PROGRESSIVE WAREHOUSE,W6470 QUALITY DRIVE,GREENVILLE,WI,54942,KASCOLILLO@JOHARE.COM,9207349206,
265879,265879,265879VIL,Vendor,YELLOW IRIS FOODS C/O DISTRIBUTION 2000,1165 WEST CROSSROAD PARKWAY,ROMEOVILLE,IL,60446,ORDERS.US@ALCHIPINO.COM,4128549012,
265880,265880,265880VTX,Vendor,TERRASOUL SUPERFOODS,"1001 NORTHEAST LOOP 820, SUITE 525",FORTH WORTH,TX,76131,SERVICE@TERRASOUL.COM,8004588773,
265881,265881,265881 V,Vendor,Herb and Lous LLC,9302 Ashton RD,Philadelphia,PA,19114,SALES@HERBANDLOUS.COM,2676267613,
265895,265895,265895 V,Vendor,Seoul Trading USA Co,360 South Van Brunt st,Englewood,NJ,7631,YONG.JIN@SEOULTRADINGUSA.COM,2015677780,
265911,265911,265911 V,Vendor,Navy Hill,14190 Washington Highway,Ashland,VA,23005,KATIE@DRINKNAVYHILL.COM,8046157555,
265913,265913,265913VCA,Vendor,Q MIXERS/ SIERRA PACIFIC,4300 FINCH ROAD,MODESTO,CA,95357,ORDERS@QMIXERS.COM,8046980200,
265913,265913,265913 V,Vendor,Q Mixers,9 Nicholas Court Ste. C,Dayton,NJ,8810,ORDERS@QMIXERS.COM,8046980200,
265918,265918,265918VCA,Vendor,POCKET LATTE,852 SOUTH ALTA VISTA AVE,MONROVIA,CA,91016,ADMIN@POCKETLATTE.COM,2132628122,
265925,265925,265925VMN,Vendor,MADDY & MAIZE,"5310 WEST 23RD STREET, SUITE 120, DOCK 1 OR 2",SAINT LOUIS PARK,MN,55416,INFO@MADDYANDMAIZE.COM,8123715451,
265926,265926,265926 V,Vendor,Gourmet Warehouse Inc.,"8 Cardinal rd., Building F",Hilton Head Island,SC,29926,RICHARD@GOURMETWAREHOUSE.NET,8774962746,
265959,265959,265959VCA,Vendor,SUNNYLIFE/ NFI DISTRIBUTION,13169 SLOVER AVE,FONTANA,CA,92337,KEVIN.ADDY@SUNNYLIFE.COM,3235910219,
265987,265987,265987VCA,Vendor,NOOSH BRANDS,4439 ISH DRIVE,SIMI VALLEY,CA,93063,JZELAYA@DAYMON.COM,8055225744,
266004,266004,266004VME,Vendor,ENTOSENSE,41 CHESTNUT STREET,LEWISTON,ME,4240,BILL@ENTOSENSE.COM,8007941829,
266020,266020,266020 V,Vendor,"Blender Bombs, INC",547 Griffith Rd.,Charlotte,NC,28217,SCOTT@BLENDERBOMBS.COM,3367076435,
266085,266085,266085 VB,Vendor,Wanna Date ?  LLC,3610 Commerce Drive,Halethorpe,MD,21227,MELISSA@EATWANNADATE.COM,6786285210,
266127,266127,266127 V,Vendor,"Fazer USA, INC",7 Corn Rd,Dayton,NJ,8810,FAZER-USA.ORDERS@FAZER.COM,4128549012,
266168,266168,266168 V,Vendor,Co Pack Solution,445 Specialty Point,Sanford,FL,32771,DAVID@COPACKSOLUTION.COM,3218005311,
266170,266170,266170VCA,Vendor,HAKUBAKU USA/ MAXWAY,1480 BEACHY PLACE,CARSON,CA,90746,ORDER@HAKUBAKU.US,7143520866,
266208,266208,266208VWI,Vendor,THE ZENSWEET COMPANY C/O TROY STAR FOOD PACKAGING,150 LONGMEADOW DRIVE,BURLINGTON,WI,53105,SALES@ZENSWEET.COM,7076338002,
266209,266209,266209VNV,Vendor,BRANDABLE C/O ADVANTAGE WAREHOUSING & LOGISTICS,7015 CORPORATE PLAZA DRIVE #120,LAS VEGAS,NV,89118,ELVIA.ACEVEDO@BRANDABLELA.COM,9137064947,
266225,266225,266225 V,Vendor,Yaupon Brother American Tea,115 Whetzel Street,Edgewater,FL,32132,KYLE@YAUPONBROTHERS.COM,3865472926,
266234,266234,266234VCA,Vendor,THE GOOD CHOCOLATE,25 LELAND AVE,SAN FRANCISCO,CA,94134,ACCOUNTS@GOODCHOCOLATE.COM,4153364555,
266235,266235,266235VWA,Vendor,MAGICDATES C/O WORLD WIDE GOURMET FOODS,21616 87TH AVENUE SOUTHEAST,WOODINVILLE,WA,98072,DIANA@MAGICDATESBITES.COM,3109946000,
266298,266298,266298VAZ,Vendor,NONNI'S FOODS,10875 WEST NORTHVIEW AVENUE,GLENDALE,AZ,85307,ACCOUNT.SERVICES@NONNIS.COM,4154074345,
266318,266318,266318VTX,Vendor,GNS FOODS,2109 EAST DIVISION STREET,ARLINGTON,TX,76011,ERICA@GNSFOODS.COM,8177954671,
266333,266333,266333VCA,Vendor,AMI COSMETICS C/O VALENCIA FULFILLMENT,28610 HASLEY CANYON ROAD,CASTAIC,CA,91384,SARAKIM@SKINAMI.CO.KR,8226918813,
266334,266334,266334VCA,Vendor,RH&B BRANDS INC,28610 HASLEY CANYON ROAD,CASTAIC,CA,91384,OCB@RHNB.CO.KR,8210540080,
266335,266335,266335VCA,Vendor,KCOSERA INC/VALENCIA FULFILLMENT,28610 HASLEY CANYON ROAD,CASTAIC,CA,91384,JKIM@BESFREN.COM,6464364482,
266354,266354,266354VWA,Vendor,GOURMET MIXES DBA DEMITRI'S GOURMET MIXES,"8230 5TH AVENUE, SUITE A",SEATTLE,WA,98108,KELLY@DEMITRIS.COM,2067646006,
266385,266385,266385VMN,Vendor,HENKE FOODS,3590 CENTURY AVENUE NORTH,MAHTOMEDI,MN,55115,JUSTIN@HENKEFOODS.COM,8003285598,
266386,266386,266386VID,Vendor,EMERALD CITY PROMOTIONS C/O DREAM CHOCOLATE,2127 CENTURY WAY,BOISE,ID,83709,DOUG@ROCKDAROOSTER.COM,2062712880,
266386,266386,266386VIN,Vendor,EMERALD CITY PROMOTIONS C/O RED  GOLD DISTRIBUTION CENTER,2595 WEST STATE ROUTE 28,ALEXANDRIA,IN,46001,DOUG@ROCKDAROOSTER.COM,2062712880,
266386,266386,266386VWA2,Vendor,EMERALD CITY PROMOTIONS C/O S.A. MILLIGAN COMPANY,"4060 150TH AVENUE COURT, SUITE 102",SUMNER,WA,98390,DOUG@ROCKDAROOSTER.COM,2062712880,
266499,266499,266499VCO,Vendor,CHILE COLONIAL C/O COLORADO COPACKING,"1725 SKYWAY DRIVE, SUITE 170",LONGMONT,CO,80504,SUSIE@CHILECOLONIAL.COM,4155156249,
266504,266504,266504VOR,Vendor,LAIRD SUPERFOOD,295 WEST LUNDGREN MILL DRIVE,SISTERS,OR,97759,RILEY@LAIRDSUPERFOOD.COM,8886706796,
266575,266575,266575VCA,Vendor,KWEEN FOODS,2649 BOSTON AVE,SAN DIEGO,CA,92113,ADMIN@KWEEN.CO,4013430805,
266600,266600,266600VCA,Vendor,BROTHER'S TRADING,"2015 SAYBROOK AVE, UNIT B",COMMERCE,CA,90040,INFO@GEMGEMSWEET.COM,6263789323,
266606,266606,266606VMO,Vendor,A DOZEN COUSINS C/O PINNACLE SERVICES,1904 NORTH LE COMPTE ROAD,SPRINGFIELD,MO,65805,IB@ADOZENCOUSINS.COM,3475517966,
266760,266760,266760VMN,Vendor,WEST EMORY,3505 HENNEPIN AVENUE SOUTH,MINNEAPOLIS,MN,55408,BJESSEN@WESTEMORY.COM,9083726030,
266782,266782,266782VCA,Vendor,EVOLUE SKINCARE INC/ VALENCIA FULFILLMENT,28610 HASLEY CANYON ROAD,CASTAIC,CA,91384,JEAN@EVOLUEBEAUTY.COM,3105696976,
266830,266830,266830 V,Vendor,SpicewallaBrand / Herkimer industries,304-306 Fourth Ave,Herkimer,NY,13350,ORDERS@SPICEWALLABRAND.COM,8284177010,
266850,266850,266850VTN,Vendor,SHELLY COVE,100 CHEROKEE BOULEVARD,CHATTANOOGA,TN,37405,MATT@SHELLYCOVE.COM,3368706318,
266852,266852,266852 V,Vendor,Casemate Publishers,22883 Quicksilver Dr,Dulles,VA,20166,MICHAELA.GOFF@CASEMATEPUBLISHERS.COM,6108539131,
266892,266892,266892 V,Vendor,French Feast,473 South Dean Street,Englewood,NJ,7631,ORDER@FRENCHFEAST.COM,2017313102,
266921,266921,266921VTX,Vendor,MK 1704 C/O ALAMO FOOD EQUIPMENT,6600 GUADA COMA DRIVE,SCHERTZ,TX,78154,JLB@FARINUP.US,8325103325,
266937,266937,266937VIN,Vendor,WELCOME HOME BRANDS C/O ENTERMARKET,6402 CORPORATE DRIVE,INDIANAPOLIS,IN,46278,SAM@WELCOMEHOMEBRANDS.COM,9146960010,
266939,266939,266939 V,Vendor,Colors X LLC DBA ;,6617B Fleetwood Drive,Raleigh,NC,27612,SINDRI@COLORSXGOOD.COM,9546509786,
266943,266943,266943VCA,Vendor,GRAF LANTZ,2751 W TEMPLE STREET,LOS ANGELES,CA,90026,SALES@GRAF-LANTZ.COM,3105602412,
266949,266949,266949 V,Vendor,Hughes Furniture,952 S. Stout Rd,Randleman,NC,27317,MFORCE@HUGHESFURNITURE.COM,3364988700,
266968,266968,266968VOR,Vendor,COSMOS CREATIONS,395 EAST 1ST AVENUE,JUNCTION CITY,OR,97448,SALES@COSMOSCREATIONS.COM,5419988883,
266970,266970,266970 V,Vendor,Edison Nation,445 Industrial Road,Carlstadt,NJ,7072,RHOPKINS@EDISONNATION.COM,3107813833,
266973,266973,266973 V,Vendor,Teakhaus LLC,60 Clyde Rd,Somerset,NJ,8873,ORDERS@TEAKHAUS.COM,8883542565,
266976,266976,266976VUT,Vendor,GLOBAL GATE INTERNATIONAL C/O PECZUH PRINTING,1633 SOUTH 4800 WEST,SALT LAKE CITY,UT,84104,ELLA.GENCEL@GMAIL.COM,4157028102,
266984,266984,266984VWA,Vendor,MADRONA SPECIALITY FOODS,18621 72ND AVENUE SOUTH,KENT,WA,98032,CUSTOMERSERVICE@LAPANZANELLA.COM,2066735039,
266985,266985,266985 V,Vendor,Palacios USA / Miami Gardens,1055 NW 159th Dr,Miami,FL,33169,FRED.STEINER@PALACIOS.US,3054771650,
266997,266997,266997VWI,Vendor,BAREFOOT C/O LSC COMMUNICATIONS,677 BRIGHTON BEACH ROAD,MENASHA,WI,54952,TRADEORDERS@BAREFOOTBOOKS.COM,6175760660,
267009,267009,267009VCA2,Vendor,SAUCE VENTURES/ TRUFF HQ,15241 TRANSISTOR LANE,HUNTINGTON BEACH,CA,92649,WHOLESALE@TRUFFHOTSAUCE.COM,7143759647,
267009,267009,267009VCA,Vendor,SAUCE VENTURES/TRUFF HOT SAUCE,18253 GOTHARD STREET,HUNTINGTON BEACH,CA,92648,WHOLESALE@TRUFFHOTSAUCE.COM,7143759647,
267034,267034,267034VCA,Vendor,BSGI NZ/ MAINFREIGHT INC,1450 GLENN CURTIS,CARSON,CA,90746,SASHA.M@MADMILLIE.COM,6494151206,
267035,267035,267035 V,Vendor,MMTUM inc,1 UPS WAY,Champlain,NY,12919,VANESSA.CECERE@MMTUM.COM,5145643363,
267058,267058,267058 V,Vendor,Tender Leaf Toys,120 Resource Ave,Mt. Lake Park,MD,21550,KATHLEEN.MILNE@KATHLEENMILNE.COM,6269880087,
267164,267164,267164VKS,Vendor,KNORK FLATWARE,101 SOUTH EVANS,NEWTON,KS,67114,LSIMON@KNORK.NET,3162647070,
267166,267166,267166VIN,Vendor,OCG PRODUCTS C/O ENTERMARKET,6402 CORPORATE DRIVE,INDIANAPOLIS,IN,46278,CHERIE@OCGPRODUCTS.COM,2054373395,
267259,267259,267259 V,Vendor,Mingle Mocktails ( Marketway NJ),285 Ridge Road # 6,Dayton,NJ,8810,LTAYLOR@MINGLEMOCKTAILS.COM,7088708625,
267275,267275,267275V,Vendor,INSTANT BRANDS INC,2325 COTTONWOOD AVE,RIVERSIDE,CA,92508,CATHYY@INSTANTBRANDS.COM,6135190843,
267370,267370,267370VIL,Vendor,THE ZEN OF SLOW COOKING C/O ASSEMBLERS,2850 WEST COLUMBUS AVENUE,CHICAGO,IL,60652,WHOLESALE@THEZENOFSLOWCOOKING.COM,8473408414,
267379,267379,267379VWI,Vendor,SNOW RIVER COOPERATIVE,809 NORTH CENTRAL AVENUE,CRANDON,WI,54520,ORDERS@HADDOCKSALES.COM,7157846226,
267440,267440,267440 V,Vendor,"Houser-Autry Mills, INC",2732 Hibiscus dr,Edgewater,FL,32141,FOODSERVICE@HOUSE-AUTRY.COM,8008490802,
267460,267460,267460 V,Vendor,George Delallo Co inc ada TSBC,One Delallo Way,Mt. Pleasant,PA,15666,ANTHONY.DIPIETRO@DELALLO.COM,7249252222,
267505,267505,267505VCA,Vendor,OTOTO USA/ MUCH DIGITAL,200 TECHNOLOGY DR. STE A,IRVINE,CA,92618,MAYA@MUCHDIGITAL.COM,9495225503,
267519,267519,267519VCA,Vendor,LADY JAYNE LTD,6029 W. SLAUSON AVENUE,CULVER CITY,CA,90230,KIMBERLYF@PUNCHSTUDIO.COM,3103909900,
267523,267523,267523 V,Vendor,"Olivia's Croutons Company, INC",2014 Forest Dale road,Brandon,VT,5733,OFFICE@OLIVIASCROUTONS.COM,8884253080,
267634,267634,267634 V,Vendor,Roses Confections,101 Erie Blvd,Canajoharie,NY,13317,michelle@gormanconfections.com,8008398938,
267646,267646,267646VCA,Vendor,JOFFER BEVERAGE CO/ JELLY BELLY CANDY,2500 NORTH WATNEY WAY,FAIRFIELD,CA,94533,BEN@JELLYBELLYSPARKLINGWATER.COM,5419514992,
267667,267667,267667 V,Vendor,Rose Sisters Chips,480 Barnum Ave.  load dock 5,Bridgeport,CT,6608,JONATHAN@ROSESISTERSCHIPS.COM,4759998115,
267671,267671,267671VWA,Vendor,KEYCRAFT GLOBAL C/O REGAL LOGISTICS,6500 26TH STREET EAST,FIFE,WA,98424,STEVE.MELLOS@KEYCRAFTGLOBAL.COM,8333388697,
267675,267675,267675VCA,Vendor,MEMENTA INC/OIA GLOBAL,15927 DISTRIBUTION WAY,CERRITOS,CA,90703,PETER@MEMENTAINC.COM,8446363682,
267682,267682,267682VGA,Vendor,FLAVOR PURVEYOR C/O LEAVEN KITCHENS,215 LAREDO DRIVE,DECATUR,GA,30030,HANNAH@FLAVORPURVEYOR.COM,7032032028,
267683,267683,267683 V,Vendor,"Sisson Distribution, LLC","5855 Placida Road, unit 300",Englewood,FL,34224,CHERI@KANDAENTERPRISES.COM,9412145373,
267701,267701,267701 V,Vendor,W & P Design Fullfillment,"110 Vista Centre Drive, Ste 7",Forest,VA,24551,WANDP-ORDERS@SOURCE4.COM,6466207271,
267703,267703,267703VCO,Vendor,HAMMONDS CANDIES,5755 WASHINGTON STREET,DENVER,CO,80216,HBERGER@HAMMONDSBRANDS.COM,6466207271,
267710,267710,267710VCA,Vendor,CUP4CUP/BIAGI BRO WAREHOUSE,700 HANNA DRIVE SUITE B,AMERICAN CANYON,CA,94503,KFINN@CUP4CUP.COM,7076812687,
267720,267720,267720VCA,Vendor,HAY! STRAWS/AIT WORLD,1519 ZEPHYR AVE,HAYWARD,CA,94544,ALEXEY@HAYSTRAWS.COM,0,
267721,267721,267721VOH,Vendor,MISS MARY'S MIX C/O DOMINION LIQUID TECHNOLOGIES,3965 VIRGINIA AVENUE,CINCINNATI,OH,45227,RTIMM@MISSMARYSMIX.COM,8884936663,
267769,267769,267769VWA,Vendor,OLYMPIC MOUNTAIN PRODUCTS,8655 SOUTH 208TH STREET,KENT,WA,98031,ORDERS@OMPLABS.COM,2538502343,
267778,267778,267778VCA,Vendor,ALL ACROSS AFRICA,100 W 35TH ST SUTIE G,NATIONAL CITY,CA,91950,INFO@ALLACROSSAFRICA.ORG,8583338484,
267781,267781,267781VIL,Vendor,STAR HOME,13801 WEST LAUREL DRIVE,LAKE FOREST,IL,60045,PS@STARHOMEDECOR.US,2245434800,
267799,267799,267799VWA,Vendor,PAPERSALT A DIVISION OF REVOLUTION,3663 1ST AVENUE SOUTH,SEATTLE,WA,98134,ORDERS@PAPERSALT.COM,2067480055,
267819,267819,267819VIL,Vendor,IPG,600 NORTH PULASKI ROAD,CHICAGO,IL,60707,ISCHREIDER@IPGBOOK.COM,3123370747,
267838,267838,267838 V,Vendor,Minor Figures Inc,"20-10 Maple Ave, Building 35",Fair Lawn,NJ,7410,CHRIS@MINORFIGURES.COM,9178617564,
267882,267882,267882 V,Vendor,Little Likes Kids,"582 Great Road, Suite 101",N. Smithfield,RI,2896,SALES@LITTLELIKESKIDS.COM,2028885957,
267897,267897,267897VCA,Vendor,SMART WAREHOUSE,1545 E. LOCUST ST,ONTARIO,CA,91761,JENNI@KIDMADEMODERN.COM,6306494434,
267903,267903,267903VCA,Vendor,JYOON COSMETICS/ VALENCIA FULFILMENT,28610 HASLEY CANYON ROAD,CASTAIC,CA,91384,JSH@SKINISGOOD.COM,0,
267927,267927,267927VWA,Vendor,ELKI CORPORATION,6101 23RD DRIVE WEST,EVERETT,WA,98203,ELIE@ELKI.COM,4252611002,
267937,267937,267937VWA,Vendor,WRAPPILY C/O SKAGIT PUBLISHING,1215 ANDERSON ROAD,MOUNT VERNON,WA,98274,WHOLESALE@WRAPPILY.COM,8885326816,
267981,267981,267981VCA,Vendor,WILDCRAFTER BOTANICAL,5330 EASTGATE MAIL,SAN DIEGO,CA,92121,BILLING@HEALTHYLIFESTYLEBRANDS.COM,0,
268022,268022,268022VCA,Vendor,THE DANISH GROUP/TRIWAYS INC,11201 IBERIA ST SUITE B,MIRA LOMA,CA,91752,MARK.ANTHONY@ROYALUNIBREW.COM,3057793085,
268022,268022,268022 V,Vendor,The Danish brewery Group,298 Lincoln Ave.,Orwigsburg,PA,17961,MARK.ANTHONY@ROYALUNIBREW.COM,3057793085,
268026,268026,268026VAZ,Vendor,ALMOND BROTHERS,4102 EAST AIR LANE,PHOENIX,AZ,85034,ORDERS@ALMONDBROTHERS.COM,6029550909,
268042,268042,268042VTN,Vendor,PADDYWAX C/O FIDELITONE,300 OAK BLUFF LANE,GOODLETTSVILLE,TN,37072,TONI.TRUETT@PADDYWAX.COM,6156307100,
268060,268060,268060VWA,Vendor,CORO FOODS,7032 SOUTH 188TH STREET,KENT,WA,98032,ORDERS@COROFOODS.COM,2532368300,
268245,268245,268245 V,Vendor,Bormioli Rocco,1656 Joey Zorn Blvd,Barnwell,SC,29812,CCHARLES@BORMIOLIROCCOUSA.COM,2127190606,
268293,268293,268293 V,Vendor,Bialetti Usa,4 Engelhard Ave,Avenel,NJ,7001,ALVISE.RICOVERI@BIALETTIGROUP.COM,2017456765,
800000037,800000037,800000037VIL,Vendor,BODUM AT LESAINT LOGISTICS,868 W CROSSROADS,ROMEOVILLE,IL,60440,YASAIRA.DILONE@BODUM.COM,2123678844,
800000094,800000094,800000094VBD,Vendor,SANTINI FOODS,2225 GRANT AVE,SAN LORENZO,CA,94580,VIK@SANTINIFOODS.COM,5103178888,
