{"distinct": [{"__class__": "tuple", "__value__": [{"ID": "207665", "NAME": "st. john ambulance", "ADDRESS_1": "407 speers road", "CITY": "oakville", "PROVINCE": "on", "POSTAL_CODE": "l6k 3t5", "BUSINESS_PHONE": "5195796285", "FED_ID_NUM": null, "RMIS_MC_NUMBER": null, "": null}, {"ID": null, "NAME": null, "ADDRESS_1": null, "CITY": null, "PROVINCE": null, "POSTAL_CODE": null, "BUSINESS_PHONE": null, "FED_ID_NUM": null, "RMIS_MC_NUMBER": null, "": null}]}, {"__class__": "tuple", "__value__": [{"ID": "212397", "NAME": "lora balaag", "ADDRESS_1": null, "CITY": "brampton", "PROVINCE": "on", "POSTAL_CODE": null, "BUSINESS_PHONE": null, "FED_ID_NUM": null, "RMIS_MC_NUMBER": null, "": null}, {"ID": "212814", "NAME": "all-lift ltd.", "ADDRESS_1": "320 clarence st.", "CITY": "brampton", "PROVINCE": "on", "POSTAL_CODE": "l6w 1t5", "BUSINESS_PHONE": "9054595348", "FED_ID_NUM": null, "RMIS_MC_NUMBER": null, "": null}]}, {"__class__": "tuple", "__value__": [{"ID": "207449", "NAME": "blue chip", "ADDRESS_1": "301 wheelabrator way", "CITY": "milton", "PROVINCE": "on", "POSTAL_CODE": "l9t 3c1", "BUSINESS_PHONE": null, "FED_ID_NUM": null, "RMIS_MC_NUMBER": null, "": null}, {"ID": "210778", "NAME": null, "ADDRESS_1": "contact drivers services agency", "CITY": "milton", "PROVINCE": "on", "POSTAL_CODE": "l9t 3c1", "BUSINESS_PHONE": null, "FED_ID_NUM": null, "RMIS_MC_NUMBER": null, "": null}]}, {"__class__": "tuple", "__value__": [{"ID": "249007", "NAME": "smc3", "ADDRESS_1": "po box 2040", "CITY": "peachtree city", "PROVINCE": "ga", "POSTAL_CODE": "30269", "BUSINESS_PHONE": null, "FED_ID_NUM": null, "RMIS_MC_NUMBER": null, "": null}, {"ID": "250452", "NAME": null, "ADDRESS_1": "kds systems", "CITY": "peachtree city", "PROVINCE": "ga", "POSTAL_CODE": "30269", "BUSINESS_PHONE": "8885067986", "FED_ID_NUM": null, "RMIS_MC_NUMBER": null, "": null}]}, {"__class__": "tuple", "__value__": [{"ID": "213739", "NAME": "michael lobreau", "ADDRESS_1": "p o box 3087 stn main", "CITY": "sherwood park", "PROVINCE": "ab", "POSTAL_CODE": "t8h 2t1", "BUSINESS_PHONE": "7809835959", "FED_ID_NUM": null, "RMIS_MC_NUMBER": null, "": null}, {"ID": "215136", "NAME": "michael ondejko", "ADDRESS_1": null, "CITY": "mississauga", "PROVINCE": "on", "POSTAL_CODE": "l5l 4l6", "BUSINESS_PHONE": null, "FED_ID_NUM": null, "RMIS_MC_NUMBER": null, "": null}]}, {"__class__": "tuple", "__value__": [{"ID": "210987", "NAME": "ibrahim mukhtar larryjajawei", "ADDRESS_1": null, "CITY": "brampton", "PROVINCE": "on", "POSTAL_CODE": "l6s 0c9", "BUSINESS_PHONE": null, "FED_ID_NUM": null, "RMIS_MC_NUMBER": null, "": null}, {"ID": "212302", "NAME": "ranjit singh grewal", "ADDRESS_1": "15 nanport st", "CITY": "brampton", "PROVINCE": "on", "POSTAL_CODE": "l6s 4c3", "BUSINESS_PHONE": "9057902959", "FED_ID_NUM": null, "RMIS_MC_NUMBER": null, "": null}]}, {"__class__": "tuple", "__value__": [{"ID": "207671", "NAME": "726231 ontario limited", "ADDRESS_1": null, "CITY": null, "PROVINCE": null, "POSTAL_CODE": null, "BUSINESS_PHONE": null, "FED_ID_NUM": null, "RMIS_MC_NUMBER": null, "": null}, {"ID": "207677", "NAME": "673751 ontario limited", "ADDRESS_1": null, "CITY": null, "PROVINCE": null, "POSTAL_CODE": null, "BUSINESS_PHONE": null, "FED_ID_NUM": null, "RMIS_MC_NUMBER": null, "": null}]}, {"__class__": "tuple", "__value__": [{"ID": "200238", "NAME": "american leader", "ADDRESS_1": "1510 midway ct unit e 105", "CITY": "elk grove village", "PROVINCE": "il", "POSTAL_CODE": "60007", "BUSINESS_PHONE": "8476900621", "FED_ID_NUM": null, "RMIS_MC_NUMBER": "mc671373", "": null}, {"ID": "222487", "NAME": "american united insurance", "ADDRESS_1": null, "CITY": null, "PROVINCE": null, "POSTAL_CODE": null, "BUSINESS_PHONE": null, "FED_ID_NUM": null, "RMIS_MC_NUMBER": null, "": null}]}, {"__class__": "tuple", "__value__": [{"ID": "237937", "NAME": "illinois secretary of state", "ADDRESS_1": "501 s 2nd street", "CITY": "springfield", "PROVINCE": "il", "POSTAL_CODE": "62756-5510", "BUSINESS_PHONE": null, "FED_ID_NUM": null, "RMIS_MC_NUMBER": null, "": null}, {"ID": "254875", "NAME": "secretary of state", "ADDRESS_1": null, "CITY": null, "PROVINCE": null, "POSTAL_CODE": null, "BUSINESS_PHONE": null, "FED_ID_NUM": null, "RMIS_MC_NUMBER": null, "": null}]}, {"__class__": "tuple", "__value__": [{"ID": "207644", "NAME": "suncor energy products partnership", "ADDRESS_1": "po box 4038", "CITY": "toronto", "PROVINCE": "on", "POSTAL_CODE": "m5w 1s5", "BUSINESS_PHONE": "8665290329", "FED_ID_NUM": null, "RMIS_MC_NUMBER": null, "": null}, {"ID": "207686", "NAME": "petro-canada", "ADDRESS_1": "po box 4038", "CITY": "toronto", "PROVINCE": "on", "POSTAL_CODE": "m5w 1s5", "BUSINESS_PHONE": "4167337000", "FED_ID_NUM": null, "RMIS_MC_NUMBER": null, "": null}]}, {"__class__": "tuple", "__value__": [{"ID": "207569", "NAME": "kleanair emissions", "ADDRESS_1": "150 waters blvd", "CITY": "milton", "PROVINCE": "on", "POSTAL_CODE": "l9t 6k5", "BUSINESS_PHONE": "9057950089", "FED_ID_NUM": null, "RMIS_MC_NUMBER": null, "": null}, {"ID": "210778", "NAME": null, "ADDRESS_1": "contact drivers services agency", "CITY": "milton", "PROVINCE": "on", "POSTAL_CODE": "l9t 3c1", "BUSINESS_PHONE": null, "FED_ID_NUM": null, "RMIS_MC_NUMBER": null, "": null}]}], "match": [{"__class__": "tuple", "__value__": [{"ID": "207419", "NAME": "advance border processing centre", "ADDRESS_1": "2660 w.fort", "CITY": "detroit", "PROVINCE": "mi", "POSTAL_CODE": "48216", "BUSINESS_PHONE": null, "FED_ID_NUM": null, "RMIS_MC_NUMBER": null, "": null}, {"ID": "207431", "NAME": "advance border processing centre", "ADDRESS_1": null, "CITY": null, "PROVINCE": null, "POSTAL_CODE": null, "BUSINESS_PHONE": null, "FED_ID_NUM": null, "RMIS_MC_NUMBER": null, "": null}]}, {"__class__": "tuple", "__value__": [{"ID": "212393", "NAME": "sandeep singh ludhar", "ADDRESS_1": "6 jamestown court", "CITY": "caledon", "PROVINCE": "on", "POSTAL_CODE": "l7c 3w7", "BUSINESS_PHONE": "9054976030", "FED_ID_NUM": null, "RMIS_MC_NUMBER": null, "": null}, {"ID": "213235", "NAME": "gursimranjit singh", "ADDRESS_1": "6 jamestown court", "CITY": "caledon", "PROVINCE": "on", "POSTAL_CODE": "l7c 3w7", "BUSINESS_PHONE": "9054976030", "FED_ID_NUM": null, "RMIS_MC_NUMBER": null, "": null}]}, {"__class__": "tuple", "__value__": [{"ID": "207436", "NAME": "bns construction & maintenance", "ADDRESS_1": "14 white birch drive, r.r.#1", "CITY": "rosseau", "PROVINCE": "on", "POSTAL_CODE": "p0c 1j0", "BUSINESS_PHONE": "7059381500", "FED_ID_NUM": null, "RMIS_MC_NUMBER": null, "": null}, {"ID": "207437", "NAME": "bsn construction & maintenance", "ADDRESS_1": "14 white birch drive, r r #1,", "CITY": "rosseau", "PROVINCE": "on", "POSTAL_CODE": "p0c 1j0", "BUSINESS_PHONE": "7059381500", "FED_ID_NUM": null, "RMIS_MC_NUMBER": null, "": null}]}, {"__class__": "tuple", "__value__": [{"ID": "207694", "NAME": "safety insurance service inc.", "ADDRESS_1": null, "CITY": null, "PROVINCE": null, "POSTAL_CODE": null, "BUSINESS_PHONE": null, "FED_ID_NUM": null, "RMIS_MC_NUMBER": null, "": null}, {"ID": "207823", "NAME": "safety insurance", "ADDRESS_1": "8300 woodbine ave", "CITY": "markham", "PROVINCE": "on", "POSTAL_CODE": "l3p 9y6", "BUSINESS_PHONE": "8888455548", "FED_ID_NUM": null, "RMIS_MC_NUMBER": null, "": null}]}, {"__class__": "tuple", "__value__": [{"ID": "207666", "NAME": "safety ins service (1959) ltd", "ADDRESS_1": "8300 woodbine ave", "CITY": "markham", "PROVINCE": "on", "POSTAL_CODE": "l3r 9y7", "BUSINESS_PHONE": "9055138466", "FED_ID_NUM": null, "RMIS_MC_NUMBER": null, "": null}, {"ID": "207823", "NAME": "safety insurance", "ADDRESS_1": "8300 woodbine ave", "CITY": "markham", "PROVINCE": "on", "POSTAL_CODE": "l3p 9y6", "BUSINESS_PHONE": "8888455548", "FED_ID_NUM": null, "RMIS_MC_NUMBER": null, "": null}]}, {"__class__": "tuple", "__value__": [{"ID": "207481", "NAME": "contact drivers service", "ADDRESS_1": null, "CITY": null, "PROVINCE": null, "POSTAL_CODE": null, "BUSINESS_PHONE": null, "FED_ID_NUM": null, "RMIS_MC_NUMBER": null, "": null}, {"ID": "208153", "NAME": "contact driver services", "ADDRESS_1": "105 poplar avenue east", "CITY": "acton", "PROVINCE": "on", "POSTAL_CODE": "l7a 2e3", "BUSINESS_PHONE": null, "FED_ID_NUM": null, "RMIS_MC_NUMBER": null, "": null}]}, {"__class__": "tuple", "__value__": [{"ID": "208429", "NAME": "transportation intermediaries associatio", "ADDRESS_1": "1625 prince street", "CITY": "alexandria", "PROVINCE": "va", "POSTAL_CODE": "22314", "BUSINESS_PHONE": "7032995700", "FED_ID_NUM": null, "RMIS_MC_NUMBER": null, "": null}, {"ID": "210537", "NAME": "tia", "ADDRESS_1": "1625 prince st.", "CITY": "alexandria", "PROVINCE": "va", "POSTAL_CODE": "22314", "BUSINESS_PHONE": null, "FED_ID_NUM": null, "RMIS_MC_NUMBER": null, "": null}]}, {"__class__": "tuple", "__value__": [{"ID": "215663", "NAME": "the certus group of companies inc.", "ADDRESS_1": "206 - 91 skyway avenue", "CITY": "toronto", "PROVINCE": "on", "POSTAL_CODE": "m9w6r5", "BUSINESS_PHONE": "9055658082", "FED_ID_NUM": null, "RMIS_MC_NUMBER": null, "": null}, {"ID": "255892", "NAME": "the certus group of companies inc.", "ADDRESS_1": "91 skyway avenue", "CITY": "toronto", "PROVINCE": "on", "POSTAL_CODE": "m9w 6r5", "BUSINESS_PHONE": null, "FED_ID_NUM": null, "RMIS_MC_NUMBER": null, "": null}]}, {"__class__": "tuple", "__value__": [{"ID": "212908", "NAME": "9340203 canada inc.", "ADDRESS_1": "80 ridgeway cres", "CITY": "kitchener", "PROVINCE": "on", "POSTAL_CODE": "n2e 3m2", "BUSINESS_PHONE": "5198941461", "FED_ID_NUM": null, "RMIS_MC_NUMBER": null, "": null}, {"ID": "214225", "NAME": "amanda stacey", "ADDRESS_1": "80 ridgeway cres", "CITY": "kitchener", "PROVINCE": "on", "POSTAL_CODE": "n2e 3m2", "BUSINESS_PHONE": "5198941461", "FED_ID_NUM": null, "RMIS_MC_NUMBER": null, "": null}]}, {"__class__": "tuple", "__value__": [{"ID": "221469", "NAME": "amanpreet singh", "ADDRESS_1": "31 blairwood court", "CITY": "brampton", "PROVINCE": "on", "POSTAL_CODE": "l6p 1b5", "BUSINESS_PHONE": null, "FED_ID_NUM": null, "RMIS_MC_NUMBER": null, "": null}, {"ID": "221615", "NAME": "aman sekhri", "ADDRESS_1": "31 blairwood court", "CITY": "brampton", "PROVINCE": "on", "POSTAL_CODE": "l6p 1b5", "BUSINESS_PHONE": null, "FED_ID_NUM": null, "RMIS_MC_NUMBER": null, "": null}]}]}